{"version": 0.6, "generator": "Overpass API 0.7.55.5 2ca3f387", "osm3s": {"timestamp_osm_base": "2019-01-18T17:03:02Z", "copyright": "The data included in this document is from www.openstreetmap.org. The data is made available under ODbL."}, "elements": [{"type": "node", "id": 256884236, "lat": 34.0833871, "lon": -118.3851445, "tags": {"addr:city": "West Hollywood", "addr:housenumber": "692", "addr:postcode": "90069", "addr:state": "CA", "addr:street": "North Robertson Blvd.", "amenity": "bar", "contact:phone": "+1 310 289 8410", "email": "abbey@theabbeyweho.com", "gay": "yes", "lgbtq": "primary", "name": "The Abbey", "opening_hours": "Mo-Th 11:00-02:00, Fr 10:00-02:00, Sa,Su 09:00-02:00", "phone": "+1-310-289-8410", "website": "https://www.theabbeyweho.com", "wheelchair": "yes"}}, {"type": "node", "id": 279045688, "lat": 34.0559717, "lon": -118.2366391}, {"type": "node", "id": 346300785, "lat": 34.2594656, "lon": -118.3028134, "tags": {"amenity": "pub", "created_by": "Potlatch 0.10f"}}, {"type": "node", "id": 358415392, "lat": 34.1838324, "lon": -118.308185}, {"type": "node", "id": 358415393, "lat": 34.1835123, "lon": -118.3085214}, {"type": "node", "id": 358415394, "lat": 34.1837144, "lon": -118.3087959}, {"type": "node", "id": 358415395, "lat": 34.1836396, "lon": -118.3088962}, {"type": "node", "id": 358415396, "lat": 34.1836601, "lon": -118.308924}, {"type": "node", "id": 358415397, "lat": 34.1835088, "lon": -118.3090834}, {"type": "node", "id": 358415398, "lat": 34.1834903, "lon": -118.3090578}, {"type": "node", "id": 358415399, "lat": 34.1834585, "lon": -118.3090908}, {"type": "node", "id": 358415400, "lat": 34.1834359, "lon": -118.3090592}, {"type": "node", "id": 358415401, "lat": 34.1834232, "lon": -118.3090724}, {"type": "node", "id": 358415402, "lat": 34.1834027, "lon": -118.3090437}, {"type": "node", "id": 358415403, "lat": 34.1833638, "lon": -118.309084}, {"type": "node", "id": 358415405, "lat": 34.1831282, "lon": -118.3087555}, {"type": "node", "id": 358415406, "lat": 34.1832091, "lon": -118.3086713}, {"type": "node", "id": 358415407, "lat": 34.1832031, "lon": -118.3086629}, {"type": "node", "id": 358415408, "lat": 34.1832754, "lon": -118.3085878}, {"type": "node", "id": 358415409, "lat": 34.1831925, "lon": -118.3085102}, {"type": "node", "id": 358415410, "lat": 34.1831753, "lon": -118.3085144}, {"type": "node", "id": 358415411, "lat": 34.1831381, "lon": -118.3085036}, {"type": "node", "id": 358415412, "lat": 34.1831262, "lon": -118.3084923}, {"type": "node", "id": 358415413, "lat": 34.1831086, "lon": -118.3084509}, {"type": "node", "id": 358415414, "lat": 34.1831119, "lon": -118.3084054}, {"type": "node", "id": 358415415, "lat": 34.1831307, "lon": -118.3083733}, {"type": "node", "id": 358415416, "lat": 34.1831654, "lon": -118.3083575}, {"type": "node", "id": 358415417, "lat": 34.1832071, "lon": -118.308369}, {"type": "node", "id": 358415418, "lat": 34.1831736, "lon": -118.3082847}, {"type": "node", "id": 358415419, "lat": 34.1835885, "lon": -118.3078486}, {"type": "node", "id": 368167142, "lat": 34.0488198, "lon": -118.2579288, "tags": {"addr:state": "CA", "amenity": "public_building", "ele": "84", "gnis:county_name": "Los Angeles", "gnis:feature_id": "2370583", "gnis:import_uuid": "57871b70-0100-4405-bb30-88b2e001a944", "gnis:reviewed": "no", "name": "Los Angeles Community College District Office", "source": "USGS Geonames"}}, {"type": "node", "id": 368171047, "lat": 33.7411296, "lon": -118.2820154, "tags": {"addr:state": "CA", "amenity": "public_building", "ele": "12", "gnis:county_name": "Los Angeles", "gnis:feature_id": "1733522", "gnis:import_uuid": "57871b70-0100-4405-bb30-88b2e001a944", "gnis:reviewed": "no", "name": "Los Angeles Harbor Administration Building", "source": "USGS Geonames"}}, {"type": "node", "id": 368171115, "lat": 33.9566858, "lon": -118.2048541, "tags": {"addr:state": "CA", "amenity": "public_building", "ele": "37", "gnis:county_name": "Los Angeles", "gnis:feature_id": "1878402", "gnis:import_uuid": "57871b70-0100-4405-bb30-88b2e001a944", "gnis:reviewed": "no", "name": "South Gate Hall of Justice", "source": "USGS Geonames"}}, {"type": "node", "id": 368171117, "lat": 34.0816759, "lon": -118.3836894, "tags": {"addr:state": "CA", "amenity": "public_building", "ele": "57", "gnis:county_name": "Los Angeles", "gnis:feature_id": "1878167", "gnis:import_uuid": "57871b70-0100-4405-bb30-88b2e001a944", "gnis:reviewed": "no", "name": "West Hollywood County Building", "source": "USGS Geonames"}}, {"type": "node", "id": 368171118, "lat": 33.9641801, "lon": -118.3542422, "tags": {"addr:state": "CA", "amenity": "public_building", "ele": "39", "gnis:county_name": "Los Angeles", "gnis:feature_id": "1878305", "gnis:import_uuid": "57871b70-0100-4405-bb30-88b2e001a944", "gnis:reviewed": "no", "name": "Inglewood County Building", "source": "USGS Geonames"}}, {"type": "node", "id": 368171568, "lat": 34.1271419, "lon": -118.2108845, "tags": {"amenity": "public_building", "ele": "178", "gnis:county_name": "Los Angeles", "gnis:feature_id": "2104703", "gnis:import_uuid": "57871b70-0100-4405-bb30-88b2e001a944", "gnis:reviewed": "no", "is_in:state_code": "CA", "name": "Arthur G. Coons Administration Center", "source": "USGS Geonames"}}, {"type": "node", "id": 368171570, "lat": 34.1822222, "lon": -118.3086111, "tags": {"addr:state": "CA", "amenity": "public_building", "ele": "190", "gnis:county_name": "Los Angeles", "gnis:feature_id": "2086652", "gnis:import_uuid": "57871b70-0100-4405-bb30-88b2e001a944", "gnis:reviewed": "no", "name": "Burbank Municipal Services Building", "source": "USGS Geonames"}}, {"type": "node", "id": 368171571, "lat": 34.0936111, "lon": -118.2294444, "tags": {"addr:state": "CA", "amenity": "public_building", "ele": "105", "gnis:county_name": "Los Angeles", "gnis:feature_id": "2092075", "gnis:import_uuid": "57871b70-0100-4405-bb30-88b2e001a944", "gnis:reviewed": "no", "name": "Los Angeles Municipal Arraignment Court", "source": "USGS Geonames"}}, {"type": "node", "id": 437773582, "lat": 34.029328, "lon": -118.4984834, "tags": {"amenity": "pub", "name": "Father's Office"}}, {"type": "node", "id": 470868182, "lat": 34.0484694, "lon": -118.2557823, "tags": {"amenity": "pub", "name": "Casey's Irish"}}, {"type": "node", "id": 470888603, "lat": 34.0510825, "lon": -118.2452603, "tags": {"amenity": "bar", "name": "The Edison", "wheelchair": "no"}}, {"type": "node", "id": 470895665, "lat": 34.0449843, "lon": -118.2657988, "tags": {"amenity": "pub", "name": "Yard House", "opening_hours": "Su-Th 11:00-24:00, Fr,Sa 11:00-01:00", "wheelchair": "yes"}}, {"type": "node", "id": 470904248, "lat": 34.0405759, "lon": -118.2591875, "tags": {"amenity": "nightclub", "name": "The Mayan", "tourism": "yes", "wikidata": "Q6796829"}}, {"type": "node", "id": 471255289, "lat": 34.0491116, "lon": -118.2564869, "tags": {"amenity": "bar", "name": "Library Bar"}}, {"type": "node", "id": 560066659, "lat": 34.0486256, "lon": -118.2476319, "tags": {"amenity": "bar", "name": "Bar 107", "wheelchair": "limited"}}, {"type": "node", "id": 617858811, "lat": 34.2086564, "lon": -118.235961, "tags": {"amenity": "bar"}}, {"type": "node", "id": 672875645, "lat": 34.0619255, "lon": -118.4476983, "tags": {"addr:housenumber": "1000", "addr:postcode": "90024", "addr:street": "Gayley Avenue", "amenity": "bar", "name": "Rocco's Tavern", "old_name": "Maloney's", "wheelchair": "yes"}}, {"type": "node", "id": 902322522, "lat": 34.10374, "lon": -118.286982, "tags": {"addr:city": "Los Angeles", "addr:housenumber": "1800", "addr:postcode": "90027", "addr:state": "CA", "addr:street": "Hillhurst Avenue", "amenity": "bar", "name": "Drawing Room", "opening_hours": "Mo-Su 06:00-02:00", "phone": "+1-323-665-0135"}}, {"type": "node", "id": 902322528, "lat": 34.1058565, "lon": -118.287636, "tags": {"addr:city": "Los Angeles", "addr:housenumber": "1915", "addr:postcode": "90027", "addr:state": "CA", "addr:street": "Hillhurst Avenue", "amenity": "bar", "name": "Qwench Juice Bar", "opening_hours": "Mo-Su 08:00-20:00", "phone": "+1-323-912-0644", "website": "https://qwenchjuice.com/"}}, {"type": "node", "id": 902322554, "lat": 34.1028381, "lon": -118.291931, "tags": {"addr:city": "Los Angeles", "addr:housenumber": "1739", "addr:postcode": "90027", "addr:state": "CA", "addr:street": "North Vermont Avenue", "amenity": "pub", "name": "1739 Public House", "opening_hours": "Mo-Fr 11:00-02:00; Sa-Su 10:00-02:00", "phone": "+1-323-663-1739", "website": "http://1739publichouse.com/"}}, {"type": "node", "id": 911489261, "lat": 34.1031021, "lon": -118.2921523, "tags": {"amenity": "bar", "name": "Agave"}}, {"type": "node", "id": 1013280940, "lat": 33.9521475, "lon": -118.1882406, "tags": {"amenity": "bar", "name": "Los Encinos"}}, {"type": "node", "id": 1013281566, "lat": 33.9518496, "lon": -118.1843019, "tags": {"amenity": "bar", "name": "Los Lagos Bar"}}, {"type": "node", "id": 1028757169, "lat": 34.0183407, "lon": -118.4893192, "tags": {"amenity": "bar", "historic": "monument", "name": "Bodega"}}, {"type": "node", "id": 1028759192, "lat": 34.0007936, "lon": -118.4826003, "tags": {"addr:city": "Santa Monica", "addr:housenumber": "2702", "addr:postcode": "90405", "addr:state": "CA", "addr:street": "Main Street", "amenity": "pub", "name": "Finn McCool's", "opening_hours": "Mo-Th 11:00-00:00; Fr 11:00-02:00; Sa-Su 10:00-00:00", "phone": "+1 310 452 1734", "website": "http://finnmccoolsirishpub.com/"}}, {"type": "node", "id": 1028939683, "lat": 34.0854465, "lon": -118.3837871, "tags": {"addr:city": "West Hollywood", "addr:housename": "Micky's", "addr:housenumber": "8857", "addr:postcode": "90069", "addr:state": "CA", "addr:street": "Santa Monica Blvd.", "amenity": "nightclub", "contact:facebook": "https://www.facebook.com/MickysWestHollywood", "contact:instagram": "https://www.instagram.com/mickysweho/", "contact:twitter": "https://twitter.com/MickysWeho", "gay": "yes", "lgbtq": "primary", "name": "Micky's", "opening_hours": "Mo-Th 16:00-02:00, Fr 16:00-04:00, Sa 15:00-04:00, 14:00-02:00", "phone": "+1-310-657-1176", "website": "https://www.mickys.com"}}, {"type": "node", "id": 1028939685, "lat": 34.0838612, "lon": -118.38516, "tags": {"addr:city": "West Hollywood", "addr:housenumber": "8944", "addr:postcode": "90069", "addr:state": "CA", "addr:street": "Santa Monica Boulevard", "amenity": "bar", "gay": "yes", "name": "Motherlode", "opening_hours": "Mo-Su 15:00-02:00", "phone": "+1-310-659-9700", "wheelchair": "yes"}}, {"type": "node", "id": 1028939711, "lat": 34.0855201, "lon": -118.3836216, "tags": {"addr:city": "West Hollywood", "addr:housename": "Revolver", "addr:housenumber": "8851", "addr:postcode": "90069", "addr:state": "CA", "addr:street": "Santa Monica Blvd.", "alt_name": "East West Lounge", "amenity": "bar", "gay": "yes", "name": "Revolver Video Bar", "opening_hours": "Mo-Su 17:00-02:00", "phone": "+1-310-694-0430", "website": "http://www.revolverweho.com"}}, {"type": "node", "id": 1439673340, "lat": 34.0401996, "lon": -118.2309117, "tags": {"addr:housenumber": "1356", "addr:postcode": "90013", "addr:street": "Palmetto Street", "amenity": "pub", "name": "Villians Tavern"}}, {"type": "node", "id": 1441710308, "lat": 34.0481989, "lon": -118.2402313, "tags": {"addr:housenumber": "356", "addr:postcode": "90013", "addr:street": "East 2nd Street", "amenity": "pub", "cuisine": "japanese", "name": "Ebisu Japanese Tavern"}}, {"type": "node", "id": 1464770194, "lat": 33.7325524, "lon": -118.2938793}, {"type": "node", "id": 1564077334, "lat": 34.0219044, "lon": -118.4500688, "tags": {"addr:housename": "El Torito", "addr:postcode": "90405", "addr:street": "Ocean Park Boulevard", "amenity": "bar", "name": "El Torito"}}, {"type": "node", "id": 1584084274, "lat": 34.0499523, "lon": -118.2574447, "tags": {"addr:housename": "Pegasus Building", "addr:housenumber": "612", "addr:postcode": "90017", "addr:street": "South Flower St", "amenity": "bar", "name": "Public School 213", "website": "publicschool612.com"}}, {"type": "node", "id": 1584092680, "lat": 34.0470366, "lon": -118.2559266, "tags": {"addr:city": "Los Angeles", "addr:country": "US", "addr:housenumber": "515", "addr:postcode": "90014", "addr:street": "West 7th Street", "amenity": "bar", "level": "2", "name": "Seven Grand | Whiskey Bar", "website": "sevengrand.la"}}, {"type": "node", "id": 1598988424, "lat": 34.0908382, "lon": -118.3879792, "tags": {"addr:city": "West Hollywood", "addr:housenumber": "9009", "addr:postcode": "90069", "addr:state": "CA", "addr:street": "West Sunset Boulevard", "amenity": "nightclub", "email": "roxy@goldenvoice.com", "name": "The Roxy Theatre", "opening_hours": "Mo-Su 19:00-01:00", "phone": "+1-310-278-9457", "website": "http://www.theroxy.com", "wheelchair": "limited", "wikidata": "Q1565972", "wikipedia": "en:Roxy Theatre (West Hollywood)"}}, {"type": "node", "id": 1598988435, "lat": 34.090449, "lon": -118.3847153, "tags": {"addr:city": "West Hollywood", "addr:housenumber": "8852", "addr:postcode": "90069", "addr:state": "CA", "addr:street": "West Sunset Boulevard", "amenity": "nightclub", "email": "info@viperroom.com", "fax": "+1-310-652-8471", "name": "The Viper Room", "opening_hours": "Mo-Su 20:00-02:00", "phone": "+1-310-358-1881", "website": "http://www.viperroom.com", "wikidata": "Q1303059", "wikipedia": "en:The Viper Room"}}, {"type": "node", "id": 1708685266, "lat": 34.0214937, "lon": -118.4682796}, {"type": "node", "id": 1708685277, "lat": 34.0215998, "lon": -118.4687924}, {"type": "node", "id": 1708685292, "lat": 34.0212515, "lon": -118.468335}, {"type": "node", "id": 1708685348, "lat": 34.0212259, "lon": -118.4683671}, {"type": "node", "id": 1708685353, "lat": 34.021574, "lon": -118.4686721}, {"type": "node", "id": 1708685377, "lat": 34.0213749, "lon": -118.4684287}, {"type": "node", "id": 1708685412, "lat": 34.0217742, "lon": -118.4685769}, {"type": "node", "id": 1708685434, "lat": 34.0217003, "lon": -118.4685163}, {"type": "node", "id": 1710494332, "lat": 34.0494918, "lon": -118.4503018}, {"type": "node", "id": 1710494338, "lat": 34.0495997, "lon": -118.4504479}, {"type": "node", "id": 1710494369, "lat": 34.0496232, "lon": -118.4504077}, {"type": "node", "id": 1710494401, "lat": 34.0498733, "lon": -118.4500422}, {"type": "node", "id": 1710494416, "lat": 34.0496491, "lon": -118.4504298}, {"type": "node", "id": 1710494423, "lat": 34.049712, "lon": -118.4503222}, {"type": "node", "id": 1710494432, "lat": 34.0497041, "lon": -118.4498912}, {"type": "node", "id": 1710494442, "lat": 34.0494707, "lon": -118.4503379}, {"type": "node", "id": 1710494444, "lat": 34.0498545, "lon": -118.4500262}, {"type": "node", "id": 1710494458, "lat": 34.049877, "lon": -118.4499877}, {"type": "node", "id": 1710494469, "lat": 34.0494731, "lon": -118.4502858}, {"type": "node", "id": 1710494474, "lat": 34.0498375, "lon": -118.450187}, {"type": "node", "id": 1710494504, "lat": 34.0497309, "lon": -118.4499141}, {"type": "node", "id": 1710494512, "lat": 34.0497429, "lon": -118.4503485}, {"type": "node", "id": 1710494529, "lat": 34.0497508, "lon": -118.4498801}, {"type": "node", "id": 1710494586, "lat": 34.0498049, "lon": -118.4501591}, {"type": "node", "id": 1738802896, "lat": 34.04738, "lon": -118.2498732, "tags": {"amenity": "pub", "name": "Down and Out", "wheelchair": "yes"}}, {"type": "node", "id": 1770590831, "lat": 34.0505326, "lon": -118.2641492, "tags": {"amenity": "pub", "name": "Jardin des Tuileries"}}, {"type": "node", "id": 1771061776, "lat": 34.0244146, "lon": -118.3944991, "tags": {"amenity": "bar"}}, {"type": "node", "id": 1792518214, "lat": 34.014683, "lon": -118.4970599, "tags": {"amenity": "pub", "name": "Ye Olde King's Head"}}, {"type": "node", "id": 1831615668, "lat": 34.182182, "lon": -118.3069835}, {"type": "node", "id": 1831615669, "lat": 34.1820942, "lon": -118.3067361}, {"type": "node", "id": 1831615670, "lat": 34.1822798, "lon": -118.3064135}, {"type": "node", "id": 1831615671, "lat": 34.1818433, "lon": -118.3070003}, {"type": "node", "id": 1831615673, "lat": 34.1814554, "lon": -118.3078172}, {"type": "node", "id": 1831615676, "lat": 34.1820996, "lon": -118.3071184}, {"type": "node", "id": 1831615678, "lat": 34.1820031, "lon": -118.30722}, {"type": "node", "id": 1831615679, "lat": 34.1822018, "lon": -118.3070107}, {"type": "node", "id": 1831615680, "lat": 34.1824536, "lon": -118.3067797}, {"type": "node", "id": 1831615686, "lat": 34.182506, "lon": -118.3067246}, {"type": "node", "id": 1831615687, "lat": 34.1824395, "lon": -118.3067603}, {"type": "node", "id": 1831615688, "lat": 34.1817034, "lon": -118.3071453}, {"type": "node", "id": 1831615689, "lat": 34.181876, "lon": -118.3073834}, {"type": "node", "id": 1831615690, "lat": 34.1820418, "lon": -118.3066642}, {"type": "node", "id": 1831615693, "lat": 34.1812751, "lon": -118.3075941}, {"type": "node", "id": 1831615695, "lat": 34.1820798, "lon": -118.3070912}, {"type": "node", "id": 1887254620, "lat": 34.0154186, "lon": -118.4767299, "tags": {"addr:housenumber": "1326", "addr:postcode": "90405", "addr:street": "Pico Blvd", "amenity": "bar", "name": "Speak Easy Cocktail"}}, {"type": "node", "id": 1924396787, "lat": 34.2570135, "lon": -118.5969479, "tags": {"addr:city": "Chatsworth", "addr:housenumber": "21356", "addr:postcode": "91311", "addr:state": "CA", "addr:street": "Devonshire Street", "amenity": "pub", "name": "West End Tavern", "note": "formerly McG's Pub & Grill", "opening_hours": "11:30 AM - 02:00 AM", "smoking": "outside"}}, {"type": "node", "id": 1956156321, "lat": 34.0999488, "lon": -118.2901366, "tags": {"addr:city": "Los Angeles", "addr:housenumber": "4628", "addr:postcode": "90027", "addr:state": "CA", "addr:street": "Hollywood Boulevard", "amenity": "bar", "cuisine": "wine;beer", "name": "Covell", "opening_hours": "Mo-Th 17:00-00:00; Fr 17:00-02:00; Sa 11:00-02:00; Su 11:00-00:00", "phone": "+1-323-660-4400", "website": "barcovell.com"}}, {"type": "node", "id": 2021110482, "lat": 34.0502596, "lon": -118.2454369, "tags": {"amenity": "pub", "contact:facebook": "https://www.facebook.com/The-New-Jalisco-Bar-183128448397893/", "gay": "yes", "lgbtq": "primary", "name": "The New Jalisco Bar", "website": "https://new-jalisco-bar-the.hub.biz/", "wifi": "no"}}, {"type": "node", "id": 2027448381, "lat": 34.0504991, "lon": -118.2458647, "tags": {"amenity": "nightclub", "name": "The Smell", "wheelchair": "limited", "wikidata": "Q7764894"}}, {"type": "node", "id": 2055258026, "lat": 33.9411505, "lon": -118.4021742, "tags": {"amenity": "bar", "name": "Point the Way Cafe"}}, {"type": "node", "id": 2058508776, "lat": 34.0982094, "lon": -118.3174969, "tags": {"amenity": "bar", "name": "Cocktails"}}, {"type": "node", "id": 2164968669, "lat": 34.101276, "lon": -118.3418004, "tags": {"amenity": "bar", "name": "Library Bar", "opening_hours": "17:30:", "website": "https://www.thompsonhotels.com/hotels/la/hollywood-roosevelt/drink/library-bar"}}, {"type": "node", "id": 2164968701, "lat": 34.1011399, "lon": -118.3417933, "tags": {"amenity": "nightclub", "name": "Teddys", "website": "https://www.thompsonhotels.com/hotels/la/hollywood-roosevelt/drink/teddy%27s"}}, {"type": "node", "id": 2164968703, "lat": 34.1012721, "lon": -118.3416595, "tags": {"amenity": "bar", "name": "Tropicana Bar", "opening_hours": "Mo-Th 10:00-21:00; Fr-Sa 22:00-2:00", "website": "http://www.thompsonhotels.com/hotels/la/hollywood-roosevelt/drink/tropicana-bar"}}, {"type": "node", "id": 2165116983, "lat": 34.1014014, "lon": -118.3316234, "tags": {"amenity": "nightclub", "name": "Hollywood Hookah Lounge", "opening_hours": "Mo-Su 16:00 - 04:00", "phone": "+1 323-469-4622", "website": "http://hollywoodhookahlounge.com/"}}, {"type": "node", "id": 2165194436, "lat": 34.0999116, "lon": -118.329773, "tags": {"amenity": "nightclub", "name": "AV Nightclub", "opening_hours": "Mo 22:30-03:00; Fr-Sa 22:30-03:00", "phone": "+1 323-466-1400", "website": "http://www.avnightclub.com/"}}, {"type": "node", "id": 2165194437, "lat": 34.100137, "lon": -118.3297497, "tags": {"amenity": "pub", "name": "Blue Boar Pub", "opening_hours": "Mo-Su 17:00 - 02:00", "phone": "+1 323-465-1750", "website": "http://www.blueboarpub.com/"}}, {"type": "node", "id": 2165194444, "lat": 34.0998883, "lon": -118.3306281, "tags": {"amenity": "bar", "name": "Piano Bar", "website": "http://pianobarhollywood.com/"}}, {"type": "node", "id": 2165194527, "lat": 34.100423, "lon": -118.3299456, "tags": {"addr:city": "Los Angeles", "addr:postcode": "90028", "addr:state": "CA", "addr:street": "North Cahuenga Boulevard", "amenity": "nightclub", "name": "The Hotel Cafe", "website": "http://www.hotelcafe.com/"}}, {"type": "node", "id": 2165269005, "lat": 34.1010713, "lon": -118.3293482, "tags": {"amenity": "nightclub", "email": "INFO@DANNYBPRODUCTIONS.COM", "name": "Ecco Ultra Lounge", "phone": "(323) 464-2065", "website": "http://www.eccohollywood.com/"}}, {"type": "node", "id": 2165269062, "lat": 34.1007865, "lon": -118.3293676, "tags": {"amenity": "nightclub", "name": "The Room", "website": "http://www.theroomhollywood.com/"}}, {"type": "node", "id": 2247888852, "lat": 34.0990808, "lon": -118.3090907, "tags": {"addr:city": "Los Angeles", "addr:housenumber": "1532", "addr:postcode": "90027", "addr:state": "CA", "addr:street": "N Western Ave", "amenity": "bar", "name": "Girl At The White Horse", "opening_hours": "Th-Su: 20:00-02:00", "outdoor_seating": "no", "phone": "+1-323-577-9419", "website": "https://www.girlatthewhitehorse.com"}}, {"type": "node", "id": 2247891565, "lat": 34.0518917, "lon": -118.2514359, "tags": {"addr:housenumber": "350", "addr:street": "S Grand Ave", "amenity": "nightclub", "name": "Grand Performances", "source": "(213) 687-2190", "website": "http://www.grandperformances.org"}}, {"type": "node", "id": 2247893775, "lat": 34.0498928, "lon": -118.2420793, "tags": {"addr:housenumber": "123", "addr:postcode": "90012", "addr:street": "Astronaut E S Onizuka St", "addr:unit": "301", "amenity": "bar", "name": "Blue Whale Bar", "source": "(213) 620-0908", "website": "http://www.bluewhalemusic.com"}}, {"type": "node", "id": 2247897599, "lat": 34.0981258, "lon": -118.331898, "tags": {"addr:housenumber": "6523", "addr:postcode": "90028", "addr:street": "West Sunset Boulevard", "amenity": "nightclub", "name": "Boulevard3", "source": "(323) 466-2144", "website": "http://www.boulevard3.com"}}, {"type": "node", "id": 2247900618, "lat": 34.0620838, "lon": -118.3455769, "tags": {"addr:housenumber": "5364", "addr:postcode": "90036", "addr:street": "Wilshire Boulevard", "amenity": "nightclub", "name": "Busby's East", "source": "(323) 525-2615", "website": "http://www.busbysla.com"}}, {"type": "node", "id": 2247904357, "lat": 34.07539, "lon": -118.2535086, "tags": {"addr:housenumber": "1455", "addr:postcode": "90026", "addr:street": "W Sunset Blvd", "amenity": "bar", "name": "The Short Stop", "source": "(213) 482-4942 "}}, {"type": "node", "id": 2247907642, "lat": 34.0501821, "lon": -118.2568186, "tags": {"addr:housenumber": "550", "addr:postcode": "90069", "addr:street": "South Flower Street", "amenity": "bar", "name": "The Rooftop Bar", "source": "(213) 892-8080 ", "website": "http://standardhotels.com/downtown-la/food-drink/the-rooftop"}}, {"type": "node", "id": 2267474126, "lat": 33.9405563, "lon": -118.4019304, "tags": {"addr:city": "Los Angeles", "amenity": "bar", "food": "yes", "name": "Blu2oh", "outdoor_seating": "no", "smoking": "no", "source": "Visit"}}, {"type": "node", "id": 2355595579, "lat": 34.1668854, "lon": -118.228783}, {"type": "node", "id": 2355595600, "lat": 34.1667288, "lon": -118.2285204}, {"type": "node", "id": 2355595610, "lat": 34.1665874, "lon": -118.2290557}, {"type": "node", "id": 2355595611, "lat": 34.166423, "lon": -118.2288697}, {"type": "node", "id": 2355671720, "lat": 34.1684951, "lon": -118.2282262}, {"type": "node", "id": 2355671721, "lat": 34.168497, "lon": -118.2281539}, {"type": "node", "id": 2355671725, "lat": 34.1685236, "lon": -118.2281183}, {"type": "node", "id": 2355671726, "lat": 34.1685304, "lon": -118.2282828}, {"type": "node", "id": 2355671730, "lat": 34.1685837, "lon": -118.2282908}, {"type": "node", "id": 2355671731, "lat": 34.1686072, "lon": -118.2281178}, {"type": "node", "id": 2355671733, "lat": 34.1686361, "lon": -118.2282445}, {"type": "node", "id": 2355671734, "lat": 34.1686394, "lon": -118.2281719}, {"type": "node", "id": 2355671735, "lat": 34.1688009, "lon": -118.2274753}, {"type": "node", "id": 2355671737, "lat": 34.1688857, "lon": -118.2276109}, {"type": "node", "id": 2355671738, "lat": 34.1689763, "lon": -118.2273151}, {"type": "node", "id": 2355671740, "lat": 34.1690611, "lon": -118.2274507}, {"type": "node", "id": 2359467063, "lat": 34.0617224, "lon": -118.4466561, "tags": {"addr:housenumber": "1037", "addr:postcode": "90024", "addr:street": "Broxton Avenue", "amenity": "pub", "name": "Barney's Beanery"}}, {"type": "node", "id": 2377549284, "lat": 33.9587829, "lon": -118.4487846, "tags": {"addr:housenumber": "185", "addr:postcode": "90293", "addr:street": "Culver Boulevard", "amenity": "bar", "name": "The Shack", "website": "http://www.the-shacks.com/"}}, {"type": "node", "id": 2377550093, "lat": 33.9590749, "lon": -118.4485982, "tags": {"addr:housenumber": "195", "addr:postcode": "90293", "addr:street": "Culver Boulevard", "amenity": "bar", "name": "Harbor Room"}}, {"type": "node", "id": 2383829264, "lat": 34.1982583, "lon": -118.5356602}, {"type": "node", "id": 2383829266, "lat": 34.1984018, "lon": -118.535891}, {"type": "node", "id": 2418520120, "lat": 34.1503952, "lon": -118.274482}, {"type": "node", "id": 2418520121, "lat": 34.1504746, "lon": -118.2742584}, {"type": "node", "id": 2418520122, "lat": 34.1508998, "lon": -118.2744744}, {"type": "node", "id": 2418520123, "lat": 34.1508438, "lon": -118.2746299}, {"type": "node", "id": 2418520124, "lat": 34.1507934, "lon": -118.2746041}, {"type": "node", "id": 2418520125, "lat": 34.1507686, "lon": -118.274674}, {"type": "node", "id": 2450176012, "lat": 34.0853431, "lon": -118.383962, "tags": {"addr:city": "West Hollywood", "addr:housenumber": "8865", "addr:postcode": "90069", "addr:state": "CA", "addr:street": "Santa Monica Boulevard", "amenity": "bar", "email": "FiestaWeHo@FiestaCantina.net", "gay": "yes", "lgbtq": "primary", "name": "Fiesta Cantina", "opening_hours": "Mo-Su 12:00-02:00", "phone": "+1-310-652-8865", "website": "http://www.fiestacantina.net"}}, {"type": "node", "id": 2493566628, "lat": 33.7326713, "lon": -118.2944213}, {"type": "node", "id": 2493566631, "lat": 33.7332403, "lon": -118.2944164}, {"type": "node", "id": 2493566632, "lat": 33.7325274, "lon": -118.2944172}, {"type": "node", "id": 2493566635, "lat": 33.7328711, "lon": -118.2943816}, {"type": "node", "id": 2493566637, "lat": 33.7330474, "lon": -118.2941107}, {"type": "node", "id": 2493566639, "lat": 33.7326715, "lon": -118.2943896}, {"type": "node", "id": 2493566642, "lat": 33.7325399, "lon": -118.293876}, {"type": "node", "id": 2493566643, "lat": 33.7332436, "lon": -118.2941214}, {"type": "node", "id": 2493566644, "lat": 33.7327363, "lon": -118.2941135}, {"type": "node", "id": 2493566645, "lat": 33.7330462, "lon": -118.2941214}, {"type": "node", "id": 2493566646, "lat": 33.7325332, "lon": -118.294234}, {"type": "node", "id": 2493566648, "lat": 33.7328698, "lon": -118.2944213}, {"type": "node", "id": 2493566654, "lat": 33.7327327, "lon": -118.2938795}, {"type": "node", "id": 2493566655, "lat": 33.7325455, "lon": -118.294234}, {"type": "node", "id": 2568700616, "lat": 34.1000498, "lon": -118.3293758, "tags": {"addr:city": "Hollywood", "addr:housename": "The Powder Room", "addr:housenumber": "1606", "addr:postcode": "90028", "addr:street": "North Cahuenga Boulevard", "amenity": "bar", "name": "The Powder Room"}}, {"type": "node", "id": 2580201199, "lat": 34.1019752, "lon": -118.3024312, "tags": {"addr:city": "Los Angeles", "addr:housenumber": "5153", "addr:postcode": "90027", "addr:street": "Hollywood Boulevard", "amenity": "bar", "name": "Jumbo's Clown Room", "phone": "(323) 666-1187", "website": "http://jumbos.com", "wikidata": "Q6310847", "wikipedia": "en:Jumbo's Clown Room"}}, {"type": "node", "id": 2605233340, "lat": 33.9231786, "lon": -118.3968232, "tags": {"amenity": "bar", "name": "Double H Club"}}, {"type": "node", "id": 2611810013, "lat": 34.0604833, "lon": -118.2843867, "tags": {"addr:city": "Los Angeles", "addr:housename": "Rain Karoki", "addr:housenumber": "685", "addr:postcode": "90005", "addr:street": "S. Hoover Street", "amenity": "bar", "name": "Rain Karoki"}}, {"type": "node", "id": 2624373021, "lat": 33.9790058, "lon": -118.4665644, "tags": {"addr:housenumber": "10", "addr:postcode": "90292", "addr:street": "Washington Boulevard", "amenity": "bar", "name": "The Venice Whaler", "website": "http://venicewhaler.com/"}}, {"type": "node", "id": 2646487201, "lat": 34.1213183, "lon": -118.2054847}, {"type": "node", "id": 2646487202, "lat": 34.1214409, "lon": -118.2053139}, {"type": "node", "id": 2646487203, "lat": 34.1215978, "lon": -118.2052707}, {"type": "node", "id": 2646487204, "lat": 34.1213006, "lon": -118.2053582}, {"type": "node", "id": 2646489481, "lat": 34.1215916, "lon": -118.2054096}, {"type": "node", "id": 2649600511, "lat": 33.8075622, "lon": -118.327632, "tags": {"amenity": "bar", "name": "Southland", "opening_hours": "Tu,We 20:00-01:00; Th-Sa 20:00-01:30"}}, {"type": "node", "id": 2652212927, "lat": 34.0995269, "lon": -118.2894422, "tags": {"addr:city": "Los Angeles", "addr:housenumber": "4600", "addr:postcode": "90027-5517", "addr:street": "Hollywood Boulevard", "amenity": "bar", "name": "Cheetah's", "toilets:wheelchair": "no", "wheelchair": "yes"}}, {"type": "node", "id": 2674512372, "lat": 34.1148345, "lon": -118.2433409, "tags": {"amenity": "bar", "name": "Eagle Rock Brewery"}}, {"type": "node", "id": 2697735222, "lat": 34.0755263, "lon": -118.308959, "tags": {"amenity": "bar", "nem": "Pipers"}}, {"type": "node", "id": 2697835195, "lat": 34.0278849, "lon": -118.5183166, "tags": {"amenity": "pub", "name": "Patrick's Roadhouse"}}, {"type": "node", "id": 2698602681, "lat": 34.0637659, "lon": -118.3106483, "tags": {"amenity": "bar", "name": "Story Karaoke"}}, {"type": "node", "id": 2863150332, "lat": 34.1087932, "lon": -118.1940237, "tags": {"addr:city": "Los Angeles", "addr:housenumber": "5570", "addr:street": "Figueroa Street", "amenity": "bar", "name": "The Greyhound", "smoking": "no", "wheelchair": "yes"}}, {"type": "node", "id": 2890444652, "lat": 33.9833792, "lon": -118.4567519, "tags": {"amenity": "bar", "name": "Killer Cafe"}}, {"type": "node", "id": 2988516857, "lat": 34.0619593, "lon": -118.3010462, "tags": {"amenity": "bar", "name": "POT", "operator": "Line Hotel"}}, {"type": "node", "id": 3013308270, "lat": 34.0986066, "lon": -118.2872764, "tags": {"addr:city": "Los Angeles", "addr:housenumber": "1514", "addr:postcode": "90027", "addr:state": "CA", "addr:street": "Hillhurst Avenue", "amenity": "bar", "name": "Good Luck Bar", "opening_hours": "Mo-Fr 19:00-02:00; Sa-Su 20:00-02:00", "phone": "+1-323-666-3524", "website": "goodluckbarla.com"}}, {"type": "node", "id": 3013308280, "lat": 34.0956922, "lon": -118.2842512, "tags": {"amenity": "bar", "name": "Akbar"}}, {"type": "node", "id": 3099873330, "lat": 33.8599656, "lon": -118.1596627}, {"type": "node", "id": 3099873331, "lat": 33.8598382, "lon": -118.1596625}, {"type": "node", "id": 3099873332, "lat": 33.8598392, "lon": -118.1595619}, {"type": "node", "id": 3099873333, "lat": 33.8597955, "lon": -118.1595613}, {"type": "node", "id": 3099873334, "lat": 33.8597962, "lon": -118.1594874}, {"type": "node", "id": 3099873335, "lat": 33.8599673, "lon": -118.1594898}, {"type": "node", "id": 3134132928, "lat": 34.1156416, "lon": -118.1568985, "tags": {"amenity": "bar", "name": "Griffin's"}}, {"type": "node", "id": 3137664439, "lat": 33.8856887, "lon": -118.3789707, "tags": {"addr:housenumber": "1001", "addr:postcode": "90266", "addr:street": "Aviation Boulevard", "amenity": "bar", "name": "Hangar Inn", "website": "http://www.hangarinn.com"}}, {"type": "node", "id": 3189223291, "lat": 33.771809, "lon": -118.1665075, "tags": {"addr:city": "Long Beach", "addr:housenumber": "2105", "addr:postcode": "90814", "addr:state": "CA", "addr:street": "East 4th Street", "amenity": "pub", "name": "The Social List", "opening_hours": "11:30-22:00", "phone": "+1 562 433-5478", "smoking": "outside", "website": "http://thesociallistlb.com/"}}, {"type": "node", "id": 3202505727, "lat": 33.8844275, "lon": -118.4112093, "tags": {"amenity": "bar", "name": "Shellback"}}, {"type": "node", "id": 3205686703, "lat": 34.0295987, "lon": -118.4114429}, {"type": "node", "id": 3205686704, "lat": 34.0295413, "lon": -118.4113998}, {"type": "node", "id": 3205686705, "lat": 34.0296477, "lon": -118.4111934}, {"type": "node", "id": 3205686706, "lat": 34.0297051, "lon": -118.4112365}, {"type": "node", "id": 3301805353, "lat": 33.8653372, "lon": -118.3271373, "tags": {"addr:city": "Torrance", "addr:housenumber": "3116", "addr:postcode": "90504", "addr:state": "CA", "addr:street": "West 182nd Street", "amenity": "bar", "name": "Hi N Dry", "smoking": "outside", "wheelchair": "yes"}}, {"type": "node", "id": 3358087096, "lat": 34.0470584, "lon": -118.2480296, "tags": {"amenity": "bar", "name": "Love Song Bar"}}, {"type": "node", "id": 3439778857, "lat": 34.0102984, "lon": -118.4955622, "tags": {"addr:city": "Santa Monica", "addr:housenumber": "1615", "addr:postcode": "90401", "addr:state": "CA", "addr:street": "Ocean Front Walk", "amenity": "bar", "name": "Big Dean's OceanFront Cafe", "phone": "(310) 393-2666"}}, {"type": "node", "id": 3449722142, "lat": 34.0478985, "lon": -118.2397855, "tags": {"amenity": "bar", "name": "Wolf and Crane"}}, {"type": "node", "id": 3498190678, "lat": 34.1521558, "lon": -118.4551208}, {"type": "node", "id": 3498190679, "lat": 34.1521577, "lon": -118.4551313}, {"type": "node", "id": 3498190680, "lat": 34.152165, "lon": -118.4551421}, {"type": "node", "id": 3498190681, "lat": 34.152189, "lon": -118.4551519}, {"type": "node", "id": 3498190682, "lat": 34.1521551, "lon": -118.4548833}, {"type": "node", "id": 3498190683, "lat": 34.1521317, "lon": -118.4548928}, {"type": "node", "id": 3498190684, "lat": 34.1521212, "lon": -118.4549014}, {"type": "node", "id": 3498190685, "lat": 34.1521174, "lon": -118.4549087}, {"type": "node", "id": 3498190686, "lat": 34.1521026, "lon": -118.4549282}, {"type": "node", "id": 3498190687, "lat": 34.152102, "lon": -118.4549509}, {"type": "node", "id": 3498190688, "lat": 34.1521073, "lon": -118.4549801}, {"type": "node", "id": 3498190689, "lat": 34.1521177, "lon": -118.4549957}, {"type": "node", "id": 3498190690, "lat": 34.1521213, "lon": -118.4549914}, {"type": "node", "id": 3498190691, "lat": 34.1521298, "lon": -118.4549998}, {"type": "node", "id": 3498190692, "lat": 34.152149, "lon": -118.4550087}, {"type": "node", "id": 3498198093, "lat": 34.152139, "lon": -118.455005}, {"type": "node", "id": 3643484604, "lat": 34.2573818, "lon": -118.6014356}, {"type": "node", "id": 3643484605, "lat": 34.2573829, "lon": -118.6016008}, {"type": "node", "id": 3643484625, "lat": 34.2575578, "lon": -118.6014338}, {"type": "node", "id": 3643484626, "lat": 34.2575607, "lon": -118.6015994}, {"type": "node", "id": 3648138885, "lat": 33.8617993, "lon": -118.4013735, "tags": {"amenity": "pub", "name": "Hennessey's", "outdoor_seating": "yes"}}, {"type": "node", "id": 3661120987, "lat": 34.1744683, "lon": -118.3267242, "tags": {"addr:city": "Burbank", "addr:housenumber": "1710", "addr:postcode": "91506", "addr:state": "CA", "addr:street": "West Magnolia Boulevard", "amenity": "bar", "name": "Tony's Darts Away"}}, {"type": "node", "id": 3686111967, "lat": 34.0909258, "lon": -118.3882177, "tags": {"addr:city": "West Hollywood", "addr:housenumber": "9015", "addr:postcode": "90069", "addr:state": "CA", "addr:street": "West Sunset Boulevard", "amenity": "bar", "email": "contact@rainbowbarandgrill.com", "name": "Rainbow Bar & Grill", "opening_hours": "Mo-Fr 11:00-02:00, Sa-Su 17:00-02:00", "toilets:wheelchair": "no", "website": "http://www.rainbowbarandgrill.com/", "wheelchair": "yes", "wikidata": "Q7284581", "wikipedia": "en:Rainbow Bar and Grill"}}, {"type": "node", "id": 3690678096, "lat": 34.0815038, "lon": -118.3893533}, {"type": "node", "id": 3690678103, "lat": 34.0816604, "lon": -118.3895088}, {"type": "node", "id": 3690678104, "lat": 34.0817483, "lon": -118.3893802}, {"type": "node", "id": 3699307644, "lat": 34.0293017, "lon": -118.4115657}, {"type": "node", "id": 3780628668, "lat": 34.0834077, "lon": -118.3492399, "tags": {"amenity": "bar", "name": "BL/NKBAR"}}, {"type": "node", "id": 3799342403, "lat": 34.1997412, "lon": -118.4937329, "tags": {"addr:city": "LAKE BALBOA", "addr:housename": "SINISTER STEEL", "addr:housenumber": "7109 GERALD", "addr:postcode": "91406", "addr:street": "GERALD", "amenity": "nightclub", "name": "SINISTER STEEL INC."}}, {"type": "node", "id": 3833300147, "lat": 34.0835394, "lon": -118.3552046, "tags": {"amenity": "bar", "name": "Blown Out"}}, {"type": "node", "id": 3834333244, "lat": 34.1679603, "lon": -118.6163348, "tags": {"amenity": "pub", "name": "White Harte"}}, {"type": "node", "id": 3839971779, "lat": 34.1696102, "lon": -118.6021325, "tags": {"amenity": "bar", "name": "Dirty Bull"}}, {"type": "node", "id": 3840242088, "lat": 34.1654572, "lon": -118.6258989, "tags": {"amenity": "pub", "name": "Irish Pub"}}, {"type": "node", "id": 3840429399, "lat": 34.2011872, "lon": -118.6074743, "tags": {"amenity": "pub", "music": "live", "name": "Scotland Yard"}}, {"type": "node", "id": 3840429400, "lat": 34.2012063, "lon": -118.6070736, "tags": {"amenity": "bar", "music": "jazz", "name": "Caseys"}}, {"type": "node", "id": 3845858432, "lat": 33.884379, "lon": -118.410741, "tags": {"addr:city": "Manhattan Beach", "addr:housenumber": "1101", "addr:postcode": "90266", "addr:state": "CA", "addr:street": "Manhattan Beach Ave", "amenity": "bar", "name": "Ercoles", "opening_hours": "10 am - 2 am"}}, {"type": "node", "id": 3847799465, "lat": 34.1785384, "lon": -118.603861, "tags": {"amenity": "bar", "name": "Q Bar"}}, {"type": "node", "id": 3861449033, "lat": 34.101755, "lon": -118.3358181, "tags": {"amenity": "pub", "name": "Jameson's Irish Pub"}}, {"type": "node", "id": 3861449034, "lat": 34.1013926, "lon": -118.3364747, "tags": {"amenity": "bar", "name": "Juicy Factory", "website": "http://www.juicyfactory.com/"}}, {"type": "node", "id": 3861449041, "lat": 34.1017354, "lon": -118.3378177, "tags": {"addr:city": "Los Angeles", "addr:country": "US", "addr:housenumber": "6757", "addr:postcode": "90028", "addr:state": "CA", "addr:street": "Hollywood Boulevard", "amenity": "nightclub", "name": "The Day After"}}, {"type": "node", "id": 3898615855, "lat": 34.0494266, "lon": -118.2538656, "tags": {"amenity": "bar", "name": "Gallery Bar", "source": "Bing"}}, {"type": "node", "id": 3936731657, "lat": 34.201225, "lon": -118.6005277, "tags": {"amenity": "bar", "name": "The Back Room Jazz Bar"}}, {"type": "node", "id": 3939355528, "lat": 34.2008467, "lon": -118.5998054, "tags": {"amenity": "nightclub"}}, {"type": "node", "id": 3942924594, "lat": 34.090749, "lon": -118.3888775}, {"type": "node", "id": 3942924595, "lat": 34.090742, "lon": -118.3890373}, {"type": "node", "id": 3942924599, "lat": 34.0909812, "lon": -118.3888765}, {"type": "node", "id": 3942924600, "lat": 34.0909817, "lon": -118.3890338}, {"type": "node", "id": 3943304475, "lat": 34.0847813, "lon": -118.3845943}, {"type": "node", "id": 3943304480, "lat": 34.0848092, "lon": -118.3846476}, {"type": "node", "id": 3943304481, "lat": 34.0848198, "lon": -118.3846318}, {"type": "node", "id": 3943304486, "lat": 34.0849322, "lon": -118.3843677}, {"type": "node", "id": 3943304487, "lat": 34.0849743, "lon": -118.3848079}, {"type": "node", "id": 3943304490, "lat": 34.0851358, "lon": -118.3845655}, {"type": "node", "id": 3943916299, "lat": 34.0162061, "lon": -118.4001088}, {"type": "node", "id": 3943916300, "lat": 34.016201, "lon": -118.4000605}, {"type": "node", "id": 3943916301, "lat": 34.0162212, "lon": -118.4000966}, {"type": "node", "id": 3943916302, "lat": 34.0162532, "lon": -118.4000182}, {"type": "node", "id": 3943916304, "lat": 34.0162948, "lon": -118.4002682}, {"type": "node", "id": 3943916305, "lat": 34.0162984, "lon": -118.4002653}, {"type": "node", "id": 3943916306, "lat": 34.016309, "lon": -118.4002844}, {"type": "node", "id": 3943916307, "lat": 34.016303, "lon": -118.4001068}, {"type": "node", "id": 3943916308, "lat": 34.0163162, "lon": -118.4000961}, {"type": "node", "id": 3943916309, "lat": 34.0163585, "lon": -118.4002353}, {"type": "node", "id": 3943916310, "lat": 34.0163564, "lon": -118.400224}, {"type": "node", "id": 3943916311, "lat": 34.0163652, "lon": -118.4001834}, {"type": "node", "id": 3943916313, "lat": 34.0163649, "lon": -118.4002031}, {"type": "node", "id": 3943916314, "lat": 34.0163539, "lon": -118.4002485}, {"type": "node", "id": 3943916315, "lat": 34.0163662, "lon": -118.4001954}, {"type": "node", "id": 3944126658, "lat": 34.090767, "lon": -118.3858046}, {"type": "node", "id": 3944126659, "lat": 34.090765, "lon": -118.3856438}, {"type": "node", "id": 3944126666, "lat": 34.0907852, "lon": -118.3856203}, {"type": "node", "id": 3944126677, "lat": 34.0909288, "lon": -118.3858034}, {"type": "node", "id": 3944126678, "lat": 34.0909296, "lon": -118.3856211}, {"type": "node", "id": 3960923738, "lat": 34.0260283, "lon": -118.4081211, "tags": {"amenity": "public_bookcase", "name": "Little Free Library"}}, {"type": "node", "id": 3960923746, "lat": 34.0277506, "lon": -118.409791, "tags": {"amenity": "bar", "name": "The Garage"}}, {"type": "node", "id": 3960933184, "lat": 34.0290145, "lon": -118.4109527, "tags": {"amenity": "public_bookcase", "name": "Little Free Library"}}, {"type": "node", "id": 4064504856, "lat": 34.2570279, "lon": -118.5963507, "tags": {"amenity": "bar"}}, {"type": "node", "id": 4064539870, "lat": 34.2492623, "lon": -118.5896748, "tags": {"amenity": "bar"}}, {"type": "node", "id": 4092055892, "lat": 34.0952661, "lon": -118.2829815, "tags": {"addr:city": "Los Angeles", "addr:housenumber": "4321", "addr:postcode": "90029", "addr:state": "CA", "addr:street": "Sunset Boulevard", "amenity": "pub", "name": "Jay's Bar", "opening_hours": "Mo-Fr 17:00-02:00; Sa-Su 11:00-02:00", "phone": "+1-323-666-1898", "website": "http://jaysbarla.com/"}}, {"type": "node", "id": 4093648564, "lat": 33.9747186, "lon": -118.3016441}, {"type": "node", "id": 4093648566, "lat": 33.9747191, "lon": -118.301567}, {"type": "node", "id": 4093649308, "lat": 33.9748122, "lon": -118.3038}, {"type": "node", "id": 4093649309, "lat": 33.9748126, "lon": -118.3036321}, {"type": "node", "id": 4093649329, "lat": 33.9748566, "lon": -118.301645}, {"type": "node", "id": 4093649330, "lat": 33.9748568, "lon": -118.3016525}, {"type": "node", "id": 4093649331, "lat": 33.9748592, "lon": -118.3015637}, {"type": "node", "id": 4093649332, "lat": 33.9748592, "lon": -118.3015683}, {"type": "node", "id": 4093649336, "lat": 33.9748669, "lon": -118.3016525}, {"type": "node", "id": 4093649345, "lat": 33.974879, "lon": -118.3036256}, {"type": "node", "id": 4093649346, "lat": 33.974879, "lon": -118.3036323}, {"type": "node", "id": 4093649371, "lat": 33.974911, "lon": -118.3016502}, {"type": "node", "id": 4093649372, "lat": 33.974911, "lon": -118.3016522}, {"type": "node", "id": 4093649382, "lat": 33.9749201, "lon": -118.3016044}, {"type": "node", "id": 4093649383, "lat": 33.9749204, "lon": -118.3015643}, {"type": "node", "id": 4093649393, "lat": 33.9749484, "lon": -118.3016506}, {"type": "node", "id": 4093649394, "lat": 33.9749487, "lon": -118.3016046}, {"type": "node", "id": 4093649409, "lat": 33.9749837, "lon": -118.3036421}, {"type": "node", "id": 4093649410, "lat": 33.9749837, "lon": -118.3037287}, {"type": "node", "id": 4093649411, "lat": 33.9749838, "lon": -118.3036293}, {"type": "node", "id": 4093649412, "lat": 33.9749838, "lon": -118.3038007}, {"type": "node", "id": 4093649414, "lat": 33.9749839, "lon": -118.303663}, {"type": "node", "id": 4093649415, "lat": 33.974984, "lon": -118.3037586}, {"type": "node", "id": 4093649429, "lat": 33.9749977, "lon": -118.3036422}, {"type": "node", "id": 4093649430, "lat": 33.9749977, "lon": -118.3036631}, {"type": "node", "id": 4093649437, "lat": 33.9750024, "lon": -118.3036251}, {"type": "node", "id": 4093649438, "lat": 33.9750024, "lon": -118.3036294}, {"type": "node", "id": 4093649443, "lat": 33.975007, "lon": -118.3037587}, {"type": "node", "id": 4093649444, "lat": 33.9750071, "lon": -118.3037288}, {"type": "node", "id": 4094216682, "lat": 34.0739777, "lon": -118.2515339, "tags": {"addr:city": "Los Angeles", "addr:housenumber": "1391", "addr:postcode": "90026", "addr:state": "CA", "addr:street": "Sunset Boulevard", "amenity": "pub", "leisure": "amusement_arcade", "name": "Button Mash", "phone": "+1 213 250 9903", "smoking": "no", "website": "http://buttonmashla.com/"}}, {"type": "node", "id": 4094216683, "lat": 34.0754683, "lon": -118.2553018, "tags": {"addr:city": "Los Angeles", "addr:housenumber": "1498", "addr:postcode": "90026", "addr:state": "CA", "addr:street": "Sunset Boulevard", "amenity": "bar", "drink:beer": "yes", "name": "Sunset Beer Company", "shop": "beverages", "website": "http://www.sunsetbeercompany.com/"}}, {"type": "node", "id": 4096426251, "lat": 34.0439931, "lon": -118.2510659, "tags": {"addr:city": "Los Angeles", "addr:housenumber": "656", "addr:postcode": "90014", "addr:street": "South Main Street", "amenity": "bar", "name": "Wendell", "website": "wendellbardtla.com"}}, {"type": "node", "id": 4096433309, "lat": 34.0427618, "lon": -118.253728, "tags": {"addr:city": "Los Angeles", "addr:housenumber": "810", "addr:postcode": "90014", "addr:street": "South Spring Street", "amenity": "bar", "name": "Crane's Bar", "website": "cranesbardtla.com"}}, {"type": "node", "id": 4096435814, "lat": 34.0428385, "lon": -118.2553548, "tags": {"addr:city": "Los Angeles", "addr:housenumber": "830", "addr:postcode": "90014", "addr:street": "South Broadway", "amenity": "bar", "name": "Broadway Bar"}}, {"type": "node", "id": 4098446089, "lat": 34.07628, "lon": -118.2566879, "tags": {"addr:city": "Los Angeles", "addr:housenumber": "1538", "addr:postcode": "90026", "addr:state": "CA", "addr:street": "Sunset Boulevard", "amenity": "pub", "amenity_1": "restaurant", "name": "The Lost Knight", "smoking": "outside"}}, {"type": "node", "id": 4098487069, "lat": 34.0773398, "lon": -118.2654762, "tags": {"addr:city": "Los Angeles", "addr:housenumber": "2150", "addr:postcode": "90026", "addr:state": "CA", "addr:street": "Sunset Boulevard", "amenity": "bar", "name": "Bar Bandini"}}, {"type": "node", "id": 4107665460, "lat": 33.7755029, "lon": -118.1681527, "tags": {"addr:housenumber": "1923", "addr:street": "East 7th Street", "amenity": "bar", "name": "Que Sera", "opening_hours": "Mo-Su 09:00-02:00"}}, {"type": "node", "id": 4113561297, "lat": 34.0769567, "lon": -118.2918928, "tags": {"amenity": "bar", "name": "Goody Goody"}}, {"type": "node", "id": 4114812780, "lat": 34.1809321, "lon": -118.5366016, "tags": {"amenity": "nightclub", "name": "Paladino's"}}, {"type": "node", "id": 4114862398, "lat": 34.1793079, "lon": -118.5365508, "tags": {"amenity": "bar", "name": "Petie's"}}, {"type": "node", "id": 4140126386, "lat": 34.1243001, "lon": -118.2665453, "tags": {"addr:city": "Los Angeles", "addr:housenumber": "3100", "addr:postcode": "90039", "addr:state": "CA", "addr:street": "Los Feliz Boulevard", "amenity": "bar", "name": "The Roost", "opening_hours": "Mo-Sa 12:00-02:00; Su 12:00-00:00", "phone": "+1-323-664-7272"}}, {"type": "node", "id": 4141921085, "lat": 34.0040389, "lon": -118.4722131}, {"type": "node", "id": 4141921145, "lat": 34.0041399, "lon": -118.472348}, {"type": "node", "id": 4141921146, "lat": 34.0041438, "lon": -118.472333}, {"type": "node", "id": 4141921147, "lat": 34.0041439, "lon": -118.4720362}, {"type": "node", "id": 4141921151, "lat": 34.0041476, "lon": -118.4723366}, {"type": "node", "id": 4141921156, "lat": 34.0041599, "lon": -118.4721543}, {"type": "node", "id": 4141921184, "lat": 34.0042005, "lon": -118.4720824}, {"type": "node", "id": 4141921197, "lat": 34.004218, "lon": -118.4722017}, {"type": "node", "id": 4166615843, "lat": 34.0800319, "lon": -118.259923, "tags": {"addr:city": "Los Angeles", "addr:housenumber": "1412", "addr:postcode": "90026", "addr:state": "CA", "addr:street": "Glendale Boulevard", "amenity": "bar", "name": "The Semi-Tropic", "website": "http://thesemitropic.com/"}}, {"type": "node", "id": 4166615846, "lat": 34.0764796, "lon": -118.2571172, "tags": {"addr:city": "Los Angeles", "addr:housenumber": "1558", "addr:postcode": "90026", "addr:state": "CA", "addr:street": "Sunset Boulevard", "amenity": "bar", "name": "Gold Room"}}, {"type": "node", "id": 4201273308, "lat": 34.091065, "lon": -118.2840532}, {"type": "node", "id": 4201273309, "lat": 34.0911149, "lon": -118.2838691}, {"type": "node", "id": 4201273311, "lat": 34.0911914, "lon": -118.2838936}, {"type": "node", "id": 4201273312, "lat": 34.0911939, "lon": -118.2839455}, {"type": "node", "id": 4201273314, "lat": 34.0911977, "lon": -118.2838699}, {"type": "node", "id": 4201273320, "lat": 34.0912063, "lon": -118.2838993}, {"type": "node", "id": 4201273336, "lat": 34.0912742, "lon": -118.2840554}, {"type": "node", "id": 4201273340, "lat": 34.0912937, "lon": -118.284}, {"type": "node", "id": 4227417389, "lat": 34.0756313, "lon": -118.2543941}, {"type": "node", "id": 4227417390, "lat": 34.0756367, "lon": -118.2543749}, {"type": "node", "id": 4227417391, "lat": 34.0756388, "lon": -118.2543995}, {"type": "node", "id": 4227417392, "lat": 34.0756394, "lon": -118.2543974}, {"type": "node", "id": 4227417393, "lat": 34.0756448, "lon": -118.2543782}, {"type": "node", "id": 4227417394, "lat": 34.0756459, "lon": -118.254374}, {"type": "node", "id": 4227417395, "lat": 34.0756935, "lon": -118.254526}, {"type": "node", "id": 4227417404, "lat": 34.0757527, "lon": -118.2543068}, {"type": "node", "id": 4227452854, "lat": 34.0758132, "lon": -118.2544515}, {"type": "node", "id": 4229356475, "lat": 34.1009807, "lon": -118.3324042}, {"type": "node", "id": 4229356478, "lat": 34.1009818, "lon": -118.3320354}, {"type": "node", "id": 4229356479, "lat": 34.1009818, "lon": -118.3320493}, {"type": "node", "id": 4229356480, "lat": 34.1009825, "lon": -118.3320355}, {"type": "node", "id": 4229356481, "lat": 34.1009832, "lon": -118.3319514}, {"type": "node", "id": 4229356482, "lat": 34.1009833, "lon": -118.3320491}, {"type": "node", "id": 4229356592, "lat": 34.100995, "lon": -118.3319473}, {"type": "node", "id": 4229356593, "lat": 34.100995, "lon": -118.3319516}, {"type": "node", "id": 4229356741, "lat": 34.1011413, "lon": -118.3324043}, {"type": "node", "id": 4229356742, "lat": 34.1011422, "lon": -118.3320395}, {"type": "node", "id": 4229356743, "lat": 34.1011424, "lon": -118.3319496}, {"type": "node", "id": 4231137012, "lat": 34.0718215, "lon": -118.360937, "tags": {"amenity": "bar", "name": "Moruno/Bar Vermut", "phone": "+1 323 3721251"}}, {"type": "node", "id": 4232090665, "lat": 34.074737, "lon": -118.3442151}, {"type": "node", "id": 4232090666, "lat": 34.0747372, "lon": -118.344492}, {"type": "node", "id": 4232090683, "lat": 34.0747584, "lon": -118.3442155}, {"type": "node", "id": 4232090684, "lat": 34.0747585, "lon": -118.3441985}, {"type": "node", "id": 4232090685, "lat": 34.0747589, "lon": -118.3445486}, {"type": "node", "id": 4232090689, "lat": 34.0747595, "lon": -118.3444924}, {"type": "node", "id": 4232090726, "lat": 34.0748226, "lon": -118.3442123}, {"type": "node", "id": 4232090727, "lat": 34.0748228, "lon": -118.3441995}, {"type": "node", "id": 4232090743, "lat": 34.0748455, "lon": -118.34455}, {"type": "node", "id": 4232090744, "lat": 34.0748465, "lon": -118.3442123}, {"type": "node", "id": 4245891941, "lat": 34.0291171, "lon": -118.411654}, {"type": "node", "id": 4245891942, "lat": 34.0291202, "lon": -118.4116203}, {"type": "node", "id": 4245891943, "lat": 34.0291305, "lon": -118.4116281}, {"type": "node", "id": 4245891944, "lat": 34.0291313, "lon": -118.4115991}, {"type": "node", "id": 4245891946, "lat": 34.029144, "lon": -118.4116087}, {"type": "node", "id": 4245891949, "lat": 34.029164, "lon": -118.4115703}, {"type": "node", "id": 4245891952, "lat": 34.0291939, "lon": -118.4115125}, {"type": "node", "id": 4245891963, "lat": 34.0292645, "lon": -118.4117653}, {"type": "node", "id": 4245891967, "lat": 34.0292912, "lon": -118.4115859}, {"type": "node", "id": 4245891968, "lat": 34.0293493, "lon": -118.4116016}, {"type": "node", "id": 4247320872, "lat": 34.0907259, "lon": -118.3889488}, {"type": "node", "id": 4247320873, "lat": 34.090726, "lon": -118.3889652}, {"type": "node", "id": 4247320902, "lat": 34.0907415, "lon": -118.3889981}, {"type": "node", "id": 4247320912, "lat": 34.0907487, "lon": -118.3889108}, {"type": "node", "id": 4250327774, "lat": 34.0904357, "lon": -118.3645967}, {"type": "node", "id": 4250327775, "lat": 34.0904359, "lon": -118.3645589}, {"type": "node", "id": 4250327783, "lat": 34.090444, "lon": -118.3646302}, {"type": "node", "id": 4250327784, "lat": 34.0904441, "lon": -118.3645967}, {"type": "node", "id": 4250328012, "lat": 34.0905199, "lon": -118.3645595}, {"type": "node", "id": 4250328030, "lat": 34.090684, "lon": -118.3646321}, {"type": "node", "id": 4250328031, "lat": 34.0906844, "lon": -118.3645608}, {"type": "node", "id": 4255376931, "lat": 34.0695149, "lon": -118.2774996}, {"type": "node", "id": 4255376935, "lat": 34.0695417, "lon": -118.2775607}, {"type": "node", "id": 4255376936, "lat": 34.0695448, "lon": -118.2775587}, {"type": "node", "id": 4255376938, "lat": 34.0695819, "lon": -118.2776564}, {"type": "node", "id": 4255376939, "lat": 34.0695864, "lon": -118.2776535}, {"type": "node", "id": 4255376940, "lat": 34.0695995, "lon": -118.2776972}, {"type": "node", "id": 4255376942, "lat": 34.0696338, "lon": -118.2774243}, {"type": "node", "id": 4255376943, "lat": 34.0696621, "lon": -118.2775162}, {"type": "node", "id": 4255376944, "lat": 34.0696715, "lon": -118.2775102}, {"type": "node", "id": 4255376946, "lat": 34.0697107, "lon": -118.277627}, {"type": "node", "id": 4255618466, "lat": 34.0899174, "lon": -118.2684649}, {"type": "node", "id": 4255618467, "lat": 34.0899182, "lon": -118.2684637}, {"type": "node", "id": 4255618475, "lat": 34.0899319, "lon": -118.2684776}, {"type": "node", "id": 4255618555, "lat": 34.089759, "lon": -118.2682917}, {"type": "node", "id": 4255618561, "lat": 34.0897655, "lon": -118.2683011}, {"type": "node", "id": 4255618563, "lat": 34.0897667, "lon": -118.2682996}, {"type": "node", "id": 4255618621, "lat": 34.0898561, "lon": -118.2681617}, {"type": "node", "id": 4255618649, "lat": 34.0900287, "lon": -118.2683041}, {"type": "node", "id": 4255618666, "lat": 34.0900491, "lon": -118.2682766}, {"type": "node", "id": 4255618694, "lat": 34.089957, "lon": -118.2682693}, {"type": "node", "id": 4255618711, "lat": 34.089977, "lon": -118.2682424}, {"type": "node", "id": 4255618727, "lat": 34.0899991, "lon": -118.2682724}, {"type": "node", "id": 4255618728, "lat": 34.0900018, "lon": -118.2682689}, {"type": "node", "id": 4255618806, "lat": 34.0901296, "lon": -118.2683628}, {"type": "node", "id": 4268298093, "lat": 34.0426716, "lon": -118.2351248}, {"type": "node", "id": 4268298098, "lat": 34.0427167, "lon": -118.2347481}, {"type": "node", "id": 4268298101, "lat": 34.0427396, "lon": -118.234751}, {"type": "node", "id": 4268298106, "lat": 34.0427744, "lon": -118.235143}, {"type": "node", "id": 4268298784, "lat": 34.0459924, "lon": -118.2378907}, {"type": "node", "id": 4268298786, "lat": 34.0459936, "lon": -118.2375703}, {"type": "node", "id": 4268298788, "lat": 34.0459996, "lon": -118.2371646}, {"type": "node", "id": 4268298828, "lat": 34.0461302, "lon": -118.237445}, {"type": "node", "id": 4268298829, "lat": 34.0461316, "lon": -118.2375264}, {"type": "node", "id": 4268298830, "lat": 34.0461322, "lon": -118.2375334}, {"type": "node", "id": 4268298831, "lat": 34.0461326, "lon": -118.2371663}, {"type": "node", "id": 4268298834, "lat": 34.0461406, "lon": -118.2375265}, {"type": "node", "id": 4268298835, "lat": 34.0461413, "lon": -118.2374451}, {"type": "node", "id": 4268298898, "lat": 34.0464, "lon": -118.2375377}, {"type": "node", "id": 4268298899, "lat": 34.0464004, "lon": -118.2375686}, {"type": "node", "id": 4268298909, "lat": 34.0464605, "lon": -118.2375708}, {"type": "node", "id": 4268298966, "lat": 34.0466307, "lon": -118.2378992}, {"type": "node", "id": 4268298969, "lat": 34.0466485, "lon": -118.2378559}, {"type": "node", "id": 4271072019, "lat": 34.0505661, "lon": -118.2495011}, {"type": "node", "id": 4271072020, "lat": 34.050567, "lon": -118.2494933}, {"type": "node", "id": 4271072021, "lat": 34.0505683, "lon": -118.2495155}, {"type": "node", "id": 4271072022, "lat": 34.0505694, "lon": -118.2494893}, {"type": "node", "id": 4271072024, "lat": 34.0505722, "lon": -118.2495118}, {"type": "node", "id": 4271072025, "lat": 34.0505727, "lon": -118.2494861}, {"type": "node", "id": 4271072027, "lat": 34.0505764, "lon": -118.2494843}, {"type": "node", "id": 4271072029, "lat": 34.0505812, "lon": -118.2494855}, {"type": "node", "id": 4271072036, "lat": 34.0506014, "lon": -118.2495949}, {"type": "node", "id": 4271072038, "lat": 34.0506057, "lon": -118.2495735}, {"type": "node", "id": 4271072039, "lat": 34.0506113, "lon": -118.2495683}, {"type": "node", "id": 4271072040, "lat": 34.0506117, "lon": -118.2494572}, {"type": "node", "id": 4271072041, "lat": 34.0506181, "lon": -118.2495789}, {"type": "node", "id": 4271072042, "lat": 34.0506274, "lon": -118.2494817}, {"type": "node", "id": 4271072043, "lat": 34.0506299, "lon": -118.2494791}, {"type": "node", "id": 4271072054, "lat": 34.0507344, "lon": -118.2497985}, {"type": "node", "id": 4271072056, "lat": 34.0507993, "lon": -118.2497377}, {"type": "node", "id": 4274926363, "lat": 34.1508316, "lon": -118.2744418}, {"type": "node", "id": 4274926366, "lat": 34.1508533, "lon": -118.2743794}, {"type": "node", "id": 4274926367, "lat": 34.1508548, "lon": -118.2743766}, {"type": "node", "id": 4274926371, "lat": 34.1509215, "lon": -118.2744109}, {"type": "node", "id": 4275861669, "lat": 34.0228838, "lon": -118.2415421}, {"type": "node", "id": 4275861676, "lat": 34.0228886, "lon": -118.2417106}, {"type": "node", "id": 4275861684, "lat": 34.0228927, "lon": -118.2417103}, {"type": "node", "id": 4275861686, "lat": 34.022895, "lon": -118.2418302}, {"type": "node", "id": 4275861940, "lat": 34.0231594, "lon": -118.2415228}, {"type": "node", "id": 4275861949, "lat": 34.0231748, "lon": -118.2418114}, {"type": "node", "id": 4278713858, "lat": 34.1070631, "lon": -118.2546857}, {"type": "node", "id": 4278713860, "lat": 34.1070675, "lon": -118.2546694}, {"type": "node", "id": 4278713864, "lat": 34.1070721, "lon": -118.254675}, {"type": "node", "id": 4278713870, "lat": 34.1070773, "lon": -118.2546579}, {"type": "node", "id": 4278713872, "lat": 34.1070818, "lon": -118.2546635}, {"type": "node", "id": 4278713876, "lat": 34.1070852, "lon": -118.2546486}, {"type": "node", "id": 4278713882, "lat": 34.1070897, "lon": -118.2546542}, {"type": "node", "id": 4278713889, "lat": 34.107095, "lon": -118.2546371}, {"type": "node", "id": 4278713895, "lat": 34.1070996, "lon": -118.2546425}, {"type": "node", "id": 4278713898, "lat": 34.1071046, "lon": -118.2546225}, {"type": "node", "id": 4278713905, "lat": 34.1071105, "lon": -118.2546297}, {"type": "node", "id": 4278713908, "lat": 34.1071147, "lon": -118.2546106}, {"type": "node", "id": 4278713917, "lat": 34.1071205, "lon": -118.2546178}, {"type": "node", "id": 4278713923, "lat": 34.1071246, "lon": -118.2545991}, {"type": "node", "id": 4278713931, "lat": 34.1071304, "lon": -118.2546062}, {"type": "node", "id": 4278713941, "lat": 34.1071344, "lon": -118.2545875}, {"type": "node", "id": 4278713951, "lat": 34.1071402, "lon": -118.2545946}, {"type": "node", "id": 4278713964, "lat": 34.1071529, "lon": -118.2545795}, {"type": "node", "id": 4278714025, "lat": 34.1072372, "lon": -118.254899}, {"type": "node", "id": 4278714026, "lat": 34.1072373, "lon": -118.2546828}, {"type": "node", "id": 4278714046, "lat": 34.1072611, "lon": -118.2546547}, {"type": "node", "id": 4278714082, "lat": 34.1073014, "lon": -118.2547612}, {"type": "node", "id": 4278714105, "lat": 34.1073252, "lon": -118.2547331}, {"type": "node", "id": 4278714108, "lat": 34.1073272, "lon": -118.2547928}, {"type": "node", "id": 4278753917, "lat": 33.9916308, "lon": -118.4693382, "tags": {"amenity": "bar", "name": "The otheroom"}}, {"type": "node", "id": 4279714889, "lat": 34.0980969, "lon": -118.3673183}, {"type": "node", "id": 4279714895, "lat": 34.0980978, "lon": -118.3673111}, {"type": "node", "id": 4279714903, "lat": 34.0981025, "lon": -118.3672735}, {"type": "node", "id": 4279714911, "lat": 34.0981066, "lon": -118.3674654}, {"type": "node", "id": 4279714915, "lat": 34.0981086, "lon": -118.3673205}, {"type": "node", "id": 4279714943, "lat": 34.0981202, "lon": -118.3674901}, {"type": "node", "id": 4279715224, "lat": 34.0982359, "lon": -118.3674918}, {"type": "node", "id": 4279715226, "lat": 34.0982361, "lon": -118.3674647}, {"type": "node", "id": 4279715341, "lat": 34.0982855, "lon": -118.3674654}, {"type": "node", "id": 4279715361, "lat": 34.098299, "lon": -118.3673579}, {"type": "node", "id": 4279715467, "lat": 34.0983453, "lon": -118.3673664}, {"type": "node", "id": 4279715469, "lat": 34.098346, "lon": -118.3673611}, {"type": "node", "id": 4279715484, "lat": 34.0983513, "lon": -118.3673188}, {"type": "node", "id": 4283017848, "lat": 34.1212889, "lon": -118.2053614}, {"type": "node", "id": 4283017863, "lat": 34.1212995, "lon": -118.2053527}, {"type": "node", "id": 4283017873, "lat": 34.1213124, "lon": -118.2054864}, {"type": "node", "id": 4283018226, "lat": 34.1216224, "lon": -118.2054012}, {"type": "node", "id": 4283127008, "lat": 34.1097085, "lon": -118.1934093}, {"type": "node", "id": 4283127017, "lat": 34.1097544, "lon": -118.1934417}, {"type": "node", "id": 4283127018, "lat": 34.1097556, "lon": -118.1933128}, {"type": "node", "id": 4283127029, "lat": 34.1097805, "lon": -118.1933305}, {"type": "node", "id": 4283127036, "lat": 34.1098015, "lon": -118.1933454}, {"type": "node", "id": 4285026432, "lat": 34.0907645, "lon": -118.3856576}, {"type": "node", "id": 4285026433, "lat": 34.0907706, "lon": -118.385633}, {"type": "node", "id": 4285026436, "lat": 34.0907768, "lon": -118.3856258}, {"type": "node", "id": 4285026437, "lat": 34.0908207, "lon": -118.3858034}, {"type": "node", "id": 4285026445, "lat": 34.0908923, "lon": -118.3858026}, {"type": "node", "id": 4293636525, "lat": 34.1719111, "lon": -118.3601942}, {"type": "node", "id": 4293636526, "lat": 34.1719105, "lon": -118.3602603}, {"type": "node", "id": 4293636665, "lat": 34.1720302, "lon": -118.3601958}, {"type": "node", "id": 4293636666, "lat": 34.1720296, "lon": -118.3602618}, {"type": "node", "id": 4302258131, "lat": 34.0331901, "lon": -118.4806602, "tags": {"addr:city": "Santa Monica", "addr:housenumber": "2226", "addr:postcode": "90403", "addr:state": "CA", "addr:street": "Wilshire Boulevard", "amenity": "pub", "name": "O'Brien's", "phone": "+1 310 829 5303", "website": "http://obriensla.com/"}}, {"type": "node", "id": 4303582050, "lat": 34.2019259, "lon": -118.6057722}, {"type": "node", "id": 4303582051, "lat": 34.2019264, "lon": -118.6054693}, {"type": "node", "id": 4303582281, "lat": 34.202091, "lon": -118.6057755}, {"type": "node", "id": 4303582284, "lat": 34.2020916, "lon": -118.60547}, {"type": "node", "id": 4303582285, "lat": 34.2020971, "lon": -118.6057756}, {"type": "node", "id": 4303582287, "lat": 34.202098, "lon": -118.60547}, {"type": "node", "id": 4304088112, "lat": 34.2840946, "lon": -118.4376604}, {"type": "node", "id": 4304088116, "lat": 34.2841186, "lon": -118.4368869}, {"type": "node", "id": 4304088118, "lat": 34.2841271, "lon": -118.4369358}, {"type": "node", "id": 4304088122, "lat": 34.2841332, "lon": -118.4369426}, {"type": "node", "id": 4304088127, "lat": 34.2841496, "lon": -118.4369208}, {"type": "node", "id": 4304088134, "lat": 34.2841863, "lon": -118.4377605}, {"type": "node", "id": 4304088139, "lat": 34.2842107, "lon": -118.4377162}, {"type": "node", "id": 4304088143, "lat": 34.2842156, "lon": -118.4377216}, {"type": "node", "id": 4304088153, "lat": 34.2843055, "lon": -118.4366385}, {"type": "node", "id": 4304088159, "lat": 34.2843345, "lon": -118.4369209}, {"type": "node", "id": 4304088164, "lat": 34.2843996, "lon": -118.4368325}, {"type": "node", "id": 4304088170, "lat": 34.2844386, "lon": -118.4370322}, {"type": "node", "id": 4304088177, "lat": 34.2844677, "lon": -118.4373748}, {"type": "node", "id": 4304088193, "lat": 34.2809289, "lon": -118.4336039}, {"type": "node", "id": 4304088194, "lat": 34.2809293, "lon": -118.4335802}, {"type": "node", "id": 4304088246, "lat": 34.2810608, "lon": -118.4334021}, {"type": "node", "id": 4304088268, "lat": 34.2811156, "lon": -118.4334608}, {"type": "node", "id": 4304088271, "lat": 34.2811254, "lon": -118.4333363}, {"type": "node", "id": 4304088273, "lat": 34.281132, "lon": -118.4334595}, {"type": "node", "id": 4304088277, "lat": 34.2811416, "lon": -118.4338427}, {"type": "node", "id": 4304088279, "lat": 34.2811477, "lon": -118.4338343}, {"type": "node", "id": 4304088282, "lat": 34.2811648, "lon": -118.4338672}, {"type": "node", "id": 4304088283, "lat": 34.2811666, "lon": -118.4335232}, {"type": "node", "id": 4304088287, "lat": 34.2811723, "lon": -118.433495}, {"type": "node", "id": 4304088289, "lat": 34.2811766, "lon": -118.4338509}, {"type": "node", "id": 4304088290, "lat": 34.2811774, "lon": -118.4334572}, {"type": "node", "id": 4304088292, "lat": 34.2811788, "lon": -118.4338881}, {"type": "node", "id": 4304088293, "lat": 34.2811845, "lon": -118.4333317}, {"type": "node", "id": 4304088295, "lat": 34.2811912, "lon": -118.4334561}, {"type": "node", "id": 4304088298, "lat": 34.2811993, "lon": -118.4335227}, {"type": "node", "id": 4304088300, "lat": 34.2812007, "lon": -118.43365}, {"type": "node", "id": 4304088309, "lat": 34.2812184, "lon": -118.4336904}, {"type": "node", "id": 4304088311, "lat": 34.2812224, "lon": -118.4336376}, {"type": "node", "id": 4304088312, "lat": 34.2812242, "lon": -118.4337045}, {"type": "node", "id": 4304088314, "lat": 34.2812264, "lon": -118.4337016}, {"type": "node", "id": 4304088318, "lat": 34.2812304, "lon": -118.4337113}, {"type": "node", "id": 4304088319, "lat": 34.2812352, "lon": -118.4337051}, {"type": "node", "id": 4304088322, "lat": 34.281244, "lon": -118.433758}, {"type": "node", "id": 4304088326, "lat": 34.2812496, "lon": -118.4337357}, {"type": "node", "id": 4304088332, "lat": 34.2812557, "lon": -118.4337277}, {"type": "node", "id": 4304088333, "lat": 34.2812558, "lon": -118.4337426}, {"type": "node", "id": 4304088346, "lat": 34.2812751, "lon": -118.4337554}, {"type": "node", "id": 4304088351, "lat": 34.2812822, "lon": -118.4338795}, {"type": "node", "id": 4304090462, "lat": 34.2837999, "lon": -118.4375235}, {"type": "node", "id": 4304090472, "lat": 34.2838212, "lon": -118.4374377}, {"type": "node", "id": 4304090474, "lat": 34.2838248, "lon": -118.4373224}, {"type": "node", "id": 4304090477, "lat": 34.2838284, "lon": -118.4376718}, {"type": "node", "id": 4304090486, "lat": 34.283845, "lon": -118.4374637}, {"type": "node", "id": 4304090493, "lat": 34.2838574, "lon": -118.4372791}, {"type": "node", "id": 4304090494, "lat": 34.2838636, "lon": -118.4372859}, {"type": "node", "id": 4304090496, "lat": 34.2838705, "lon": -118.4373723}, {"type": "node", "id": 4304090499, "lat": 34.2838768, "lon": -118.4376075}, {"type": "node", "id": 4304090518, "lat": 34.28394, "lon": -118.4377937}, {"type": "node", "id": 4304090538, "lat": 34.2839985, "lon": -118.437716}, {"type": "node", "id": 4304090552, "lat": 34.2840283, "lon": -118.4377486}, {"type": "node", "id": 4304090789, "lat": 34.2845037, "lon": -118.4369438}, {"type": "node", "id": 4304090809, "lat": 34.2845784, "lon": -118.4374958}, {"type": "node", "id": 4304090811, "lat": 34.284587, "lon": -118.4373557}, {"type": "node", "id": 4304090823, "lat": 34.2846401, "lon": -118.4374138}, {"type": "node", "id": 4304090857, "lat": 34.2847562, "lon": -118.4371309}, {"type": "node", "id": 4305976208, "lat": 34.1982617, "lon": -118.5359031}, {"type": "node", "id": 4305976279, "lat": 34.1984019, "lon": -118.5359002}, {"type": "node", "id": 4305976281, "lat": 34.1983985, "lon": -118.5356573}, {"type": "node", "id": 4312765928, "lat": 34.1521017, "lon": -118.4549583}, {"type": "node", "id": 4312765929, "lat": 34.1521019, "lon": -118.4549428}, {"type": "node", "id": 4312765930, "lat": 34.1521037, "lon": -118.4549698}, {"type": "node", "id": 4312765931, "lat": 34.1521064, "lon": -118.4549512}, {"type": "node", "id": 4312765932, "lat": 34.1521068, "lon": -118.4549431}, {"type": "node", "id": 4312765933, "lat": 34.1521096, "lon": -118.4549028}, {"type": "node", "id": 4312765934, "lat": 34.1521122, "lon": -118.4549893}, {"type": "node", "id": 4312765935, "lat": 34.1521453, "lon": -118.4548857}, {"type": "node", "id": 4312765936, "lat": 34.1521494, "lon": -118.4551114}, {"type": "node", "id": 4312765937, "lat": 34.1521557, "lon": -118.4551113}, {"type": "node", "id": 4312765938, "lat": 34.1521677, "lon": -118.4548847}, {"type": "node", "id": 4312765939, "lat": 34.1521707, "lon": -118.4551485}, {"type": "node", "id": 4312765940, "lat": 34.1521881, "lon": -118.454859}, {"type": "node", "id": 4312765941, "lat": 34.1521881, "lon": -118.4548848}, {"type": "node", "id": 4312765942, "lat": 34.152189, "lon": -118.4551483}, {"type": "node", "id": 4312765943, "lat": 34.152189, "lon": -118.4551561}, {"type": "node", "id": 4312765948, "lat": 34.1522038, "lon": -118.454859}, {"type": "node", "id": 4312765949, "lat": 34.1522039, "lon": -118.4548516}, {"type": "node", "id": 4312765985, "lat": 34.1524626, "lon": -118.4551479}, {"type": "node", "id": 4312765986, "lat": 34.1524626, "lon": -118.4551555}, {"type": "node", "id": 4312765988, "lat": 34.152474, "lon": -118.4548529}, {"type": "node", "id": 4312767990, "lat": 34.1524741, "lon": -118.4549378}, {"type": "node", "id": 4312767997, "lat": 34.1524938, "lon": -118.4549376}, {"type": "node", "id": 4312767998, "lat": 34.1524951, "lon": -118.4550869}, {"type": "node", "id": 4312768001, "lat": 34.1525093, "lon": -118.4551135}, {"type": "node", "id": 4312768002, "lat": 34.1525096, "lon": -118.4551473}, {"type": "node", "id": 4312768003, "lat": 34.1525257, "lon": -118.4550865}, {"type": "node", "id": 4312768004, "lat": 34.1525259, "lon": -118.4551133}, {"type": "node", "id": 4317785190, "lat": 34.0451875, "lon": -118.2514598, "tags": {"addr:city": "Los Angeles", "addr:housenumber": "626-B", "addr:postcode": "90014", "addr:state": "CA", "addr:street": "South Spring Street", "amenity": "bar", "name": "Spring St Bar", "smoking": "outside"}}, {"type": "node", "id": 4317785191, "lat": 34.0452421, "lon": -118.2514183, "tags": {"addr:city": "Los Angeles", "addr:housenumber": "626", "addr:postcode": "90014", "addr:state": "CA", "addr:street": "South Spring Street", "amenity": "bar", "name": "The Falls", "smoking": "outside"}}, {"type": "node", "id": 4365022526, "lat": 33.9095003, "lon": -118.3266887}, {"type": "node", "id": 4365022531, "lat": 33.9095005, "lon": -118.3267172}, {"type": "node", "id": 4365022541, "lat": 33.9095058, "lon": -118.3267171}, {"type": "node", "id": 4365022547, "lat": 33.9095073, "lon": -118.3269167}, {"type": "node", "id": 4365022647, "lat": 33.9095941, "lon": -118.326783}, {"type": "node", "id": 4365022648, "lat": 33.9095943, "lon": -118.3266877}, {"type": "node", "id": 4365022649, "lat": 33.9095944, "lon": -118.3266956}, {"type": "node", "id": 4365022650, "lat": 33.9095951, "lon": -118.3269158}, {"type": "node", "id": 4365022673, "lat": 33.9096145, "lon": -118.3266954}, {"type": "node", "id": 4365022681, "lat": 33.9096158, "lon": -118.3267828}, {"type": "node", "id": 4379972982, "lat": 34.0856207, "lon": -118.383362}, {"type": "node", "id": 4379972983, "lat": 34.085627, "lon": -118.3833977}, {"type": "node", "id": 4379972984, "lat": 34.085681, "lon": -118.3832494}, {"type": "node", "id": 4379972985, "lat": 34.0856905, "lon": -118.3832587}, {"type": "node", "id": 4379972986, "lat": 34.0857171, "lon": -118.3831961}, {"type": "node", "id": 4379972987, "lat": 34.0857281, "lon": -118.3832069}, {"type": "node", "id": 4379972988, "lat": 34.0858379, "lon": -118.3835289}, {"type": "node", "id": 4379973190, "lat": 34.085886, "lon": -118.3834581}, {"type": "node", "id": 4379973193, "lat": 34.0859237, "lon": -118.3834025}, {"type": "node", "id": 4384770009, "lat": 33.9983282, "lon": -118.4347148, "tags": {"amenity": "bar"}}, {"type": "node", "id": 4386065307, "lat": 34.0815058, "lon": -118.3893552}, {"type": "node", "id": 4386065311, "lat": 34.0815938, "lon": -118.3892192}, {"type": "node", "id": 4386065312, "lat": 34.0816352, "lon": -118.3894839}, {"type": "node", "id": 4386065316, "lat": 34.0817319, "lon": -118.389364}, {"type": "node", "id": 4386074564, "lat": 34.0166643, "lon": -118.471114}, {"type": "node", "id": 4386074566, "lat": 34.0166649, "lon": -118.4711394}, {"type": "node", "id": 4386074574, "lat": 34.0166747, "lon": -118.4711227}, {"type": "node", "id": 4386074644, "lat": 34.0167663, "lon": -118.4709382}, {"type": "node", "id": 4386074647, "lat": 34.0167722, "lon": -118.4709432}, {"type": "node", "id": 4386074682, "lat": 34.0168188, "lon": -118.4708629}, {"type": "node", "id": 4386074750, "lat": 34.0169458, "lon": -118.4710323}, {"type": "node", "id": 4386074768, "lat": 34.0169705, "lon": -118.4709897}, {"type": "node", "id": 4386074782, "lat": 34.0169835, "lon": -118.4714615}, {"type": "node", "id": 4386074789, "lat": 34.0170052, "lon": -118.4714241}, {"type": "node", "id": 4386074811, "lat": 34.0170577, "lon": -118.4715236}, {"type": "node", "id": 4386074817, "lat": 34.0170674, "lon": -118.4711339}, {"type": "node", "id": 4386074833, "lat": 34.0171029, "lon": -118.4710726}, {"type": "node", "id": 4386074845, "lat": 34.0171187, "lon": -118.4714185}, {"type": "node", "id": 4386074869, "lat": 34.0171665, "lon": -118.4715722}, {"type": "node", "id": 4386074874, "lat": 34.017173, "lon": -118.4715277}, {"type": "node", "id": 4386074878, "lat": 34.0171796, "lon": -118.4714987}, {"type": "node", "id": 4386074880, "lat": 34.0171812, "lon": -118.471274}, {"type": "node", "id": 4386074886, "lat": 34.0171901, "lon": -118.4714783}, {"type": "node", "id": 4386074891, "lat": 34.017207, "lon": -118.471211}, {"type": "node", "id": 4386074899, "lat": 34.0172205, "lon": -118.4711709}, {"type": "node", "id": 4386074917, "lat": 34.0172374, "lon": -118.4715888}, {"type": "node", "id": 4386074921, "lat": 34.0172397, "lon": -118.4713252}, {"type": "node", "id": 4386074941, "lat": 34.0172657, "lon": -118.4712825}, {"type": "node", "id": 4386074962, "lat": 34.0172951, "lon": -118.4713082}, {"type": "node", "id": 4386074966, "lat": 34.0172969, "lon": -118.4712791}, {"type": "node", "id": 4386074974, "lat": 34.0173043, "lon": -118.471268}, {"type": "node", "id": 4386074978, "lat": 34.0173073, "lon": -118.4712882}, {"type": "node", "id": 4386074979, "lat": 34.0173075, "lon": -118.4716485}, {"type": "node", "id": 4386075091, "lat": 34.0173218, "lon": -118.4712504}, {"type": "node", "id": 4386075102, "lat": 34.01733, "lon": -118.4716064}, {"type": "node", "id": 4386075106, "lat": 34.0173382, "lon": -118.4716132}, {"type": "node", "id": 4386075111, "lat": 34.017345, "lon": -118.4712327}, {"type": "node", "id": 4386075177, "lat": 34.0174431, "lon": -118.4713308}, {"type": "node", "id": 4386075182, "lat": 34.0174493, "lon": -118.4713203}, {"type": "node", "id": 4386075189, "lat": 34.0174582, "lon": -118.4713862}, {"type": "node", "id": 4386075194, "lat": 34.0174664, "lon": -118.471393}, {"type": "node", "id": 4386075198, "lat": 34.0174749, "lon": -118.4713575}, {"type": "node", "id": 4386316451, "lat": 34.0212889, "lon": -118.468378}, {"type": "node", "id": 4386316460, "lat": 34.0213089, "lon": -118.4683528}, {"type": "node", "id": 4386316529, "lat": 34.0214088, "lon": -118.4681904}, {"type": "node", "id": 4386316531, "lat": 34.0214123, "lon": -118.468186}, {"type": "node", "id": 4387433320, "lat": 34.0209621, "lon": -118.468248}, {"type": "node", "id": 4387433323, "lat": 34.0210804, "lon": -118.4683852}, {"type": "node", "id": 4387433324, "lat": 34.0211575, "lon": -118.4682885}, {"type": "node", "id": 4387433326, "lat": 34.0212761, "lon": -118.4678539}, {"type": "node", "id": 4387433327, "lat": 34.0213187, "lon": -118.468087}, {"type": "node", "id": 4387433328, "lat": 34.0213947, "lon": -118.4679916}, {"type": "node", "id": 4390418029, "lat": 33.8598757, "lon": -118.1596815}, {"type": "node", "id": 4390418031, "lat": 33.8598759, "lon": -118.159663}, {"type": "node", "id": 4390418154, "lat": 33.8599209, "lon": -118.1596822}, {"type": "node", "id": 4390418156, "lat": 33.8599211, "lon": -118.1596621}, {"type": "node", "id": 4390835470, "lat": 33.8743334, "lon": -118.1680786}, {"type": "node", "id": 4390835475, "lat": 33.8743337, "lon": -118.1680025}, {"type": "node", "id": 4390835695, "lat": 33.8745078, "lon": -118.1680034}, {"type": "node", "id": 4390835696, "lat": 33.8745075, "lon": -118.168085}, {"type": "node", "id": 4392414064, "lat": 33.7682035, "lon": -118.1870622}, {"type": "node", "id": 4392414065, "lat": 33.7682038, "lon": -118.187146}, {"type": "node", "id": 4392414197, "lat": 33.7684593, "lon": -118.187061}, {"type": "node", "id": 4392414198, "lat": 33.7684596, "lon": -118.1871448}, {"type": "node", "id": 4399776804, "lat": 33.8725044, "lon": -118.3702309}, {"type": "node", "id": 4399776839, "lat": 33.8725534, "lon": -118.3703984}, {"type": "node", "id": 4399777017, "lat": 33.8726834, "lon": -118.3702315}, {"type": "node", "id": 4399777049, "lat": 33.8727083, "lon": -118.3703989}, {"type": "node", "id": 4399777080, "lat": 33.8727084, "lon": -118.3702316}, {"type": "node", "id": 4400518198, "lat": 34.0456934, "lon": -118.2643582, "tags": {"amenity": "bar", "name": "Veranda Poolside Lounge", "opening_hours": "Mo-Th 13:00-24:00; Fr-Sa 12:00-02:00; Su 12:00-24:00", "operator": "Figueroa Hotel", "outdoor_seating": "yes", "phone": "+1 213-627-8971"}}, {"type": "node", "id": 4401278828, "lat": 33.8501565, "lon": -118.3887271}, {"type": "node", "id": 4401278959, "lat": 33.8502692, "lon": -118.3885959}, {"type": "node", "id": 4401278972, "lat": 33.8502791, "lon": -118.3887655}, {"type": "node", "id": 4401279180, "lat": 33.8503528, "lon": -118.3886791}, {"type": "node", "id": 4409000930, "lat": 34.0559873, "lon": -118.2367437}, {"type": "node", "id": 4409000975, "lat": 34.0560601, "lon": -118.2366202}, {"type": "node", "id": 4409000985, "lat": 34.0560757, "lon": -118.2367262}, {"type": "node", "id": 4412197369, "lat": 33.8725041, "lon": -118.3703979}, {"type": "node", "id": 4414115089, "lat": 34.1892633, "lon": -118.54465, "tags": {"addr:street": "Kittridge Street", "amenity": "bar", "internet_access": "wlan"}}, {"type": "node", "id": 4424543060, "lat": 33.944028, "lon": -118.4104179, "tags": {"access": "private", "amenity": "bar", "operator": "Star Alliance", "outdoor_seating": "yes", "source": "survey", "source:geometry": "extrapolation"}}, {"type": "node", "id": 4465182833, "lat": 34.1788437, "lon": -118.3084191, "tags": {"amenity": "bar", "name": "Crystal View Lounge"}}, {"type": "node", "id": 4465182834, "lat": 34.1791211, "lon": -118.3081079, "tags": {"amenity": "bar", "name": "Casting Call Lounge"}}, {"type": "node", "id": 4467204590, "lat": 34.0909708, "lon": -118.362593, "tags": {"amenity": "bar", "name": "Surly Goat", "name:en": "Surly Goat"}}, {"type": "node", "id": 4478262489, "lat": 33.861953, "lon": -118.4005294, "tags": {"amenity": "bar", "name": "American Junkie", "name:en": "American Junkie"}}, {"type": "node", "id": 4580768557, "lat": 34.0974797, "lon": -118.2857637, "tags": {"addr:housenumber": "4427", "addr:street": "Sunset Boulevard", "amenity": "bar", "name": "Tiki-Ti", "opening_hours": "We-Sa 16:00-02:00", "phone": "+13236699381", "website": "http://www.tiki-ti.com", "wikidata": "Q7801925"}}, {"type": "node", "id": 4614154594, "lat": 34.0905887, "lon": -118.3679305, "tags": {"addr:city": "West Hollywood", "addr:housenumber": "8228", "addr:place": "West Hollywood", "addr:postcode": "90046", "addr:state": "CA", "addr:street": "Santa Monica Boulevard", "amenity": "bar", "name": "Gold Coast Bar", "opening_hours": "Mo-Su 10:00-02:00"}}, {"type": "node", "id": 4658914987, "lat": 34.2026299, "lon": -118.1581123}, {"type": "node", "id": 4658915290, "lat": 34.2026308, "lon": -118.1580987}, {"type": "node", "id": 4658915295, "lat": 34.2026374, "lon": -118.1578509}, {"type": "node", "id": 4658915300, "lat": 34.2026416, "lon": -118.1577917}, {"type": "node", "id": 4658915723, "lat": 34.2027336, "lon": -118.1581094}, {"type": "node", "id": 4658915727, "lat": 34.202735, "lon": -118.1580895}, {"type": "node", "id": 4658916088, "lat": 34.2029102, "lon": -118.1581077}, {"type": "node", "id": 4658916111, "lat": 34.2029308, "lon": -118.1578219}, {"type": "node", "id": 4659104921, "lat": 34.1665088, "lon": -118.2289955}, {"type": "node", "id": 4659104922, "lat": 34.1664437, "lon": -118.2288492}, {"type": "node", "id": 4659104923, "lat": 34.1664245, "lon": -118.2288212}, {"type": "node", "id": 4659104924, "lat": 34.1668454, "lon": -118.2286912}, {"type": "node", "id": 4659104925, "lat": 34.1668928, "lon": -118.2286835}, {"type": "node", "id": 4659104926, "lat": 34.166912, "lon": -118.2287115}, {"type": "node", "id": 4659104927, "lat": 34.1669091, "lon": -118.2287596}, {"type": "node", "id": 4659104928, "lat": 34.1668406, "lon": -118.2287722}, {"type": "node", "id": 4659104929, "lat": 34.1668326, "lon": -118.2287801}, {"type": "node", "id": 4659104930, "lat": 34.1668462, "lon": -118.2288}, {"type": "node", "id": 4659104931, "lat": 34.1665721, "lon": -118.2290333}, {"type": "node", "id": 4659104932, "lat": 34.1665498, "lon": -118.2290553}, {"type": "node", "id": 4660992444, "lat": 34.1836579, "lon": -118.3088561}, {"type": "node", "id": 4660992445, "lat": 34.1836665, "lon": -118.3088676}, {"type": "node", "id": 4660992446, "lat": 34.1836309, "lon": -118.3089551}, {"type": "node", "id": 4660992447, "lat": 34.183637, "lon": -118.3089634}, {"type": "node", "id": 4660992448, "lat": 34.1836215, "lon": -118.3089962}, {"type": "node", "id": 4660992449, "lat": 34.1836024, "lon": -118.3090224}, {"type": "node", "id": 4660992450, "lat": 34.1835875, "lon": -118.3090371}, {"type": "node", "id": 4660992451, "lat": 34.1835696, "lon": -118.3090505}, {"type": "node", "id": 4660992452, "lat": 34.1835472, "lon": -118.3090581}, {"type": "node", "id": 4660992453, "lat": 34.1835412, "lon": -118.3090498}, {"type": "node", "id": 4660992454, "lat": 34.183222, "lon": -118.3085134}, {"type": "node", "id": 4660992455, "lat": 34.1831554, "lon": -118.3085111}, {"type": "node", "id": 4660992456, "lat": 34.1831133, "lon": -118.3084697}, {"type": "node", "id": 4660992457, "lat": 34.1831083, "lon": -118.3084308}, {"type": "node", "id": 4660992458, "lat": 34.1831201, "lon": -118.3083885}, {"type": "node", "id": 4660992459, "lat": 34.1831473, "lon": -118.3083632}, {"type": "node", "id": 4660992460, "lat": 34.1831788, "lon": -118.3083575}, {"type": "node", "id": 4660992461, "lat": 34.1831938, "lon": -118.3083626}, {"type": "node", "id": 4660992462, "lat": 34.1832194, "lon": -118.3083828}, {"type": "node", "id": 4660992463, "lat": 34.1832268, "lon": -118.308375}, {"type": "node", "id": 4660992464, "lat": 34.1832188, "lon": -118.3083639}, {"type": "node", "id": 4660992465, "lat": 34.1832257, "lon": -118.3083565}, {"type": "node", "id": 4660992466, "lat": 34.1836111, "lon": -118.3078797}, {"type": "node", "id": 4660992467, "lat": 34.1836298, "lon": -118.3078601}, {"type": "node", "id": 4660992468, "lat": 34.1838449, "lon": -118.3081565}, {"type": "node", "id": 4660992469, "lat": 34.1838261, "lon": -118.3081762}, {"type": "node", "id": 4661064359, "lat": 34.1800376, "lon": -118.307986}, {"type": "node", "id": 4661064476, "lat": 34.1815087, "lon": -118.3078109}, {"type": "node", "id": 4661064525, "lat": 34.1801514, "lon": -118.3079109}, {"type": "node", "id": 4661064545, "lat": 34.1816419, "lon": -118.3076211}, {"type": "node", "id": 4661064556, "lat": 34.1801563, "lon": -118.3082943}, {"type": "node", "id": 4661064594, "lat": 34.1798964, "lon": -118.3081293}, {"type": "node", "id": 4661064787, "lat": 34.1818518, "lon": -118.3074495}, {"type": "node", "id": 4661064836, "lat": 34.1801504, "lon": -118.3079299}, {"type": "node", "id": 4661064865, "lat": 34.1815577, "lon": -118.3072982}, {"type": "node", "id": 4661064866, "lat": 34.1800809, "lon": -118.3083796}, {"type": "node", "id": 4661065003, "lat": 34.1800604, "lon": -118.3079616}, {"type": "node", "id": 4661065317, "lat": 34.1813925, "lon": -118.3074709}, {"type": "node", "id": 4661065326, "lat": 34.1801466, "lon": -118.3082809}, {"type": "node", "id": 4661065365, "lat": 34.1800681, "lon": -118.3079348}, {"type": "node", "id": 4661065384, "lat": 34.181671, "lon": -118.3076612}, {"type": "node", "id": 4661065533, "lat": 34.1799495, "lon": -118.3080725}, {"type": "node", "id": 4661065655, "lat": 34.1814758, "lon": -118.3078454}, {"type": "node", "id": 4661065725, "lat": 34.1818606, "lon": -118.3074616}, {"type": "node", "id": 4661065775, "lat": 34.1802491, "lon": -118.3080663}, {"type": "node", "id": 4661065902, "lat": 34.1815637, "lon": -118.3073065}, {"type": "node", "id": 4661066157, "lat": 34.1813989, "lon": -118.3074798}, {"type": "node", "id": 4661066202, "lat": 34.180078, "lon": -118.3079351}, {"type": "node", "id": 4661066223, "lat": 34.1817051, "lon": -118.307625}, {"type": "node", "id": 4661066272, "lat": 34.1800583, "lon": -118.3079458}, {"type": "node", "id": 4661066303, "lat": 34.1815913, "lon": -118.3072775}, {"type": "node", "id": 4661066561, "lat": 34.1818662, "lon": -118.3073936}, {"type": "node", "id": 4661066613, "lat": 34.1799422, "lon": -118.3080626}, {"type": "node", "id": 4661066642, "lat": 34.1814276, "lon": -118.3074497}, {"type": "node", "id": 4661066810, "lat": 34.1814449, "lon": -118.3078282}, {"type": "node", "id": 4661066855, "lat": 34.1802389, "lon": -118.308077}, {"type": "node", "id": 4661066876, "lat": 34.1816762, "lon": -118.3075851}, {"type": "node", "id": 4661066927, "lat": 34.1800629, "lon": -118.3079363}, {"type": "node", "id": 4661066952, "lat": 34.1815853, "lon": -118.3072693}, {"type": "node", "id": 4661067040, "lat": 34.1815173, "lon": -118.3078227}, {"type": "node", "id": 4661067085, "lat": 34.1800795, "lon": -118.3079054}, {"type": "node", "id": 4661067108, "lat": 34.1818829, "lon": -118.3074167}, {"type": "node", "id": 4661067158, "lat": 34.1800272, "lon": -118.3079719}, {"type": "node", "id": 4661067186, "lat": 34.1814215, "lon": -118.3074412}, {"type": "node", "id": 4661067401, "lat": 34.180283, "lon": -118.308138}, {"type": "node", "id": 4677920195, "lat": 34.2026183, "lon": -118.1581111}, {"type": "node", "id": 4683183607, "lat": 34.1647911, "lon": -118.3624954, "tags": {"addr:city": "North Hollywood", "addr:housenumber": "10622", "addr:postcode": "91601", "addr:state": "CA", "addr:street": "Magnolia Boulevard", "amenity": "bar", "description": "Dimly lit, relaxed spot offering cocktails, pool & an indie/alt jukebox.", "name": "NoBAR", "opening_hours": "Mo-Th 19:00-02:00; Fr 18:00-02:00; Sa, Su 20:00-02:00", "outdoor_seating": "no", "phone": "+1 818-753-0545", "website": "http://www.vintagebargroup.com/no-bar.php"}}, {"type": "node", "id": 4683224552, "lat": 34.164669, "lon": -118.3735657, "tags": {"addr:housenumber": "11130", "addr:street": "W Magnolia Blvd", "amenity": "pub", "description": "Rustic bar & grill for pub grub & 150+ craft beers in a brick lined space with a pool room.", "name": "The Brickyard Pub", "opening_hours": "Mo-Su 19:00-02:00", "phone": "+1 818-505-0460", "website": "http://www.brickyardnoho.com"}}, {"type": "node", "id": 4711222943, "lat": 34.1523646, "lon": -118.3523416, "tags": {"addr:city": "Toluca Lake", "addr:housenumber": "10149", "addr:postcode": "91602", "addr:state": "CA", "addr:street": "Riverside Drive", "amenity": "pub", "amenity_1": "bar", "description": "Grilled meats & whiskey served in a casual environment.", "name": "Forman's Tavern", "opening_hours": "Mo, Tu, Su 12:00-24:00; We, Th 12:00-01:00; Fr, Sa 12:00-02:00", "phone": "+1-818-760-6900", "website": "https://www.formansla.com/"}}, {"type": "node", "id": 4711222946, "lat": 34.1523766, "lon": -118.3521486, "tags": {"addr:city": "Toluca Lake", "addr:housenumber": "10139", "addr:postcode": "91602", "addr:state": "CA", "addr:street": "Riverside Drive", "amenity": "bar", "description": "Hybrid retail wine shop/wine bar featuring small production artisanal wines from around the world.", "email": "info@spinthebottlewines.com", "name": "Spin The Bottle Wine Studio", "opening_hours": "Mo 16:00-21:00; Tu, We 13:00-21:00; Th-Sa 13:00-22:00", "phone": "+1-818-509-7813", "shop": "wine", "website": "http://www.spinthebottlewines.com/"}}, {"type": "node", "id": 4711222953, "lat": 34.1523765, "lon": -118.3512428, "tags": {"addr:city": "Toluca Lake", "addr:housenumber": "10115", "addr:postcode": "91602", "addr:state": "CA", "addr:street": "Riverside Drive", "amenity": "juice bar", "description": "Healthy and delicious pressed juices designed to invigorate the body and mind.", "name": "Kreation Organic Juicery", "opening_hours": "Mo-Su 07:00-19:00", "phone": "+1-818-761-1348", "website": "https://www.kreationjuice.com/"}}, {"type": "node", "id": 4732330765, "lat": 34.0070943, "lon": -118.4634233, "tags": {"amenity": "public_bookcase", "brand": "Little Free Library"}}, {"type": "node", "id": 4756989769, "lat": 34.1383668, "lon": -118.3560031, "tags": {"amenity": "pub", "name": "Mulligan's Pub"}}, {"type": "node", "id": 4757073039, "lat": 34.1392438, "lon": -118.3542336, "tags": {"amenity": "pub", "name": "Moe's Tavern"}}, {"type": "node", "id": 4757073040, "lat": 34.139488, "lon": -118.3545724, "tags": {"amenity": "bar", "name": "Duff Brewery Beer Garden"}}, {"type": "node", "id": 4757127111, "lat": 34.1410009, "lon": -118.3569743, "tags": {"amenity": "bar", "name": "Studio One Bar"}}, {"type": "node", "id": 4757145086, "lat": 34.1387135, "lon": -118.3540516, "tags": {"amenity": "pub", "name": "Hogs Head"}}, {"type": "node", "id": 4833676264, "lat": 34.1356339, "lon": -118.1639678, "tags": {"amenity": "public_bookcase"}}, {"type": "node", "id": 4891612668, "lat": 34.0139422, "lon": -118.4957381, "tags": {"addr:city": "Los Angeles", "addr:street": "2nd Street", "amenity": "bar", "name": "Bar Chloe"}}, {"type": "node", "id": 4908681428, "lat": 34.1026303, "lon": -118.3395727, "tags": {"addr:city": "Los Angeles", "addr:country": "US", "addr:housenumber": "6801", "addr:postcode": "90028", "addr:state": "CA", "addr:street": "Hollywood Boulevard", "amenity": "nightclub", "contact:email": "info@ohmnightclubla.com", "contact:phone": "+1 323 3371315", "contact:website": "http://www.clubdv8la.com", "level": "4", "name": "Club DV8", "opening_hours": "Sa 22:00-03:00"}}, {"type": "node", "id": 4929769625, "lat": 33.8730294, "lon": -118.3617374, "tags": {"amenity": "bar", "name": "Thirsty Club"}}, {"type": "node", "id": 4934635479, "lat": 33.8180229, "lon": -118.3878571, "tags": {"amenity": "pub", "name": "Rebel Republic"}}, {"type": "node", "id": 4938411658, "lat": 34.1430803, "lon": -118.3920419, "tags": {"addr:city": "Studio City", "addr:housenumber": "11938", "addr:postcode": "91604", "addr:state": "CA", "addr:street": "Ventura Boulevard", "amenity": "bar", "cuisine": "american", "name": "Laurel Tavern", "opening_hours": "12:00-01:00", "outdoor_seating": "yes", "phone": "+1 (818) 506-0777", "website": "https://www.laureltavern.com/studio-city"}}, {"type": "node", "id": 4939483772, "lat": 33.8478319, "lon": -118.3896756, "tags": {"amenity": "bar", "name": "Pitcher House"}}, {"type": "node", "id": 4980785870, "lat": 33.9871095, "lon": -118.4721802, "tags": {"addr:housenumber": "1697", "addr:street": "Pacific Avenue", "amenity": "bar", "name": "High Rooftop Lounge"}}, {"type": "node", "id": 4994961807, "lat": 34.1041253, "lon": -118.3285556, "tags": {"amenity": "bar", "hookah_lounge": "yes", "name": "Mojo Hookah Lounge", "website": "http://www.mojo-hookah.com"}}, {"type": "node", "id": 5002080274, "lat": 33.9950488, "lon": -118.4807751, "tags": {"addr:city": "Los Angeles", "addr:housenumber": "205", "addr:postcode": "90291", "addr:state": "CA", "addr:street": "Ocean Front Walk", "amenity": "bar", "name": "On The Waterfront Cafe", "opening_hours": "Mo-Fr 11:00-23:00, Sa-Su 9:30-23:00", "outdoor_seating": "yes", "phone": "+1- 310-392-0322", "website": "http://www.waterfrontcafe.com/"}}, {"type": "node", "id": 5027582622, "lat": 34.0600391, "lon": -118.3626075, "tags": {"amenity": "bar", "name": "Tom Bergin's Public House", "name:en": "Tom Bergin's Public House"}}, {"type": "node", "id": 5027595421, "lat": 34.0652782, "lon": -118.3616658, "tags": {"amenity": "bar", "name": "Molly Malone's", "name:en": "Molly Malone's"}}, {"type": "node", "id": 5104442127, "lat": 34.1647674, "lon": -118.3723979, "tags": {"amenity": "bar"}}, {"type": "node", "id": 5112100828, "lat": 34.0619567, "lon": -118.2973268, "tags": {"amenity": "bar", "name": "Food & Grog"}}, {"type": "node", "id": 5112114622, "lat": 34.0619789, "lon": -118.2947408, "tags": {"amenity": "nightclub", "name": "BarCode"}}, {"type": "node", "id": 5113578770, "lat": 34.0907488, "lon": -118.3930114, "tags": {"addr:city": "West Hollywood", "addr:housenumber": "9201", "addr:postcode": "90069", "addr:state": "CA", "addr:street": "Sunset Hills Road", "amenity": "bar", "email": "info@blinddragon.com", "name": "Blind Dragon Bar", "phone": "+1-310-595-1091", "source": "mapillary", "website": "http://www.blinddragon.com/"}}, {"type": "node", "id": 5113578783, "lat": 34.0903007, "lon": -118.3931554, "tags": {"addr:city": "West Hollywood", "addr:housenumber": "9229", "addr:postcode": "90069", "addr:state": "CA", "addr:street": "West Sunset Boulevard", "amenity": "nightclub", "name": "Bootsy Bellows", "phone": "+1-310-274-7500", "source": "mapillary", "website": "http://bootsybellows.com"}}, {"type": "node", "id": 5119897618, "lat": 34.0908092, "lon": -118.3859881, "tags": {"addr:city": "West Hollywood", "addr:housenumber": "8911", "addr:postcode": "90069", "addr:state": "CA", "addr:street": "West Sunset Boulevard", "amenity": "pub", "name": "Rock & Reilley's Irish Pub", "opening_hours": "Mo-Fr 11:30+, Sa 08:30+, Su 09:30+", "outdoor_seating": "yes", "source": "mapillary", "website": "http://rockandreillys.com"}}, {"type": "node", "id": 5141857649, "lat": 34.1806281, "lon": -118.3330643, "tags": {"amenity": "bar", "name": "The Park"}}, {"type": "node", "id": 5141868827, "lat": 34.1583581, "lon": -118.3700499, "tags": {"amenity": "bar", "name": "Idle Hour"}}, {"type": "node", "id": 5141868829, "lat": 34.1836767, "lon": -118.3148035, "tags": {"amenity": "bar", "name": "Hooters"}}, {"type": "node", "id": 5167064027, "lat": 34.0946222, "lon": -118.3746245, "tags": {"addr:city": "West Hollywood", "addr:housenumber": "8440", "addr:postcode": "90069", "addr:state": "CA", "addr:street": "West Sunset Boulevard", "amenity": "bar", "name": "Skybar", "opening_hours": "Mo-Su 11:00-02:00", "operator": "Mondrian Los Angeles Hotel", "phone": "+1-323-848-6025", "source": "mapillary", "website": "https://www.morganshotelgroup.com/mondrian/mondrian-los-angeles/eat-drink/skybar"}}, {"type": "node", "id": 5171200507, "lat": 34.0982933, "lon": -118.3674035}, {"type": "node", "id": 5171200510, "lat": 34.0981542, "lon": -118.3674906}, {"type": "node", "id": 5173800721, "lat": 33.9166124, "lon": -118.4058857, "tags": {"amenity": "bar", "name": "Rob Rubens Distilling and Brewing"}}, {"type": "node", "id": 5181858321, "lat": 34.091485, "lon": -118.3353305, "tags": {"addr:housenumber": "6655", "addr:postcode": "90038", "addr:street": "Santa Monica Boulevard", "amenity": "nightclub", "name": "Circus Disco"}}, {"type": "node", "id": 5181873626, "lat": 34.1046483, "lon": -118.3271941, "tags": {"addr:housenumber": "1735", "addr:street": "Vine Street", "amenity": "nightclub", "name": "Avalon Hollywood", "phone": "+1 323-462-8900"}}, {"type": "node", "id": 5199994943, "lat": 34.1748929, "lon": -118.220564, "tags": {"amenity": "public_bookcase", "source": "gps"}}, {"type": "node", "id": 5207270058, "lat": 34.0835426, "lon": -118.3853057, "tags": {"addr:city": "West Hollywood", "addr:housenumber": "696", "addr:postcode": "90069", "addr:state": "CA", "addr:street": "North Robertson Boulevard", "amenity": "nightclub", "email": "abbey@theabbeyweho.com", "name": "The Chapel at The Abbey", "phone": "+1-310-289-8410", "website": "https://www.theabbeyweho.com/thechapel"}}, {"type": "node", "id": 5207270096, "lat": 34.0843661, "lon": -118.3853217, "tags": {"addr:city": "West Hollywood", "addr:housenumber": "8939", "addr:postcode": "90069", "addr:state": "CA", "addr:street": "Santa Monica Boulevard", "amenity": "bar", "name": "The Bayou", "opening_hours": "Mo-Su 16:00-02:00", "phone": "+1-310-273-3303", "source": "mapillary", "website": "http://thebayouweho.com"}}, {"type": "node", "id": 5314313623, "lat": 33.8510855, "lon": -118.390919, "tags": {"amenity": "bar", "name": "Redondo Beach VFW"}}, {"type": "node", "id": 5335103907, "lat": 34.0497904, "lon": -118.2493684, "tags": {"addr:city": "Los Angeles", "addr:housenumber": "361", "addr:postcode": "CA 90013", "addr:street": "South Broadway", "amenity": "bar", "email": "info@bernadettesla.com", "name": "Bernadette's", "opening_hours": "Mo-Sa 16:00-02:00; Su 16:00-23:00", "phone": "213.628.3354", "website": "http://bernadettesla.com/"}}, {"type": "node", "id": 5337769695, "lat": 33.9435356, "lon": -118.4096878, "tags": {"amenity": "bar", "level": "5", "name": "Drink.LA"}}, {"type": "node", "id": 5338080921, "lat": 33.8658532, "lon": -118.3872991, "tags": {"amenity": "bar", "name": "Susie\u2019s"}}, {"type": "node", "id": 5396021621, "lat": 34.1010035, "lon": -118.3359353, "tags": {"amenity": "bar", "name": "Sound Nightclub"}}, {"type": "node", "id": 5405879521, "lat": 34.1019002, "lon": -118.3044823, "tags": {"amenity": "bar", "name": "Harvard & Stone"}}, {"type": "node", "id": 5436448731, "lat": 34.1083467, "lon": -118.2715334, "tags": {"addr:city": "Los Angeles", "addr:housenumber": "2810", "addr:postcode": "90027", "addr:state": "CA", "addr:street": "Hyperion Avenue", "amenity": "bar", "name": "Tenants of the Trees", "opening_hours": "Mo-Sa 19:00-02:00; Su 17:00-23:00", "phone": "+1-323-284-8631", "website": "http://tenantsofthetrees.com/"}}, {"type": "node", "id": 5436455933, "lat": 34.1060181, "lon": -118.2728052, "tags": {"addr:city": "Los Angeles", "addr:housenumber": "2611", "addr:postcode": "90027", "addr:state": "CA", "addr:street": "Hyperion Avenue", "amenity": "bar", "name": "The Friend", "opening_hours": "Mo-Sa 19:00-02:00; Su 19:00-00:00", "phone": "+1-323-522-6835", "website": "https://www.thefriendbar.com/"}}, {"type": "node", "id": 5436501391, "lat": 34.1252715, "lon": -118.2647157, "tags": {"addr:city": "Los Angeles", "addr:housenumber": "3000", "addr:postcode": "90039", "addr:state": "CA", "addr:street": "Los Feliz Boulevard", "amenity": "bar", "name": "The Griffin", "opening_hours": "Mo-Su 16:00-02:00", "phone": "+1-323-644-0444"}}, {"type": "node", "id": 5436514624, "lat": 34.1236129, "lon": -118.2679451, "tags": {"addr:city": "Los Angeles", "addr:housenumber": "3172", "addr:postcode": "90039", "addr:state": "CA", "addr:street": "Los Feliz Boulevard", "amenity": "bar", "name": "Bigfoot Lodge", "opening_hours": "Mo-Su 17:00-02:00", "phone": "+1-323-662-9227", "website": "https://www.instagram.com/bigfootwest/"}}, {"type": "node", "id": 5436538080, "lat": 34.0929435, "lon": -118.2814474, "tags": {"addr:city": "Los Angeles", "addr:housenumber": "1087", "addr:postcode": "90029", "addr:state": "CA", "addr:street": "Manzanita Street", "amenity": "bar", "name": "4100 Bar", "opening_hours": "Mo-We 20:00-02:00; Th-Su 18:00-02:00", "phone": "+1-323-666-4460", "website": "http://4100bar.com"}}, {"type": "node", "id": 5449236397, "lat": 34.2788518, "lon": -118.6072087}, {"type": "node", "id": 5449236398, "lat": 34.2788344, "lon": -118.6072007}, {"type": "node", "id": 5449236399, "lat": 34.2788433, "lon": -118.6071722}, {"type": "node", "id": 5449236400, "lat": 34.2788607, "lon": -118.6071801}, {"type": "node", "id": 5451344729, "lat": 34.0483579, "lon": -118.2477353, "tags": {"addr:city": "Los Angeles", "addr:housenumber": "118", "addr:state": "CA", "addr:street": "West 4th Street", "amenity": "bar", "name": "Bar Ama", "website": "www.bar-ama.com"}}, {"type": "node", "id": 5453015517, "lat": 34.0837033, "lon": -118.2737478, "tags": {"addr:city": "Los Angeles", "addr:housenumber": "2939", "addr:postcode": "90026", "addr:state": "CA", "addr:street": "Sunset Boulevard", "amenity": "bar", "name": "The Thirsty Crow", "opening_hours": "Mo-Sa 17:00-02:00; Su 14:00-02:00", "phone": "+1-323-661-6007", "website": "http://thirstycrowbar.com/"}}, {"type": "node", "id": 5453034257, "lat": 34.0829347, "lon": -118.2736459, "tags": {"addr:city": "Los Angeles", "addr:housenumber": "2906", "addr:postcode": "90026", "addr:state": "CA", "addr:street": "Sunset Boulevard", "amenity": "bar", "name": "Silverlake Lounge", "opening_hours": "Mo-Fr 18:00-02:00; Sa-Su 15:00-02:00", "phone": "+1-323-663-9636"}}, {"type": "node", "id": 5465570053, "lat": 34.1075157, "lon": -118.2659493, "tags": {"addr:city": "Los Angeles", "addr:housenumber": "2838", "addr:postcode": "90039", "addr:state": "CA", "addr:street": "Rowena Avenue", "amenity": "bar", "name": "Edendale", "opening_hours": "Mo-Fr 17:00-02:00; Sa-Su 11:00-02:00", "phone": "+1-323-666-2000", "website": "http://www.theedendale.com/"}}, {"type": "node", "id": 5466076876, "lat": 34.0447776, "lon": -118.2496228, "tags": {"addr:housenumber": "118", "amenity": "pub", "cuisine": "sandwiches", "name": "Cole's"}}, {"type": "node", "id": 5466079442, "lat": 34.0459946, "lon": -118.2513244, "tags": {"amenity": "pub", "level": "-1", "name": "Rhythm Room"}}, {"type": "node", "id": 5492354091, "lat": 34.0210856, "lon": -118.4660856, "tags": {"addr:city": "Santa Monica", "addr:housenumber": "2310", "addr:postcode": "90405", "addr:state": "CA", "addr:street": "Pico Boulevard", "amenity": "bar", "name": "The Daily Pint", "opening_hours": "Mo-Fr 14:00-02:00; Sa-Su 11:00-02:00", "phone": "+1-310-450-7631", "website": "http://thedailypint.net/"}}, {"type": "node", "id": 5511864321, "lat": 34.083696, "lon": -118.2737795, "tags": {"amenity": "bar", "name": "The Thirsty Crow"}}, {"type": "node", "id": 5511883221, "lat": 34.0920144, "lon": -118.2805304, "tags": {"amenity": "bar", "name": "Cafe Stella"}}, {"type": "node", "id": 5511883222, "lat": 34.1058202, "lon": -118.2728907, "tags": {"amenity": "bar", "name": "The Friend"}}, {"type": "node", "id": 5511903321, "lat": 34.0827697, "lon": -118.273646, "tags": {"amenity": "bar", "name": "The Silverlake Lounges"}}, {"type": "node", "id": 5511934121, "lat": 34.0929549, "lon": -118.281497, "tags": {"amenity": "bar", "name": "4100 dive bar"}}, {"type": "node", "id": 5512762941, "lat": 34.182272, "lon": -118.3103634, "tags": {"amenity": "bar", "name": "City Salon Bar"}}, {"type": "node", "id": 5512810084, "lat": 34.1811747, "lon": -118.3088855, "tags": {"amenity": "bar", "name": "Burbank Bar and Grill"}}, {"type": "node", "id": 5512810094, "lat": 34.1813289, "lon": -118.3095655, "tags": {"amenity": "bar", "name": "Fantasia Bar"}}, {"type": "node", "id": 5512816202, "lat": 34.1806488, "lon": -118.3081318, "tags": {"amenity": "pub", "name": "Story Tavern"}}, {"type": "node", "id": 5517321851, "lat": 33.9421784, "lon": -118.3973166, "tags": {"amenity": "pub", "name": "Engine Co No 28 Bar and Grill"}}, {"type": "node", "id": 5521118053, "lat": 33.942077, "lon": -118.4021971, "tags": {"amenity": "bar", "name": "The Marketplace"}}, {"type": "node", "id": 5567714035, "lat": 34.0272278, "lon": -118.2877886, "tags": {"addr:city": "Los Angeles", "addr:housenumber": "1146", "addr:postcode": "90007", "addr:state": "CA", "addr:street": "West 30th Street", "amenity": "bar", "brewery": "guinness;Crispy_Boys", "name": "The Pearl", "opening_hours": "24/7", "operator": "USNR", "outdoor_seating": "yes", "smoking": "yes"}}, {"type": "node", "id": 5596276321, "lat": 34.0920862, "lon": -118.3094112, "tags": {"addr:housenumber": "1159", "addr:postcode": "90039", "addr:street": "Western Avenue", "amenity": "bar", "name": "la descarga", "opening_hours": "Tu-Sa 20:00-02:00"}}, {"type": "node", "id": 5615949714, "lat": 34.0448078, "lon": -118.2518604, "tags": {"amenity": "nightclub", "name": "The Reserve"}}, {"type": "node", "id": 5640829522, "lat": 33.7827443, "lon": -118.1573807, "tags": {"amenity": "bar", "name": "Alex's Bar"}}, {"type": "node", "id": 5640829945, "lat": 33.7824909, "lon": -118.1586425, "tags": {"amenity": "bar", "name": "Paradisio Cocktails"}}, {"type": "node", "id": 5644457037, "lat": 34.0821538, "lon": -118.3767682, "tags": {"amenity": "bar", "name": "L.P."}}, {"type": "node", "id": 5665140248, "lat": 33.9427703, "lon": -118.4102502, "tags": {"access": "private", "amenity": "bar", "operator": "Emirates", "source": "survey", "source:geometry": "extrapolation"}}, {"type": "node", "id": 5695538336, "lat": 33.9945827, "lon": -118.4802921, "tags": {"amenity": "pub", "name": "Venice Ale House"}}, {"type": "node", "id": 5695538339, "lat": 33.9941379, "lon": -118.4799059, "tags": {"amenity": "bar", "name": "The Venice Beach Bar"}}, {"type": "node", "id": 5706632578, "lat": 34.04873, "lon": -118.233692, "tags": {"addr:city": "Los Angeles", "addr:housenumber": "901", "addr:postcode": "90012", "addr:state": "CA", "addr:street": "East 1st Street", "amenity": "bar", "description": "Music venue", "name": "Moroccan Lounge", "outdoor_seating": "no", "website": "https://www.themoroccan.com/"}}, {"type": "node", "id": 5706722632, "lat": 34.0657422, "lon": -118.233389, "tags": {"addr:city": "Los Angeles", "addr:housenumber": "1220", "addr:postcode": "90012", "addr:state": "CA", "addr:street": "North Spring Street", "amenity": "bar", "email": "main@hpb.la", "name": "Highland Park Brewery Chinatown", "opening_hours": "Mo-Th16:00-23:00; Sa: 12:00-24:00; Su: 12:00-23:00", "outdoor_seating": "yes", "phone": "213.878.9017", "website": "https://hpb.la"}}, {"type": "node", "id": 5752497032, "lat": 34.0477833, "lon": -118.3241398, "tags": {"addr:city": "Los Angeles", "addr:housenumber": "4067", "addr:postcode": "90019", "addr:state": "CA", "addr:street": "West Pico Boulevard", "amenity": "nightclub", "name": "Catch One", "website": "https://catch.one"}}, {"type": "node", "id": 5761027677, "lat": 34.1685465, "lon": -118.2281058}, {"type": "node", "id": 5857669195, "lat": 34.1693031, "lon": -118.3421635, "tags": {"amenity": "bar", "name": "March\u00e9 Wine Bar"}}, {"type": "node", "id": 5879660376, "lat": 34.09936, "lon": -118.2594479, "tags": {"addr:city": "Los Angeles", "addr:housenumber": "2375", "addr:postcode": "90039", "addr:state": "CA", "addr:street": "Glendale Boulevard", "amenity": "bar", "name": "Cha Cha Lounge", "opening_hours": "Mo-Su 17:00-02:00", "outdoor_seating": "no", "phone": "+1-323-660-7595", "website": "https://chachalounge.com/losangeles"}}, {"type": "node", "id": 5908815773, "lat": 34.0704496, "lon": -118.292005, "tags": {"addr:city": "Los Angeles", "addr:housenumber": "191", "addr:postcode": "90004", "addr:state": "CA", "addr:street": "South Vermont Avenue", "amenity": "bar", "description": "'Feature' should be Karoke, but that type does not exist.", "name": "Vermont Karaoke and Billiards", "opening_hours": "Mo-Th: 14:00-02:00; Fr-Sa: 14:00-04:00; Su: 14:00-0200; ", "outdoor_seating": "no", "phone": "+1-213-385-3337"}}, {"type": "node", "id": 5913712487, "lat": 33.9435103, "lon": -118.4089738, "tags": {"amenity": "bar"}}, {"type": "node", "id": 5919896368, "lat": 34.0453545, "lon": -118.2512654, "tags": {"addr:city": "Los Angeles", "addr:housenumber": "618", "addr:postcode": "90014", "addr:state": "CA", "addr:street": "South Spring Street", "amenity": "nightclub", "name": "Exchange LA", "phone": "+1-213-627-8070", "website": "http://exchangela.com/"}}, {"type": "node", "id": 5921263660, "lat": 34.0905978, "lon": -118.3125671, "tags": {"addr:city": "Los Angeles", "addr:housenumber": "5632", "addr:postcode": "90038", "addr:state": "CA", "addr:street": "Santa Monica Boulevard", "amenity": "bar", "description": "Gold Diggers is a bar, boutique hotel and recording studios all within a single campus. Inheriting the historic dive that's brought flash and trash to Santa Monica Boulevard for decades, Gold Diggers builds upon the location's legendary history, creating ", "email": "hotelinfo@gold-diggers.com", "name": "Gold Diggers", "opening_hours": "Mo-Su: 17:00-02:00", "phone": "+1-323-610-6972", "website": "https://gold-diggers.com/"}}, {"type": "node", "id": 5937855665, "lat": 33.8743714, "lon": -118.1680788}, {"type": "node", "id": 5937855666, "lat": 33.8743713, "lon": -118.1680842}, {"type": "node", "id": 5937855667, "lat": 33.8745078, "lon": -118.1680189, "tags": {"entrance": "yes"}}, {"type": "node", "id": 5960175000, "lat": 34.0634433, "lon": -118.300716, "tags": {"addr:city": "Los Angeles", "addr:housenumber": "3612", "addr:postcode": "90020", "addr:state": "CA", "addr:street": "South Normandie Avenue", "amenity": "bar", "name": "The Normandie Club", "opening_hours": "Mo-Su 18:00-02:00", "outdoor_seating": "no", "phone": "+1-213-263-2709", "smoking": "no", "website": "https://www.thenormandieclub.com"}}, {"type": "node", "id": 5960175018, "lat": 34.0634211, "lon": -118.3007374, "tags": {"addr:city": "Los Angeles", "addr:housenumber": "3612", "addr:postcode": "90020", "addr:state": "CA", "addr:street": "West 6th Street", "amenity": "bar", "name": "The Walker Inn", "opening_hours": "We-Su 19:00+", "outdoor_seating": "no", "website": "http://www.thewalkerinnla.com/"}}, {"type": "node", "id": 5965553971, "lat": 34.0344566, "lon": -118.2325798, "tags": {"addr:city": "Los Angeles", "addr:housenumber": "1936", "addr:postcode": "90021", "addr:state": "CA", "addr:street": "East 7th Street", "amenity": "bar", "description": "Also known as E.R.B.", "email": "hello@erbla.com", "name": "Everson Royce Bar", "opening_hours": "Mo-Th 17:00-02:00; Fr 16:00-02:00; Sa 17:00-02:00; Su 14:00-24:00", "outdoor_seating": "yes", "payment:cash": "yes", "payment:credit_cards": "yes", "phone": "+1-213-335-6166", "website": "https://rbla.com/"}}, {"type": "node", "id": 6017728559, "lat": 34.1394561, "lon": -118.3819802, "tags": {"amenity": "bar"}}, {"type": "node", "id": 6017728560, "lat": 34.1394561, "lon": -118.3819802, "tags": {"addr:city": "Studio City", "addr:housenumber": "11502", "addr:postcode": "91604", "addr:state": "CA", "addr:street": "Ventura Boulevard", "amenity": "bar", "brewery": "yes", "name": "Oil Can Harry's", "smoking": "outside"}}, {"type": "node", "id": 6045035789, "lat": 34.024223, "lon": -118.2841199, "tags": {"addr:city": "Los Angeles", "addr:housenumber": "3201", "addr:postcode": "90007", "addr:state": "CA", "addr:street": "Hoover Street", "addr:unit": "1810", "amenity": "bar", "fixme": "games: Yes", "food": "yes", "name": "Rock & Reilly's", "opening_hours": "Mo-Su 10:00-02:00", "outdoor_seating": "yes", "phone": "(213) 536-5584", "smoking": "no"}}, {"type": "node", "id": 6045038065, "lat": 34.0256314, "lon": -118.2773956, "tags": {"addr:city": "Los Angeles", "addr:housenumber": "2902", "addr:postcode": "90007", "addr:state": "CA", "addr:street": "Figueroa Street", "amenity": "bar", "food": "yes", "name": "901 Bar & Grill", "opening_hours": "Mo-Su 11:30AM-2:00AM", "outdoor_seating": "no"}}, {"type": "node", "id": 6107947447, "lat": 34.0318667, "lon": -118.4822384, "tags": {"addr:city": "Santa Monica", "addr:housenumber": "2030", "addr:postcode": "90403", "addr:state": "CA", "addr:street": "Wilshire Boulevard", "amenity": "bar", "email": "info@thegaslite.com", "name": "The Gaslite", "opening_hours": "4 PM - 2 AM Daily", "phone": "310-829-2382", "website": "http://www.thegaslite.com"}}, {"type": "node", "id": 6109915123, "lat": 34.1019569, "lon": -118.3014699, "tags": {"addr:city": "Los Angeles", "addr:housenumber": "5125", "addr:postcode": "90027", "addr:state": "CA", "addr:street": "Hollywood Boulevard", "amenity": "bar", "email": "TABULARASABAR@GMAIL.COM", "name": "Tabula Rasa Bar", "opening_hours": "Mo-Th 17:00-01:00; Fr-Sa 14:00-02:00; Su 14:00-01:00", "outdoor_seating": "no", "smoking": "no", "website": "https://www.tabularasabar.com/"}}, {"type": "node", "id": 6123943539, "lat": 34.0838722, "lon": -118.2743474, "tags": {"addr:city": "Los Angeles", "addr:housenumber": "3040", "addr:postcode": "90026", "addr:state": "CA", "addr:street": "West Sunset Boulevard", "amenity": "nightclub", "name": "Los Globos", "phone": "+1-323-666-6669", "smoking": "isolated", "website": "https://www.clublosglobos.com/"}}, {"type": "node", "id": 6171102185, "lat": 34.0244894, "lon": -118.4852657, "tags": {"addr:housenumber": "1348", "addr:postcode": "90404", "addr:street": "14th Street", "amenity": "bar", "name": "The Chestnut Club"}}, {"type": "node", "id": 6171102186, "lat": 34.0935136, "lon": -118.3267389, "tags": {"addr:housenumber": "1233", "addr:postcode": "90038", "addr:street": "Vine Street", "amenity": "bar", "name": "Sassafras"}}, {"type": "way", "id": 31981540, "nodes": [358415392, 4660992469, 4660992468, 4660992467, 4660992466, 358415419, 358415418, 4660992465, 4660992464, 4660992463, 4660992462, 358415417, 4660992461, 4660992460, 358415416, 4660992459, 358415415, 4660992458, 358415414, 4660992457, 358415413, 4660992456, 358415412, 358415411, 4660992455, 358415410, 358415409, 4660992454, 358415408, 358415407, 358415406, 358415405, 358415403, 358415402, 358415401, 358415400, 358415399, 358415398, 358415397, 4660992453, 4660992452, 4660992451, 4660992450, 4660992449, 4660992448, 4660992447, 4660992446, 358415396, 358415395, 4660992445, 4660992444, 358415394, 358415393, 358415392], "tags": {"amenity": "public_building", "building": "yes", "ele": "223.6", "height": "27.9", "lacounty:ain": "2453007918", "lacounty:bld_id": "468362889227", "source": "Yahoo"}}, {"type": "way", "id": 158712308, "nodes": [1708685434, 1708685353, 1708685277, 1708685412, 1708685434], "tags": {"amenity": "public_building", "building": "yes", "ele": "56.4", "height": "4.9", "lacounty:ain": "4274024900", "lacounty:bld_id": "419655830584"}}, {"type": "way", "id": 158712310, "nodes": [1708685266, 4386316531, 4386316529, 4387433327, 4387433328, 4387433326, 4387433320, 4387433323, 4387433324, 1708685348, 1708685292, 4386316451, 4386316460, 1708685377, 1708685266], "tags": {"amenity": "public_building", "building": "yes", "ele": "56.4", "height": "4.9", "lacounty:ain": "4274024900", "lacounty:bld_id": "419767830490"}}, {"type": "way", "id": 158934058, "nodes": [1710494442, 1710494332, 1710494469, 1710494432, 1710494504, 1710494529, 1710494458, 1710494444, 1710494401, 1710494586, 1710494474, 1710494512, 1710494423, 1710494416, 1710494369, 1710494338, 1710494442], "tags": {"amenity": "public_building", "building": "yes"}}, {"type": "way", "id": 172237276, "nodes": [1831615688, 4661066952, 4661066303, 4661065902, 4661064865, 4661067186, 4661066642, 4661066157, 4661065317, 1831615693, 4661066810, 1831615673, 4661065655, 4661064476, 4661067040, 4661065384, 4661064545, 4661066876, 4661066223, 4661065725, 4661064787, 4661067108, 4661066561, 1831615689, 1831615688], "tags": {"amenity": "public_building", "building": "commercial", "ele": "210.8", "height": "22.6", "lacounty:ain": "2453013022", "lacounty:bld_id": "468648888566", "name": "Burbank City Hall Annex", "start_date": "2005"}}, {"type": "way", "id": 172237277, "nodes": [1831615671, 1831615678, 1831615676, 1831615695, 1831615668, 1831615679, 1831615687, 1831615680, 1831615686, 1831615670, 1831615690, 1831615669, 1831615671], "tags": {"amenity": "public_building", "building": "yes", "ele": "205.0", "height": "13.3", "lacounty:ain": "2453014900", "lacounty:bld_id": "468841888776", "name": "County Courts, Burbank"}}, {"type": "way", "id": 226826054, "nodes": [4659104932, 4659104931, 2355595610, 4659104930, 4659104929, 4659104928, 2355595579, 4659104927, 4659104926, 4659104925, 4659104924, 2355595600, 4659104923, 4659104922, 2355595611, 4659104921, 4659104932], "tags": {"addr:state": "CA", "amenity": "public_building", "building": "yes", "designation": "SR", "ele": "258.5", "gnis:county_name": "Los Angeles", "gnis:feature_id": "2104731", "gnis:import_uuid": "57871b70-0100-4405-bb30-88b2e001a944", "gnis:reviewed": "no", "lacounty:ain": "5652009908", "lacounty:bld_id": "GLEN58515", "name": "San Rafael Building", "source": "USGS Geonames"}}, {"type": "way", "id": 226833220, "nodes": [2355671735, 2355671737, 2355671740, 2355671738, 2355671735], "tags": {"amenity": "public_building", "building": "yes", "designation": "SA", "ele": "253.2", "lacounty:ain": "5652009908", "lacounty:bld_id": "GLEN58508", "name": "Santa Anita Building"}}, {"type": "way", "id": 226833221, "nodes": [2355671720, 2355671726, 2355671730, 2355671733, 2355671734, 2355671731, 5761027677, 2355671725, 2355671721, 2355671720], "tags": {"addr:state": "CA", "amenity": "public_building", "building": "yes", "designation": "SB", "ele": "242", "gnis:county_name": "Los Angeles", "gnis:feature_id": "2104732", "gnis:import_uuid": "57871b70-0100-4405-bb30-88b2e001a944", "gnis:reviewed": "no", "name": "Santa Barbara Building", "source": "USGS Geonames"}}, {"type": "way", "id": 229839671, "nodes": [2383829264, 4305976208, 4305976279, 2383829266, 4305976281, 2383829264], "tags": {"addr:housename": "C Frenz", "addr:housenumber": "7026", "addr:postcode": "91335", "addr:street": "Reseda Boulevard", "amenity": "bar", "building": "commercial", "contact:facebook": "https://www.facebook.com/C.FrenzNightclub", "contact:twitter": "https://twitter.com/c_frenz", "ele": "229.1", "gay": "yes", "height": "4.7", "lacounty:ain": "2125006017", "lacounty:bld_id": "399660894990", "lgbtq": "primary", "name": "C Frenz", "phone": "+1-818-9962976", "start_date": "1950", "website": "http://www.cfrenzbar.com/"}}, {"type": "way", "id": 233472011, "nodes": [2418520120, 2418520125, 2418520124, 2418520123, 2418520122, 4274926371, 4274926367, 4274926366, 4274926363, 2418520121, 2418520120], "tags": {"amenity": "pub", "building": "yes", "ele": "150.7", "lacounty:ain": "5593005043", "lacounty:bld_id": "GLEN3477", "name": "Golden Road Brewing", "website": "http://goldenroad.la/"}}, {"type": "way", "id": 241761226, "nodes": [2493566644, 2493566654, 1464770194, 2493566642, 2493566655, 2493566646, 2493566632, 2493566628, 2493566639, 2493566635, 2493566648, 2493566631, 2493566643, 2493566645, 2493566637, 2493566644], "tags": {"amenity": "public_building", "building": "yes", "building:units": "2", "ele": "46.3", "height": "10.3", "lacounty:ain": "7454022005", "lacounty:bld_id": "472250725217", "name": "Boys Club of San Pedro", "start_date": "1965"}}, {"type": "way", "id": 259281892, "nodes": [4283017863, 2646487204, 4283017848, 4283017873, 2646487201, 2646489481, 4283018226, 2646487203, 2646487202, 4283017863], "tags": {"amenity": "nightclub", "building": "yes", "building:units": "1", "ele": "177.9", "height": "6.8", "lacounty:ain": "5476016020", "lacounty:bld_id": "499508866629", "name": "The Hi Hat", "start_date": "1939"}}, {"type": "way", "id": 305366920, "nodes": [3099873335, 3099873334, 3099873333, 3099873332, 3099873331, 4390418031, 4390418029, 4390418154, 4390418156, 3099873330, 3099873335], "tags": {"amenity": "bar", "building": "commercial", "ele": "22.0", "height": "5.8", "lacounty:ain": "7157008001", "lacounty:bld_id": "513222771444", "name": "Aja's Bar", "start_date": "1932"}}, {"type": "way", "id": 314518858, "nodes": [3205686703, 3205686704, 3205686705, 3205686706, 3205686703], "tags": {"amenity": "pub", "building": "yes", "name": "The Irish Times"}}, {"type": "way", "id": 342865420, "nodes": [4312765943, 4312765986, 4312765985, 4312768002, 4312768001, 4312768004, 4312768003, 4312767998, 4312767997, 4312767990, 4312765988, 4312765949, 4312765948, 4312765940, 4312765941, 4312765938, 3498190682, 4312765935, 3498190683, 3498190684, 3498190685, 4312765933, 3498190686, 4312765929, 4312765932, 4312765931, 3498190687, 4312765928, 4312765930, 3498190688, 4312765934, 3498190689, 3498190690, 3498190691, 3498198093, 3498190692, 4312765936, 4312765937, 3498190678, 3498190679, 3498190680, 4312765939, 4312765942, 3498190681, 4312765943], "tags": {"addr:city": "Sherman Oaks", "addr:housenumber": "14755", "addr:postcode": "91403", "addr:state": "CA", "addr:street": "Ventura Blvd", "amenity": "bar", "building": "yes", "building:units": "13", "ele": "5 m", "height": "10.0", "lacounty:ain": "2265001006", "lacounty:bld_id": "424010878128", "level": "2", "name": "Epic Bar & Lounge", "opening_hours": "Tu-Th 17:00-24:00, Fr,Sa 17:00-01:00; Su 17:00-24:00", "phone": "+1 818 380 3180", "shop": "furniture", "source": "Bing", "start_date": "1997", "website": "http://www.epicbarandlounge.com"}}, {"type": "way", "id": 359672440, "nodes": [3643484625, 3643484626, 3643484605, 3643484604, 3643484625], "tags": {"addr:city": "Chatsworth", "addr:country": "US", "addr:housenumber": "21635", "addr:postcode": "91311", "addr:state": "CA", "addr:street": "Devonshire Street", "amenity": "bar", "building": "commercial", "name": "Cowboy Palace Saloon", "phone": "+1 818 341 0166", "source": "Bing", "website": "http://cowboypalace.com/"}}, {"type": "way", "id": 365025326, "nodes": [4386065311, 3690678096, 4386065307, 4386065312, 3690678103, 3690678104, 4386065316, 4386065311], "tags": {"addr:city": "West Hollywood", "addr:housenumber": "9081", "addr:postcode": "90069", "addr:state": "CA", "addr:street": "Santa Monica Boulevard", "amenity": "nightclub", "building": "commercial", "ele": "77.8", "height": "8.0", "lacounty:ain": "4340012002", "lacounty:bld_id": "443765852315", "name": "Troubadour", "phone": "+1-310-276-1158", "source": "mapillary", "start_date": "1924", "website": "https://www.troubadour.com", "wikidata": "Q24309", "wikipedia": "en:Troubadour (West Hollywood, California)"}}, {"type": "way", "id": 365931843, "nodes": [4245891963, 4245891968, 3699307644, 4245891967, 4245891952, 4245891949, 4245891946, 4245891944, 4245891942, 4245891943, 4245891941, 4245891963], "tags": {"amenity": "bar", "building": "retail", "building:units": "8", "ele": "46.0", "height": "6.4", "lacounty:ain": "4314022040", "lacounty:bld_id": "436880833247", "name": "Boardwalk 11", "office": "yes", "start_date": "1973"}}, {"type": "way", "id": 391133918, "nodes": [3942924599, 3942924594, 4247320912, 4247320872, 4247320873, 4247320902, 3942924595, 3942924600, 3942924599], "tags": {"addr:city": "West Hollywood", "addr:housenumber": "9039", "addr:postcode": "90069", "addr:state": "CA", "addr:street": "West Sunset Boulevard", "amenity": "nightclub", "building": "commercial", "ele": "132.5", "email": "Info@1oakla.com", "height": "10.8", "lacounty:ain": "5560029037", "lacounty:bld_id": "443896855654", "name": "1 Oak", "phone": "+1-310-274-2326", "source": "mapillary", "start_date": "1996", "website": "http://1oakla.com"}}, {"type": "way", "id": 391157718, "nodes": [3943304487, 3943304490, 3943304486, 3943304475, 3943304481, 3943304480, 3943304487], "tags": {"addr:city": "West Hollywood", "addr:housename": "RAGE", "addr:housenumber": "8911", "addr:postcode": "90069", "addr:state": "CA", "addr:street": "Santa Monica Boulevard", "amenity": "nightclub", "building": "yes", "email": "wehorage@gmail.com", "gay": "yes", "lgbtq": "primary", "name": "Rage", "opening_hours": "Mo-Su 13:00-02:00", "phone": "+1-310-652-7055", "website": "http://www.ragenightclub.com"}}, {"type": "way", "id": 391197294, "nodes": [3943916304, 3943916305, 3943916306, 3943916314, 3943916309, 3943916310, 3943916313, 3943916315, 3943916311, 3943916308, 3943916307, 3943916302, 3943916300, 3943916301, 3943916299, 3943916304], "tags": {"addr:city": "Culver City", "addr:housenumber": "10400", "addr:postcode": "90232", "addr:state": "CA", "addr:street": "Culver Boulevard", "amenity": "bar", "building": "yes", "building:units": "1", "ele": "28.3", "height": "5.1", "lacounty:ain": "4209015001", "lacounty:bld_id": "440409828544", "name": "Backstage Bar & Grill", "start_date": "1939"}}, {"type": "way", "id": 391212044, "nodes": [4285026445, 3944126677, 3944126678, 3944126666, 4285026436, 4285026433, 3944126659, 4285026432, 3944126658, 4285026437, 4285026445], "tags": {"addr:city": "West Hollywood", "addr:housenumber": "8901", "addr:postcode": "90069", "addr:state": "CA", "addr:street": "North Clark Street", "alt_name": "The Whisky", "amenity": "nightclub", "building": "yes", "building:units": "1", "ele": "121.8", "email": "mproductionsrocks@gmail.com", "height": "9.8", "lacounty:ain": "5560024001", "lacounty:bld_id": "444890855670", "name": "Whisky a Go Go", "phone": "+1-310-652-4202", "start_date": "1930", "website": "http://www.whiskyagogo.com/site/", "wikidata": "Q1277567", "wikipedia": "en:Whisky a Go Go"}}, {"type": "way", "id": 407325273, "nodes": [4093649346, 4093649309, 4093649308, 4093649412, 4093649415, 4093649443, 4093649444, 4093649410, 4093649414, 4093649430, 4093649429, 4093649409, 4093649411, 4093649438, 4093649437, 4093649345, 4093649346], "tags": {"amenity": "bar", "building": "retail", "ele": "46.3", "height": "2.4", "lacounty:ain": "6015034031", "lacounty:bld_id": "469587813385", "name": "El Tiburon", "smoking": "no", "start_date": "1963"}}, {"type": "way", "id": 407325411, "nodes": [4093649372, 4093649371, 4093649393, 4093649394, 4093649382, 4093649383, 4093649331, 4093649332, 4093648566, 4093648564, 4093649329, 4093649330, 4093649336, 4093649372], "tags": {"addr:city": "Los Angeles", "addr:housenumber": "1439", "addr:postcode": "90047", "addr:state": "CA", "addr:street": "West Florence Avenue", "amenity": "bar", "building": "yes", "building:units": "1", "ele": "44.6", "height": "1.6", "lacounty:ain": "6015033025", "lacounty:bld_id": "470219813336", "name": "El Nuevo Reno"}}, {"type": "way", "id": 412863499, "nodes": [4141921151, 4141921146, 4141921197, 4141921156, 4141921184, 4141921147, 4141921085, 4141921145, 4141921151], "tags": {"addr:city": "Santa Monica", "addr:housenumber": "2947", "addr:postcode": "90405", "addr:state": "CA", "addr:street": "Lincoln Boulevard", "amenity": "pub", "building": "commercial", "ele": "18.5", "height": "2.7", "lacounty:ain": "4285028029", "lacounty:bld_id": "418556824224", "name": "Cock n' Bull", "start_date": "1953"}}, {"type": "way", "id": 420148050, "nodes": [4201273336, 4201273340, 4201273312, 4201273320, 4201273311, 4201273314, 4201273309, 4201273308, 4201273336], "tags": {"amenity": "bar", "building": "retail", "ele": "104.4", "height": "4.9", "lacounty:ain": "5429001017", "lacounty:bld_id": "475691855671", "name": "Eagle LA", "opening_hours": "Mo-Fr 16:00-02:00, Sa-Su 14:00-02:00", "phone": "+1-323-669-9472", "start_date": "1947"}}, {"type": "way", "id": 423023766, "nodes": [4227417404, 4227417394, 4227417393, 4227417390, 4227417389, 4227417392, 4227417391, 4227417395, 4227452854, 4227417404], "tags": {"addr:city": "Los Angeles", "addr:housenumber": "1477", "addr:postcode": "90026", "addr:state": "CA", "addr:street": "Sunset Boulevard", "amenity": "bar", "building": "yes", "ele": "136.3", "height": "4.6", "lacounty:ain": "5406001015", "lacounty:bld_id": "484647850078", "name": "Little Joy", "start_date": "1921", "website": "http://www.littlejoycocktails.com/"}}, {"type": "way", "id": 423253888, "nodes": [4229356743, 4229356592, 4229356593, 4229356481, 4229356480, 4229356478, 4229356479, 4229356482, 4229356475, 4229356741, 4229356742, 4229356743], "tags": {"addr:city": "Los Angeles", "addr:housenumber": "1650", "addr:postcode": "90028", "addr:state": "CA", "addr:street": "Schrader Boulevard", "amenity": "nightclub", "building": "yes", "building:units": "13", "ele": "124.6", "height": "7.4", "lacounty:ain": "5547016005", "lacounty:bld_id": "461072859428", "name": "Eden", "opening_hours": "We, Fr, Sa 22:00-2:00", "start_date": "1915", "website": "http://www.sbe.com/eden"}}, {"type": "way", "id": 423653189, "nodes": [4232090666, 4232090689, 4232090685, 4232090743, 4232090744, 4232090726, 4232090727, 4232090684, 4232090683, 4232090665, 4232090666], "tags": {"amenity": "bar", "building": "yes", "ele": "80.6", "height": "10.0", "lacounty:ain": "5513002009", "lacounty:bld_id": "457427849792", "name": "Room 5 Lounge", "start_date": "1928"}}, {"type": "way", "id": 425731417, "nodes": [4250328012, 4250327775, 4250327774, 4250327784, 4250327783, 4250328030, 4250328031, 4250328012], "tags": {"addr:city": "West Hollywood", "addr:housename": "Fubar", "addr:housenumber": "7994", "addr:postcode": "90046", "addr:street": "Santa Monica Boulevard", "amenity": "bar", "building": "retail", "building:units": "1", "ele": "91.3", "height": "4.6", "lacounty:ain": "5529015026", "lacounty:bld_id": "451280855556", "name": "Fubar", "start_date": "1955"}}, {"type": "way", "id": 426230696, "nodes": [4255376946, 4255376943, 4255376944, 4255376942, 4255376931, 4255376935, 4255376936, 4255376939, 4255376938, 4255376940, 4255376946], "tags": {"amenity": "bar", "building": "yes", "building:units": "1", "ele": "98.8", "height": "7.4", "lacounty:ain": "5155023009", "lacounty:bld_id": "477602847843", "name": "Crawfords", "outdoor_seating": "no", "start_date": "2016"}}, {"type": "way", "id": 426256015, "nodes": [4255618466, 4255618467, 4255618475, 4255618806, 4255618666, 4255618649, 4255618727, 4255618728, 4255618711, 4255618694, 4255618621, 4255618555, 4255618563, 4255618561, 4255618466], "tags": {"amenity": "bar", "building": "yes", "building:units": "2", "ele": "122.4", "height": "4.8", "lacounty:ain": "5431036002", "lacounty:bld_id": "480414855237", "name": "The Satellite", "start_date": "1921"}}, {"type": "way", "id": 427628772, "nodes": [4268298966, 4268298969, 4268298909, 4268298899, 4268298898, 4268298830, 4268298829, 4268298834, 4268298835, 4268298828, 4268298831, 4268298788, 4268298786, 4268298784, 4268298966], "tags": {"addr:city": "Los Angeles", "addr:housename": "216 S Alameda St", "addr:housenumber": "216", "addr:postcode": "90013", "addr:street": "South Alameda Street", "amenity": "bar", "building": "yes", "ele": "98.8", "height": "18.9", "internet_access": "wlan", "internet_access:fee": "no", "lacounty:ain": "5163009005", "lacounty:bld_id": "489611839292", "name": "Angel City Brewery", "note": "Craft beers on tap, also features local artists gallery", "phone": "(213) 622-1261", "start_date": "1924", "website": "www.angelcitybrewery.com"}}, {"type": "way", "id": 427628964, "nodes": [4268298101, 4268298098, 4268298093, 4268298106, 4268298101], "tags": {"addr:city": "Los Angeles", "addr:housenumber": "428", "addr:postcode": "90013", "addr:state": "CA", "addr:street": "South Hewitt Street", "amenity": "bar", "building": "yes", "ele": "86.5", "height": "7.4", "lacounty:ain": "5163021030", "lacounty:bld_id": "490494838013", "level": "3", "name": "Resident", "start_date": "1904"}}, {"type": "way", "id": 427942887, "nodes": [4271072043, 4271072042, 4271072040, 4271072029, 4271072027, 4271072025, 4271072022, 4271072020, 4271072019, 4271072024, 4271072021, 4271072038, 4271072039, 4271072041, 4271072036, 4271072054, 4271072056, 4271072043], "tags": {"amenity": "pub", "building": "retail", "ele": "92.9", "height": "5.6", "lacounty:ain": "5149015009", "lacounty:bld_id": "486044840929", "name": "La Cita", "start_date": "1897", "wheelchair": "limited"}}, {"type": "way", "id": 428494194, "nodes": [4275861949, 4275861940, 4275861669, 4275861684, 4275861676, 4275861686, 4275861949], "tags": {"addr:city": "Los Angeles", "addr:housenumber": "1720", "addr:postcode": "90021", "addr:state": "California", "addr:street": "East 16th Street", "amenity": "nightclub", "building": "yes", "description": "Warehouse venue", "ele": "76.3", "height": "6.5", "lacounty:ain": "5167002033", "lacounty:bld_id": "488456830839", "name": "1720", "start_date": "1921", "website": "https://www.1720.la/"}}, {"type": "way", "id": 428778744, "nodes": [4278714105, 4278714046, 4278714026, 4278713964, 4278713951, 4278713941, 4278713923, 4278713931, 4278713917, 4278713908, 4278713898, 4278713905, 4278713895, 4278713889, 4278713876, 4278713882, 4278713872, 4278713870, 4278713860, 4278713864, 4278713858, 4278714025, 4278714108, 4278714082, 4278714105], "tags": {"addr:city": "Los Angeles", "addr:housenumber": "2478", "addr:postcode": "90039", "addr:state": "CA", "addr:street": "Fletcher Drive", "amenity": "bar", "building": "yes", "description": "Bar, cafe, and events venue.", "ele": "122.5", "email": "info@zebulon.la", "height": "6.9", "lacounty:ain": "5437033011", "lacounty:bld_id": "2014092865550000", "name": "Zebulon L.A.", "opening_hours": "Mo-Su: 17:00-01:00 || Tu-Su: 18:00-22:00 open \"Dinner\" || Mo-Su: 20:00-01:00 open \"Events\"", "operator": "Zebulon", "start_date": "1935", "website": "http://zebulon.la/"}}, {"type": "way", "id": 428853995, "nodes": [4279715484, 4279714903, 4279714895, 4279714889, 4279714915, 4279714911, 4279714943, 5171200510, 4279715224, 4279715226, 4279715341, 5171200507, 4279715361, 4279715467, 4279715469, 4279715484], "tags": {"addr:city": "Hollywood", "addr:housenumber": "8171", "addr:postcode": "90046", "addr:state": "CA", "addr:street": "West Sunset Boulevard", "amenity": "bar", "building": "yes", "building:units": "1", "ele": "132.7", "email": "cwalsh@chateaumarmont.com", "height": "7.1", "lacounty:ain": "5555030011;5555030007", "lacounty:bld_id": "450469858316;450429858335", "name": "Bar Marmont", "phone": "+1-323-650-057", "source": "mapillary", "website": "http://www.chateaumarmont.com/barmarmont.php"}}, {"type": "way", "id": 429186408, "nodes": [4283127018, 4283127008, 4283127017, 4283127036, 4283127029, 4283127018], "tags": {"addr:city": "Los Angeles", "addr:housenumber": "5631'", "addr:postcode": "90042", "addr:state": "CA", "addr:street": "N Figueroa Street", "amenity": "bar", "building": "yes", "ele": "168.5", "height": "2.8", "lacounty:ain": "5468033021", "lacounty:bld_id": "503136862378", "name": "Good Housekeeping HLP", "opening_hours": "Su-Th 07:00-24:00; Fr,Sa 07:00-02:00", "start_date": "1928", "website": "http://www.goodhousekeepinghlp.com/"}}, {"type": "way", "id": 430100995, "nodes": [4293636666, 4293636665, 4293636525, 4293636526, 4293636666], "tags": {"addr:city": "North Hollywood", "addr:housenumber": "10522", "addr:postcode": "91601", "addr:state": "CA", "addr:street": "Burbank Boulevard", "amenity": "bar", "building": "yes", "ele": "191.6", "gay": "yes", "height": "3.0", "lacounty:ain": "2417008002", "lacounty:bld_id": "452709885156", "lgbtq": "primary", "name": "The Bullet Bar", "smoking": "separated", "start_date": "1947"}}, {"type": "way", "id": 431111191, "nodes": [4303582051, 4303582050, 4303582281, 4303582285, 4303582287, 4303582284, 4303582051], "tags": {"amenity": "nightclub", "building": "yes", "building:units": "1", "ele": "249.1", "height": "4.9", "lacounty:ain": "2111022021;2111022022", "lacounty:bld_id": "378576896478;378547896448"}}, {"type": "way", "id": 431160474, "nodes": [4304090518, 4304090538, 4304090552, 4304088112, 4304088134, 4304088143, 4304088139, 4304088177, 4304090809, 4304090823, 4304090811, 4304090857, 4304088153, 4304088116, 4304088127, 4304088122, 4304088118, 4304090494, 4304090493, 4304090474, 4304090496, 4304090472, 4304090486, 4304090462, 4304090499, 4304090477, 4304090518]}, {"type": "way", "id": 431160476, "nodes": [4304090789, 4304088170, 4304088159, 4304088164, 4304090789]}, {"type": "way", "id": 431160553, "nodes": [4304088279, 4304088277, 4304088282, 4304088289, 4304088292, 4304088351, 4304088346, 4304088322, 4304088333, 4304088326, 4304088332, 4304088319, 4304088318, 4304088312, 4304088314, 4304088309, 4304088300, 4304088311, 4304088298, 4304088283, 4304088287, 4304088290, 4304088295, 4304088293, 4304088271, 4304088273, 4304088268, 4304088246, 4304088194, 4304088193, 4304088279], "tags": {"amenity": "public_building", "building": "yes", "ele": "337.4", "height": "12.7", "lacounty:ain": "2519026903", "lacounty:bld_id": "430621925007", "name": "San Fernando Regional Pool"}}, {"type": "way", "id": 438851035, "nodes": [4365022649, 4365022648, 4365022526, 4365022531, 4365022541, 4365022547, 4365022650, 4365022647, 4365022681, 4365022673, 4365022649], "tags": {"amenity": "pub", "building": "yes", "building:units": "2", "ele": "20.0", "height": "4.4", "lacounty:ain": "4053022001", "lacounty:bld_id": "462518789625", "name": "King Henry", "start_date": "1940"}}, {"type": "way", "id": 440269339, "nodes": [4379972985, 4379972982, 4379972983, 4379972988, 4379973190, 4379972985], "tags": {"addr:city": "West Hollywood", "addr:housenumber": "8811", "addr:postcode": "90069", "addr:state": "CA", "addr:street": "Santa Monica Boulevard", "amenity": "nightclub", "building": "commercial", "ele": "74.8", "gay": "yes", "height": "8.8", "lacounty:ain": "4339012020", "lacounty:bld_id": "445588853795", "lgbtq": "primary", "name": "Flaming Saddles", "opening_hours": "Mo-Fr 15:00-02:00; Sa,Su 12:00-02:00", "phone": "+1-310-855-7501", "start_date": "1922", "website": "http://flamingsaddles.com/weho/"}}, {"type": "way", "id": 440269341, "nodes": [4379972986, 4379972984, 4379972985, 4379973190, 4379973193, 4379972987, 4379972986], "tags": {"addr:city": "West Hollywood", "addr:housenumber": "8809", "addr:postcode": "90069", "addr:state": "CA", "addr:street": "Santa Monica Boulevard", "amenity": "bar", "building": "commercial", "ele": "71.5", "email": "trunksbar@yahoo.com", "gay": "yes", "height": "5.3", "lacounty:ain": "4339012021", "lacounty:bld_id": "445598853835", "lgbtq": "primary", "name": "Trunks Bar", "opening_hours": "Mo-Sa 13:00-02:00, Su 12:00-02:00", "phone": "+1-310-652-1015", "source": "mapillary", "start_date": "1923", "website": "http://west.hollywood.trunksbar.com"}}, {"type": "way", "id": 440839449, "nodes": [4386075194, 4386075189, 4386075198, 4386075177, 4386075182, 4386075111, 4386075091, 4386074974, 4386074966, 4386074978, 4386074962, 4386074941, 4386074921, 4386074880, 4386074891, 4386074899, 4386074833, 4386074817, 4386074750, 4386074768, 4386074682, 4386074647, 4386074644, 4386074564, 4386074574, 4386074566, 4386074789, 4386074782, 4386074811, 4386074845, 4386074886, 4386074878, 4386074874, 4386074869, 4386074917, 4386074979, 4386075102, 4386075106, 4386075194], "tags": {"alt_name": "HSS", "amenity": "public_building", "building": "yes", "ele": "63.9", "height": "18.9", "lacounty:ain": "4273001907", "lacounty:bld_id": "418764829005", "name": "Humanities & Social Science"}}, {"type": "way", "id": 441320101, "nodes": [4390835475, 4390835470, 5937855665, 5937855666, 4390835696, 5937855667, 4390835695, 4390835475], "tags": {"addr:city": "Long Beach", "addr:housenumber": "2020", "addr:postcode": "90805", "addr:state": "CA", "addr:street": "East Artesia Boulevard", "amenity": "bar", "building": "yes", "ele": "21.9", "gay": "yes", "height": "4.3", "lacounty:ain": "7119001012", "lacounty:bld_id": "510662776681", "lgbtq": "primary", "name": "Eagle 562", "start_date": "1965", "website": "http://eagle562.com/"}}, {"type": "way", "id": 441496801, "nodes": [4392414064, 4392414065, 4392414198, 4392414197, 4392414064], "tags": {"amenity": "bar", "building": "yes", "ele": "16.4", "height": "5.4", "lacounty:ain": "7281019020", "lacounty:bld_id": "504802738116", "name": "House of Hayden"}}, {"type": "way", "id": 442285581, "nodes": [4399776804, 4412197369, 4399776839, 4399777049, 4399777080, 4399777017, 4399776804], "tags": {"amenity": "bar", "building": "yes", "ele": "37.9", "height": "4.2", "lacounty:ain": "4157003027", "lacounty:bld_id": "449261776244", "name": "Bogey's Bar", "start_date": "1963"}}, {"type": "way", "id": 442445346, "nodes": [4401278959, 4401278828, 4401278972, 4401279180, 4401278959], "tags": {"amenity": "bar", "building": "yes", "cuisine": "burger", "ele": "22.4", "height": "4.7", "lacounty:ain": "7503006009", "lacounty:bld_id": "443632768117", "name": "Hudson House", "start_date": "2013"}}, {"type": "way", "id": 443287620, "nodes": [4409000975, 279045688, 4409000930, 4409000985, 4409000975], "tags": {"amenity": "bar", "indoor": "room", "level": "0", "name": "Traxx", "room": "restaurant"}}, {"type": "way", "id": 471958103, "nodes": [4661065326, 4661067401, 4661066855, 4661065775, 4661064836, 4661064525, 4661067085, 4661066202, 4661065365, 4661066927, 4661066272, 4661065003, 4661064359, 4661067158, 4661066613, 4661065533, 4661064594, 4661064866, 4661064556, 4661065326], "tags": {"addr:housenumber": "145", "amenity": "pub", "building": "commercial", "ele": "193.8", "height": "10.4", "lacounty:ain": "2453012026", "lacounty:bld_id": "468532888070", "name": "Gordon Biersch", "start_date": "1999"}}, {"type": "way", "id": 473736371, "nodes": [4677920195, 4658914987, 4658915290, 4658915723, 4658915727, 4658916088, 4658916111, 4658915300, 4658915295, 4677920195], "tags": {"amenity": "public_building", "building": "yes", "ele": "415.5", "height": "12.4", "lacounty:ain": "5830013908", "lacounty:bld_id": "513910896235", "name": "Loma Alta Gymnasium"}}, {"type": "way", "id": 565950012, "nodes": [5449236400, 5449236399, 5449236398, 5449236397, 5449236400], "tags": {"amenity": "public_bath", "bath:type": "hot_tub"}}, {"type": "relation", "id": 6413833, "members": [{"type": "way", "ref": 431160474, "role": "outer"}, {"type": "way", "ref": 431160476, "role": "inner"}], "tags": {"amenity": "public_building", "building": "yes", "ele": "356.6", "height": "26.0", "lacounty:ain": "2519004911", "lacounty:bld_id": "429570926190", "name": "Los Angeles County Superior Court - San Fernando Courthouse", "type": "multipolygon"}}]}