{"version": 0.6, "generator": "Overpass API 0.7.55.5 2ca3f387", "osm3s": {"timestamp_osm_base": "2019-01-18T16:18:02Z", "copyright": "The data included in this document is from www.openstreetmap.org. The data is made available under ODbL."}, "elements": [{"type": "node", "id": 262546426, "lat": 4.6469513, "lon": -74.0965493}, {"type": "node", "id": 262546427, "lat": 4.6459716, "lon": -74.0959073}, {"type": "node", "id": 262546428, "lat": 4.6467917, "lon": -74.0949917}, {"type": "node", "id": 262546442, "lat": 4.64626, "lon": -74.0958369}, {"type": "node", "id": 262546443, "lat": 4.6470708, "lon": -74.0963657}, {"type": "node", "id": 262568106, "lat": 4.5938543, "lon": -74.077617}, {"type": "node", "id": 262568109, "lat": 4.5937275, "lon": -74.0773766}, {"type": "node", "id": 262568111, "lat": 4.5940266, "lon": -74.0772178}, {"type": "node", "id": 262568114, "lat": 4.5941534, "lon": -74.0774582}, {"type": "node", "id": 262568117, "lat": 4.5938028, "lon": -74.0772109}, {"type": "node", "id": 262568120, "lat": 4.5935926, "lon": -74.0768244}, {"type": "node", "id": 262568122, "lat": 4.5940038, "lon": -74.0765993}, {"type": "node", "id": 262568124, "lat": 4.594214, "lon": -74.0769859}, {"type": "node", "id": 266894239, "lat": 4.6712967, "lon": -74.0889207}, {"type": "node", "id": 266894240, "lat": 4.6714863, "lon": -74.0887851}, {"type": "node", "id": 266894241, "lat": 4.6716672, "lon": -74.0890396}, {"type": "node", "id": 310657832, "lat": 4.5958658, "lon": -74.0743822}, {"type": "node", "id": 310657833, "lat": 4.5963095, "lon": -74.0751262}, {"type": "node", "id": 310657834, "lat": 4.5966117, "lon": -74.0749448}, {"type": "node", "id": 310657835, "lat": 4.5961679, "lon": -74.0742008}, {"type": "node", "id": 315818984, "lat": 4.7427757, "lon": -74.1251681}, {"type": "node", "id": 343961110, "lat": 4.7431052, "lon": -74.1237217}, {"type": "node", "id": 354742639, "lat": 4.6693598, "lon": -74.0538081}, {"type": "node", "id": 361325413, "lat": 4.7127148, "lon": -74.071167, "tags": {"amenity": "bar", "level": "1", "name": "Hollywood"}}, {"type": "node", "id": 373288855, "lat": 4.667752, "lon": -74.053575, "tags": {"addr:housenumber": "83-48", "addr:street": "Carrera 12A", "amenity": "pub", "name": "The Pub"}}, {"type": "node", "id": 441028042, "lat": 4.6806323, "lon": -74.0476341, "tags": {"amenity": "pub", "name": "Gaira", "wheelchair": "yes"}}, {"type": "node", "id": 443416943, "lat": 4.6781763, "lon": -74.0487136, "tags": {"addr:housenumber": "13-11", "addr:street": "Calle 94", "amenity": "pub", "name": "Maxi Donas", "opening_hours": "Mo-Sa 10:00-20:00; Su 12:00-19:00", "wheelchair": "limited"}}, {"type": "node", "id": 463244865, "lat": 4.6501538, "lon": -74.1018957}, {"type": "node", "id": 463244866, "lat": 4.6496803, "lon": -74.1017033}, {"type": "node", "id": 463244869, "lat": 4.6495515, "lon": -74.102}, {"type": "node", "id": 469490849, "lat": 4.6666092, "lon": -74.0552263, "tags": {"amenity": "pub", "name": "Rock Garden Pub"}}, {"type": "node", "id": 473858659, "lat": 4.6892913, "lon": -74.069395, "tags": {"amenity": "bar", "name": "Aguapanelas"}}, {"type": "node", "id": 473859177, "lat": 4.6714775, "lon": -74.0891752}, {"type": "node", "id": 494763341, "lat": 4.7403869, "lon": -74.0430462, "tags": {"amenity": "pub", "name": "Eva, Tati"}}, {"type": "node", "id": 501788722, "lat": 4.6677703, "lon": -74.0543179, "tags": {"addr:city": "Bogot\u00e1 D.C.", "addr:housenumber": "12-36", "addr:street": "Calle 83", "amenity": "pub", "name": "Casa de la Cerveza", "website": "http://www.casadelacerveza.com.co/", "wheelchair": "limited"}}, {"type": "node", "id": 534417884, "lat": 4.6608608, "lon": -74.1192751}, {"type": "node", "id": 534417885, "lat": 4.6606088, "lon": -74.1195007}, {"type": "node", "id": 534417887, "lat": 4.6607714, "lon": -74.1193655}, {"type": "node", "id": 534417900, "lat": 4.6604033, "lon": -74.1192698}, {"type": "node", "id": 534417982, "lat": 4.660748, "lon": -74.1191431}, {"type": "node", "id": 534417985, "lat": 4.6608475, "lon": -74.1190555}, {"type": "node", "id": 534418015, "lat": 4.6610408, "lon": -74.1186966}, {"type": "node", "id": 534418016, "lat": 4.6611296, "lon": -74.118807}, {"type": "node", "id": 535506250, "lat": 4.646082, "lon": -74.0957152}, {"type": "node", "id": 535506256, "lat": 4.6466025, "lon": -74.0952897}, {"type": "node", "id": 535506258, "lat": 4.6466437, "lon": -74.0948975}, {"type": "node", "id": 535576198, "lat": 4.6496009, "lon": -74.1059747}, {"type": "node", "id": 535576200, "lat": 4.6497757, "lon": -74.1056972}, {"type": "node", "id": 535576203, "lat": 4.6481838, "lon": -74.1046166}, {"type": "node", "id": 535576204, "lat": 4.6481346, "lon": -74.1047302}, {"type": "node", "id": 535576208, "lat": 4.6483052, "lon": -74.1048451}, {"type": "node", "id": 535576209, "lat": 4.6481754, "lon": -74.1050077}, {"type": "node", "id": 537257873, "lat": 4.7414984, "lon": -74.0237422}, {"type": "node", "id": 537257882, "lat": 4.7418311, "lon": -74.0257281}, {"type": "node", "id": 537257886, "lat": 4.7433552, "lon": -74.0254437}, {"type": "node", "id": 537257889, "lat": 4.743087, "lon": -74.0235117}, {"type": "node", "id": 537259209, "lat": 4.7415333, "lon": -74.0240543}, {"type": "node", "id": 537259214, "lat": 4.7416647, "lon": -74.0248088}, {"type": "node", "id": 568701007, "lat": 4.6496084, "lon": -74.1020246}, {"type": "node", "id": 595803379, "lat": 4.6766117, "lon": -74.0508866, "tags": {"amenity": "bar", "name": "La Vasca", "wheelchair": "limited"}}, {"type": "node", "id": 605732499, "lat": 4.6524726, "lon": -74.091475, "tags": {"amenity": "pub", "internet_access": "wlan", "internet_access:fee": "no", "name": "Taberna de Nes", "opening_hours": "Mo-Fr 08:30-20:00", "operator": "paconet", "smoking": "isolated", "wheelchair": "no"}}, {"type": "node", "id": 611388300, "lat": 4.7207089, "lon": -74.1216163, "tags": {"amenity": "pub", "name": "Bull Rock"}}, {"type": "node", "id": 614640143, "lat": 4.6681057, "lon": -74.0514821, "tags": {"addr:street": "Carrera 11", "amenity": "bar", "name": "Metrobar Caf\u00e9", "source": "Kaart Ground Survey 2017"}}, {"type": "node", "id": 616522535, "lat": 4.7092397, "lon": -74.1395594, "tags": {"amenity": "public_building", "name": "RapiCADE"}}, {"type": "node", "id": 629563236, "lat": 4.6101363, "lon": -74.0957281, "tags": {"amenity": "pub", "name": "Bodegas del Rhin"}}, {"type": "node", "id": 634717065, "lat": 4.597575, "lon": -74.0709394, "tags": {"amenity": "public_building", "name": "Casa Matriz de Igualdad de Oprotunidades para la mujer", "ref": "Casa Matriz de Igualdad de Oprotunidades para la mujer"}}, {"type": "node", "id": 634723223, "lat": 4.6224519, "lon": -74.0813033}, {"type": "node", "id": 634723224, "lat": 4.6223411, "lon": -74.0811815}, {"type": "node", "id": 634723226, "lat": 4.6224516, "lon": -74.0810802}, {"type": "node", "id": 634723229, "lat": 4.6225624, "lon": -74.081202}, {"type": "node", "id": 650335365, "lat": 4.6744052, "lon": -74.0214195, "tags": {"amenity": "bar", "name": "La Carrerta"}}, {"type": "node", "id": 650335743, "lat": 4.6735711, "lon": -74.0195956, "tags": {"amenity": "bar", "name": "San Uriel"}}, {"type": "node", "id": 650336625, "lat": 4.6681176, "lon": -74.0128579, "tags": {"amenity": "bar", "name": "Compostela"}}, {"type": "node", "id": 676404985, "lat": 4.6181826, "lon": -74.0691435, "tags": {"amenity": "bar"}}, {"type": "node", "id": 678458450, "lat": 4.6410766, "lon": -74.0756507, "tags": {"amenity": "bar"}}, {"type": "node", "id": 834798249, "lat": 4.654145, "lon": -74.0538029, "tags": {"amenity": "pub", "name": "Bogota Beer Company \"BBC\" Rosales"}}, {"type": "node", "id": 834803644, "lat": 4.6413342, "lon": -74.0761716, "tags": {"amenity": "bar", "name": "Beerland"}}, {"type": "node", "id": 834803646, "lat": 4.641762, "lon": -74.0758712, "tags": {"amenity": "bar", "name": "Colombian Pub"}}, {"type": "node", "id": 834803647, "lat": 4.6415802, "lon": -74.0759087, "tags": {"amenity": "bar", "name": "Villanueva"}}, {"type": "node", "id": 834803649, "lat": 4.6418903, "lon": -74.0760536, "tags": {"amenity": "bar", "name": "Margaritas"}}, {"type": "node", "id": 834803650, "lat": 4.6417727, "lon": -74.076075, "tags": {"amenity": "bar", "name": "Kabala"}}, {"type": "node", "id": 834803651, "lat": 4.6416283, "lon": -74.0761072, "tags": {"amenity": "bar", "name": "PLAZA JUAREZ"}}, {"type": "node", "id": 834803652, "lat": 4.6414786, "lon": -74.0761394, "tags": {"amenity": "bar", "name": "Kandelaria"}}, {"type": "node", "id": 849018758, "lat": 4.6673715, "lon": -74.0541299, "tags": {"amenity": "pub", "name": "London Calling"}}, {"type": "node", "id": 849018759, "lat": 4.6676688, "lon": -74.0532041, "tags": {"amenity": "pub", "name": "Palos de Moguer", "wheelchair": "no"}}, {"type": "node", "id": 849023910, "lat": 4.6677088, "lon": -74.0540238, "tags": {"amenity": "pub", "name": "Beer Lounge"}}, {"type": "node", "id": 850369528, "lat": 4.694772, "lon": -74.0316853, "tags": {"amenity": "pub", "name": "The Pub", "wheelchair": "yes"}}, {"type": "node", "id": 852463405, "lat": 4.6674249, "lon": -74.0542479, "tags": {"amenity": "pub", "name": "Beer Lounge"}}, {"type": "node", "id": 856930941, "lat": 4.6758451, "lon": -74.0476923, "tags": {"addr:city": "Bogot\u00e1", "addr:housenumber": "#93 - 94", "addr:street": "Carrera 11A", "amenity": "pub", "name": "BBC Parque 93", "wheelchair": "no"}}, {"type": "node", "id": 856930952, "lat": 4.6770213, "lon": -74.0476977, "tags": {"amenity": "bar", "name": "Bardot"}}, {"type": "node", "id": 856937258, "lat": 4.6762277, "lon": -74.0475145, "tags": {"addr:housenumber": "93-26", "addr:street": "Carrera 11A", "amenity": "pub", "name": "The Beer Lounge"}}, {"type": "node", "id": 881690314, "lat": 4.7105643, "lon": -74.0294326}, {"type": "node", "id": 881690317, "lat": 4.710713, "lon": -74.0301701}, {"type": "node", "id": 881690318, "lat": 4.7110424, "lon": -74.0301725}, {"type": "node", "id": 881690319, "lat": 4.7109131, "lon": -74.0295021}, {"type": "node", "id": 921288416, "lat": 4.6960653, "lon": -74.0304583, "tags": {"amenity": "pub", "name": "Rock Garden Pub Usaquen", "wheelchair": "no"}}, {"type": "node", "id": 926731066, "lat": 4.5570559, "lon": -74.1220515, "tags": {"amenity": "bar", "name": "Puerto Rico"}}, {"type": "node", "id": 926732546, "lat": 4.567847, "lon": -74.1264289, "tags": {"amenity": "bar", "name": "Grill El Escorial"}}, {"type": "node", "id": 926735996, "lat": 4.5599221, "lon": -74.1239076, "tags": {"amenity": "bar", "name": "El parador"}}, {"type": "node", "id": 926736555, "lat": 4.5675689, "lon": -74.1266113, "tags": {"amenity": "bar", "name": "Wiskeria Punto 50"}}, {"type": "node", "id": 926737131, "lat": 4.5638043, "lon": -74.1292077, "tags": {"amenity": "bar", "name": "Tienda BAR bailey"}}, {"type": "node", "id": 968119330, "lat": 4.6678237, "lon": -74.0555882, "tags": {"amenity": "bar", "name": "Salome Pagana", "wheelchair": "no"}}, {"type": "node", "id": 984930668, "lat": 4.6681739, "lon": -74.051885, "tags": {"addr:housenumber": "11-44", "addr:street": "Avenida Calle 85", "amenity": "bar", "name": "Hooters", "wheelchair": "limited"}}, {"type": "node", "id": 1002573551, "lat": 4.5883858, "lon": -74.0817037}, {"type": "node", "id": 1002573557, "lat": 4.58817, "lon": -74.0818459}, {"type": "node", "id": 1002573563, "lat": 4.5880658, "lon": -74.0816869}, {"type": "node", "id": 1002573564, "lat": 4.5882816, "lon": -74.0815446}, {"type": "node", "id": 1002577220, "lat": 4.5889485, "lon": -74.0817676}, {"type": "node", "id": 1002577221, "lat": 4.5886542, "lon": -74.0819382}, {"type": "node", "id": 1002577223, "lat": 4.5885716, "lon": -74.081795}, {"type": "node", "id": 1002577224, "lat": 4.5888659, "lon": -74.0816243}, {"type": "node", "id": 1106871112, "lat": 4.6394703, "lon": -74.062472, "tags": {"addr:housenumber": "6-04", "addr:street": "Calle 53", "amenity": "pub", "name": "Blossom Bar Rock", "phone": "+5712102629"}}, {"type": "node", "id": 1122748780, "lat": 4.8191459, "lon": -74.0319945, "tags": {"amenity": "bar", "name": "Rancho Garibaldi"}}, {"type": "node", "id": 1123493255, "lat": 4.7554184, "lon": -74.0493342, "tags": {"amenity": "bar", "name": "cafe bar"}}, {"type": "node", "id": 1123496162, "lat": 4.7559219, "lon": -74.0510303, "tags": {"amenity": "bar", "name": "restaurante-bar"}}, {"type": "node", "id": 1201592891, "lat": 4.6292647, "lon": -74.065842, "tags": {"amenity": "bar", "name": "Ciro"}}, {"type": "node", "id": 1201599174, "lat": 4.6318332, "lon": -74.0666092, "tags": {"amenity": "pub", "name": "Decanatura"}}, {"type": "node", "id": 1259982683, "lat": 4.6291827, "lon": -74.1335443, "tags": {"addr:street": "Carrera 71A", "amenity": "bar", "name": "La Estacion", "source": "Kaart Ground Survey 2017"}}, {"type": "node", "id": 1270363302, "lat": 4.603907, "lon": -74.1303793, "tags": {"amenity": "bar", "name": "Copacabana"}}, {"type": "node", "id": 1276004459, "lat": 4.7417518, "lon": -74.0237009}, {"type": "node", "id": 1317977122, "lat": 4.6703085, "lon": -74.1057002, "tags": {"amenity": "bar", "name": "Palco 53"}}, {"type": "node", "id": 1317977133, "lat": 4.662213, "lon": -74.0657581, "tags": {"amenity": "bar", "name": "Bruselas", "wheelchair": "no"}}, {"type": "node", "id": 1402501532, "lat": 4.5969479, "lon": -74.070436}, {"type": "node", "id": 1402501536, "lat": 4.5965682, "lon": -74.0706505}, {"type": "node", "id": 1402501537, "lat": 4.5964934, "lon": -74.0705272}, {"type": "node", "id": 1402501538, "lat": 4.5968623, "lon": -74.0703233}, {"type": "node", "id": 1408714441, "lat": 4.596151, "lon": -74.0709025}, {"type": "node", "id": 1408714446, "lat": 4.5961004, "lon": -74.070807}, {"type": "node", "id": 1408714448, "lat": 4.5964776, "lon": -74.0706995}, {"type": "node", "id": 1408714449, "lat": 4.5964286, "lon": -74.0706115}, {"type": "node", "id": 1423553995, "lat": 4.6415627, "lon": -74.0625683, "tags": {"amenity": "pub", "name": "Cinema Caf\u00e9"}}, {"type": "node", "id": 1459466481, "lat": 4.6691526, "lon": -74.0533321, "tags": {"addr:street": "Avenida Calle 85", "amenity": "pub", "cuisine": "italian", "name": "Tap House"}}, {"type": "node", "id": 1459466501, "lat": 4.6672461, "lon": -74.0547936, "tags": {"amenity": "pub", "name": "Colombian PUB"}}, {"type": "node", "id": 1459466512, "lat": 4.6685425, "lon": -74.0541948, "tags": {"amenity": "bar", "name": "La Gran Terraza"}}, {"type": "node", "id": 1460561296, "lat": 4.597666, "lon": -74.069584, "tags": {"amenity": "pub", "name": "Rock and cafe"}}, {"type": "node", "id": 1460619803, "lat": 4.597866, "lon": -74.069512, "tags": {"addr:housenumber": "12B-82", "addr:street": "Cra. 2", "amenity": "pub", "name": "Bar", "name:nl": "Fedora"}}, {"type": "node", "id": 1484781209, "lat": 4.6753951, "lon": -74.047949, "tags": {"addr:street": "Carrera 11A", "amenity": "bar", "name": "Galer\u00eda, Caf\u00e9 y Libro", "wheelchair": "no"}}, {"type": "node", "id": 1566491177, "lat": 4.603173, "lon": -74.068872, "tags": {"amenity": "pub", "name": "Sophia"}}, {"type": "node", "id": 1568205867, "lat": 4.6130979, "lon": -74.1344873, "tags": {"amenity": "bar", "name": "Castel Blue"}}, {"type": "node", "id": 1568205874, "lat": 4.6138966, "lon": -74.1350773, "tags": {"amenity": "bar", "name": "La Bomba"}}, {"type": "node", "id": 1604232973, "lat": 4.6081067, "lon": -74.0726268}, {"type": "node", "id": 1604232977, "lat": 4.6079499, "lon": -74.0730416}, {"type": "node", "id": 1604232980, "lat": 4.6078024, "lon": -74.0728237}, {"type": "node", "id": 1604232982, "lat": 4.6082672, "lon": -74.0728418}, {"type": "node", "id": 1661156173, "lat": 4.7039244, "lon": -74.0433935, "tags": {"amenity": "pub", "name": "Beer"}}, {"type": "node", "id": 1661484725, "lat": 4.6796008, "lon": -74.0475906, "tags": {"amenity": "bar", "name": "Full 80\u00b4S"}}, {"type": "node", "id": 1667886209, "lat": 4.6595424, "lon": -74.1081446, "tags": {"amenity": "pub", "name": "Britannia", "wifi": "free"}}, {"type": "node", "id": 1688041128, "lat": 4.5915791, "lon": -74.0772205}, {"type": "node", "id": 1688041129, "lat": 4.5910196, "lon": -74.0774435}, {"type": "node", "id": 1688041130, "lat": 4.591557, "lon": -74.0770547}, {"type": "node", "id": 1688041131, "lat": 4.5908137, "lon": -74.0775536}, {"type": "node", "id": 1688041132, "lat": 4.5915783, "lon": -74.0773684}, {"type": "node", "id": 1688041133, "lat": 4.5916425, "lon": -74.0771373}, {"type": "node", "id": 1688041134, "lat": 4.5915062, "lon": -74.0770814}, {"type": "node", "id": 1688041135, "lat": 4.591432, "lon": -74.0769596}, {"type": "node", "id": 1688041136, "lat": 4.5913805, "lon": -74.0767622}, {"type": "node", "id": 1688041137, "lat": 4.591485, "lon": -74.0768235}, {"type": "node", "id": 1688041138, "lat": 4.5914955, "lon": -74.0769286}, {"type": "node", "id": 1688041139, "lat": 4.5915436, "lon": -74.077296}, {"type": "node", "id": 1688041140, "lat": 4.5910704, "lon": -74.0775454}, {"type": "node", "id": 1688041142, "lat": 4.5916398, "lon": -74.0773363}, {"type": "node", "id": 1688041143, "lat": 4.5917806, "lon": -74.0771087}, {"type": "node", "id": 1688041145, "lat": 4.5905965, "lon": -74.0771435}, {"type": "node", "id": 1688041150, "lat": 4.5914399, "lon": -74.0768799}, {"type": "node", "id": 1688041151, "lat": 4.5916135, "lon": -74.0767579}, {"type": "node", "id": 1688041153, "lat": 4.5915559, "lon": -74.0771802}, {"type": "node", "id": 1688041154, "lat": 4.5914019, "lon": -74.076899}, {"type": "node", "id": 1709216993, "lat": 4.7217539, "lon": -74.0418753, "tags": {"addr:street": "Calle 140", "amenity": "pub", "name": "La Bodega - Bogot\u00e1 Beer Company", "source": "Kaart Ground Survey 2017"}}, {"type": "node", "id": 1735515383, "lat": 4.6341585, "lon": -74.0690413, "tags": {"amenity": "bar", "name": "Galer\u00eda Cafe y Libro"}}, {"type": "node", "id": 1767572455, "lat": 4.6707058, "lon": -74.0537574, "tags": {"amenity": "nightclub", "gay": "yes", "name": "Blues"}}, {"type": "node", "id": 1767572471, "lat": 4.6461314, "lon": -74.0629004, "tags": {"amenity": "bar", "fetish:bears": "yes", "gay": "yes", "name": "Colosos"}}, {"type": "node", "id": 1767572480, "lat": 4.6621616, "lon": -74.0593592, "tags": {"amenity": "bar", "gay": "yes", "gay:women": "yes", "name": "Martina"}}, {"type": "node", "id": 1767572495, "lat": 4.6450234, "lon": -74.0637378, "tags": {"amenity": "nightclub", "gay": "yes", "name": "Theatron"}}, {"type": "node", "id": 1858072985, "lat": 4.5937822, "lon": -74.0776511}, {"type": "node", "id": 1858072987, "lat": 4.5936539, "lon": -74.0773292}, {"type": "node", "id": 1858072988, "lat": 4.594226, "lon": -74.0770556}, {"type": "node", "id": 1858072990, "lat": 4.5943276, "lon": -74.0774365}, {"type": "node", "id": 1863139929, "lat": 4.7297207, "lon": -74.049471, "tags": {"addr:street": "Autopista Norte", "amenity": "pub", "name": "Mr Floyd", "source": "Kaart Ground Survey 2017"}}, {"type": "node", "id": 1863817109, "lat": 4.6218512, "lon": -74.1708293}, {"type": "node", "id": 1863817115, "lat": 4.6219548, "lon": -74.1708996}, {"type": "node", "id": 1863817123, "lat": 4.6218753, "lon": -74.1707934}, {"type": "node", "id": 1863817129, "lat": 4.6219006, "lon": -74.1706437}, {"type": "node", "id": 1863817135, "lat": 4.6218234, "lon": -74.1707582}, {"type": "node", "id": 1863817153, "lat": 4.6220561, "lon": -74.1707491}, {"type": "node", "id": 1863866250, "lat": 4.6262669, "lon": -74.1727156, "tags": {"amenity": "bar"}}, {"type": "node", "id": 1866341144, "lat": 4.5541049, "lon": -74.140029, "tags": {"amenity": "bar"}}, {"type": "node", "id": 1869543571, "lat": 4.6699194, "lon": -74.1085605, "tags": {"amenity": "bar", "name": "Sinaloa"}}, {"type": "node", "id": 1869543574, "lat": 4.6735101, "lon": -74.1042944, "tags": {"amenity": "bar", "name": "Tequila Bar"}}, {"type": "node", "id": 1870864801, "lat": 4.6892973, "lon": -74.1449707}, {"type": "node", "id": 1870864803, "lat": 4.6895132, "lon": -74.1450435}, {"type": "node", "id": 1870864806, "lat": 4.6895489, "lon": -74.144937}, {"type": "node", "id": 1870864821, "lat": 4.689333, "lon": -74.1448641}, {"type": "node", "id": 1882851152, "lat": 4.6287386, "lon": -74.0685144, "tags": {"addr:housenumber": "40-43", "addr:street": "Avenida Caracas", "amenity": "bar", "name": "AsiloBar"}}, {"type": "node", "id": 1882851216, "lat": 4.6311167, "lon": -74.0644377, "tags": {"amenity": "bar", "name": "Etniko"}}, {"type": "node", "id": 1882851232, "lat": 4.6286828, "lon": -74.0685756, "tags": {"amenity": "nightclub", "name": "LaFortaleza"}}, {"type": "node", "id": 1882875355, "lat": 4.611846, "lon": -74.0751537, "tags": {"addr:street": "Calle 23", "amenity": "nightclub", "name": "Dolls House", "source": "Kaart Ground Survey 2017"}}, {"type": "node", "id": 1882875358, "lat": 4.6117783, "lon": -74.0750662, "tags": {"addr:housenumber": "1-9", "addr:street": "Calle 23", "amenity": "nightclub", "name": "El Castillo", "source": "Kaart Ground Survey 2017"}}, {"type": "node", "id": 1885517164, "lat": 4.6275461, "lon": -74.0657739, "tags": {"addr:housenumber": "7-34", "addr:street": "Calle 40", "amenity": "bar", "building": "apartments", "name": "La Oficina"}}, {"type": "node", "id": 1927745848, "lat": 4.667761, "lon": -74.0532456, "tags": {"amenity": "bar", "name": "La Mezcaleria"}}, {"type": "node", "id": 1939156016, "lat": 4.6315507, "lon": -74.0815923, "tags": {"amenity": "pub", "name": "La Parva"}}, {"type": "node", "id": 1939179238, "lat": 4.6341787, "lon": -74.0791759, "tags": {"amenity": "bar", "name": "Academia de Billar"}}, {"type": "node", "id": 1948529297, "lat": 4.5200525, "lon": -74.1227416}, {"type": "node", "id": 1949614296, "lat": 4.5744346, "lon": -74.1865459}, {"type": "node", "id": 1949614298, "lat": 4.5745377, "lon": -74.1864863}, {"type": "node", "id": 1949614302, "lat": 4.5745028, "lon": -74.1866211}, {"type": "node", "id": 1949614306, "lat": 4.574591, "lon": -74.1865664}, {"type": "node", "id": 1984475926, "lat": 4.6750194, "lon": -74.0533866}, {"type": "node", "id": 1984475927, "lat": 4.6751293, "lon": -74.0536102}, {"type": "node", "id": 1984475928, "lat": 4.6747416, "lon": -74.053524}, {"type": "node", "id": 1984475929, "lat": 4.6748514, "lon": -74.0537476}, {"type": "node", "id": 1986139426, "lat": 4.7202395, "lon": -74.038302, "tags": {"addr:city": "Bogot\u00e1 D.C.", "addr:housenumber": "Calle 140 # 12-54", "addr:postcode": "110121", "addr:street": "Calle 140", "amenity": "pub", "microbrewery": "yes", "name": "BEER", "phone": "6333713", "source": "Kaart Ground Survey 2017", "website": "http://pub-beer.com/index/territoriobeer.html"}}, {"type": "node", "id": 2024974873, "lat": 4.6035181, "lon": -74.0657786, "tags": {"amenity": "nightclub", "cuisine": "steak_house", "name": "El Goce Pagano"}}, {"type": "node", "id": 2104386849, "lat": 4.5925176, "lon": -74.1407813}, {"type": "node", "id": 2104387219, "lat": 4.5925015, "lon": -74.1404361}, {"type": "node", "id": 2104387223, "lat": 4.5920136, "lon": -74.1405538}, {"type": "node", "id": 2104735600, "lat": 4.5928171, "lon": -74.1412325}, {"type": "node", "id": 2104735601, "lat": 4.5927232, "lon": -74.1407447}, {"type": "node", "id": 2104735602, "lat": 4.5926192, "lon": -74.141273}, {"type": "node", "id": 2104742035, "lat": 4.59207, "lon": -74.140821}, {"type": "node", "id": 2104742036, "lat": 4.5925502, "lon": -74.1407191}, {"type": "node", "id": 2139305358, "lat": 4.6886477, "lon": -74.0964317, "tags": {"amenity": "nightclub"}}, {"type": "node", "id": 2139305489, "lat": 4.6888776, "lon": -74.0967106, "tags": {"amenity": "nightclub"}}, {"type": "node", "id": 2139323898, "lat": 4.6885515, "lon": -74.0962922, "tags": {"amenity": "nightclub"}}, {"type": "node", "id": 2140783756, "lat": 4.7292537, "lon": -74.0684078, "tags": {"amenity": "pub", "designation": "Bar", "name": "Palos de Moguer"}}, {"type": "node", "id": 2148417296, "lat": 4.693877, "lon": -74.1037222, "tags": {"amenity": "nightclub", "name": "El Templo de la Salsa"}}, {"type": "node", "id": 2148427824, "lat": 4.6319959, "lon": -74.0665674, "tags": {"amenity": "nightclub", "name": "Sandunguera"}}, {"type": "node", "id": 2166442618, "lat": 4.7421693, "lon": -74.0844159, "tags": {"amenity": "bar", "name": "La Cava Salsa Bar"}}, {"type": "node", "id": 2229365201, "lat": 4.6962395, "lon": -74.0277262}, {"type": "node", "id": 2229365202, "lat": 4.6959935, "lon": -74.0276599}, {"type": "node", "id": 2229365204, "lat": 4.6962088, "lon": -74.027605}, {"type": "node", "id": 2229365209, "lat": 4.6960242, "lon": -74.0277811}, {"type": "node", "id": 2298481437, "lat": 4.5692509, "lon": -74.1579014}, {"type": "node", "id": 2298481438, "lat": 4.5691356, "lon": -74.1580674}, {"type": "node", "id": 2298481439, "lat": 4.5688717, "lon": -74.1578829}, {"type": "node", "id": 2298481440, "lat": 4.5686587, "lon": -74.1577306}, {"type": "node", "id": 2298481442, "lat": 4.5687778, "lon": -74.157563}, {"type": "node", "id": 2316604884, "lat": 4.6344137, "lon": -74.0772348, "tags": {"addr:street": "Calle 45", "amenity": "bar", "cuisine": "mexican", "internet_access": "no", "name": "La soga", "opening_hours": "Lu-Vie 15:00-00:00", "smoking": "no", "source": "Kaart Ground Survey 2017", "wheelchair": "no"}}, {"type": "node", "id": 2316638207, "lat": 4.6329651, "lon": -74.069252, "tags": {"amenity": "nightclub", "name": "Bar de la 45"}}, {"type": "node", "id": 2317747026, "lat": 4.6348528, "lon": -74.0618956}, {"type": "node", "id": 2317747028, "lat": 4.6348982, "lon": -74.0618661, "tags": {"amenity": "bank", "atm": "yes", "name": "Davivienda"}}, {"type": "node", "id": 2317747029, "lat": 4.6348875, "lon": -74.06196}, {"type": "node", "id": 2317747030, "lat": 4.6349356, "lon": -74.0619412}, {"type": "node", "id": 2334075643, "lat": 4.6943256, "lon": -74.027805}, {"type": "node", "id": 2334077676, "lat": 4.6948849, "lon": -74.0289367}, {"type": "node", "id": 2334077678, "lat": 4.695334, "lon": -74.0273863}, {"type": "node", "id": 2334077680, "lat": 4.6958897, "lon": -74.0285719}, {"type": "node", "id": 2376634955, "lat": 4.6544077, "lon": -74.0579013, "tags": {"addr:street": "Carrera 9", "amenity": "pub", "microbrewery": "yes", "name": "The Monkey House", "source": "Kaart Ground Survey 2017"}}, {"type": "node", "id": 2469532933, "lat": 4.7012068, "lon": -74.0492398, "tags": {"amenity": "pub", "microbrewery": "yes", "name": "Palos de Moguer"}}, {"type": "node", "id": 2469532981, "lat": 4.7013306, "lon": -74.0492014}, {"type": "node", "id": 2469532982, "lat": 4.7013413, "lon": -74.0492661}, {"type": "node", "id": 2469532983, "lat": 4.7014744, "lon": -74.0491776}, {"type": "node", "id": 2469532984, "lat": 4.701485, "lon": -74.0492423}, {"type": "node", "id": 2476857844, "lat": 4.607449, "lon": -74.0693673, "tags": {"amenity": "bar", "name": "AGg"}}, {"type": "node", "id": 2557152810, "lat": 4.6451353, "lon": -74.0626939, "tags": {"addr:city": "Bogot\u00e1 D.C.", "addr:housenumber": "59 - 06", "addr:street": "Carrera 9", "amenity": "bar", "name": "Indie Cave - Music Bar", "note": "Un espacio para compartir el gusto por las nuevas tendencias musicales y los sonidos independientes como indie rock, shoegazing, new wave, indie electro alternativo, garage, post punk, electro funk, lo-fi, dream pop, pop barroco, no wave, grunge, new prog", "payment:bitcoin": "yes", "source": "Kaart Ground Survey 2017", "website": "indiecave.co"}}, {"type": "node", "id": 2571849467, "lat": 4.6037589, "lon": -74.0682849}, {"type": "node", "id": 2615192672, "lat": 4.6751182, "lon": -74.0214781, "tags": {"addr:city": "Usaqu\u00e9n", "addr:postcode": "110111", "amenity": "bar", "name": "The Beer Wagon PUB"}}, {"type": "node", "id": 2692959012, "lat": 4.683268, "lon": -74.0571361, "tags": {"amenity": "public_building", "name": "Curaduria Urbana 1"}}, {"type": "node", "id": 2693033387, "lat": 4.5946742, "lon": -74.1376142, "tags": {"amenity": "bar", "name": "Whisker\u00eda Porky's"}}, {"type": "node", "id": 2693093844, "lat": 4.6424371, "lon": -74.0767668}, {"type": "node", "id": 2812123962, "lat": 4.6674923, "lon": -74.0533543, "tags": {"addr:city": "Bogot\u00e1 D.C.", "addr:housenumber": "83-33", "addr:street": "Carrera 12", "amenity": "pub", "name": "BBC", "website": "http://www.bogotabeercompany.com/"}}, {"type": "node", "id": 2858932467, "lat": 4.630917, "lon": -74.0865286, "tags": {"amenity": "bar", "name": "Caf\u00e9 Bar Ar\u00e1bigos", "smoking": "outside"}}, {"type": "node", "id": 2859245458, "lat": 4.634104, "lon": -74.079172, "tags": {"amenity": "bar", "name": "La chuperia"}}, {"type": "node", "id": 3001187480, "lat": 4.6376225, "lon": -74.0638386, "tags": {"amenity": "bar", "name": "Malabar"}}, {"type": "node", "id": 3001187481, "lat": 4.6375806, "lon": -74.0637149, "tags": {"amenity": "bar", "name": "Soko Bar"}}, {"type": "node", "id": 3046649149, "lat": 4.7404938, "lon": -74.0836348, "tags": {"amenity": "public_building", "name": "Notar\u00eda 57"}}, {"type": "node", "id": 3046649174, "lat": 4.7414624, "lon": -74.0839552}, {"type": "node", "id": 3046649175, "lat": 4.7415044, "lon": -74.0841104}, {"type": "node", "id": 3046649176, "lat": 4.7418412, "lon": -74.0837516}, {"type": "node", "id": 3046649177, "lat": 4.7419084, "lon": -74.0840006}, {"type": "node", "id": 3264377097, "lat": 4.6464438, "lon": -74.163812, "tags": {"amenity": "bar"}}, {"type": "node", "id": 3314766729, "lat": 4.5711696, "lon": -74.0952929, "tags": {"amenity": "bar", "name": "Los Cadenales"}}, {"type": "node", "id": 3314830782, "lat": 4.5841087, "lon": -74.1000492, "tags": {"amenity": "bar"}}, {"type": "node", "id": 3314830783, "lat": 4.5838413, "lon": -74.1003389, "tags": {"amenity": "bar"}}, {"type": "node", "id": 3314830784, "lat": 4.5835858, "lon": -74.1000553, "tags": {"amenity": "bar"}}, {"type": "node", "id": 3314830785, "lat": 4.5837269, "lon": -74.1004198, "tags": {"amenity": "bar"}}, {"type": "node", "id": 3314830786, "lat": 4.5838592, "lon": -74.1005455, "tags": {"amenity": "bar"}}, {"type": "node", "id": 3314830787, "lat": 4.583965, "lon": -74.1004517, "tags": {"amenity": "bar"}}, {"type": "node", "id": 3314830788, "lat": 4.5841079, "lon": -74.1005808, "tags": {"amenity": "bar"}}, {"type": "node", "id": 3314830789, "lat": 4.5842543, "lon": -74.1007366, "tags": {"amenity": "bar"}}, {"type": "node", "id": 3314830790, "lat": 4.5839456, "lon": -74.1006463, "tags": {"amenity": "bar"}}, {"type": "node", "id": 3314830791, "lat": 4.5840867, "lon": -74.100756, "tags": {"amenity": "bar"}}, {"type": "node", "id": 3314830792, "lat": 4.5845348, "lon": -74.1007189, "tags": {"amenity": "bar"}}, {"type": "node", "id": 3314830793, "lat": 4.5844043, "lon": -74.1006215, "tags": {"amenity": "bar"}}, {"type": "node", "id": 3314830794, "lat": 4.5845207, "lon": -74.10048, "tags": {"amenity": "bar"}}, {"type": "node", "id": 3314830795, "lat": 4.584653, "lon": -74.1005915, "tags": {"amenity": "bar"}}, {"type": "node", "id": 3314830797, "lat": 4.5847747, "lon": -74.1004517, "tags": {"amenity": "bar"}}, {"type": "node", "id": 3314830798, "lat": 4.5844272, "lon": -74.1008144, "tags": {"amenity": "bar"}}, {"type": "node", "id": 3314830799, "lat": 4.5847508, "lon": -74.1001191, "tags": {"addr:street": "Ciclovia Calle 17 Sur", "amenity": "bar", "name": "Broadway Karaoke", "source": "Kaart Ground Survey 2017"}}, {"type": "node", "id": 3314834680, "lat": 4.5840983, "lon": -74.09996, "tags": {"amenity": "bar"}}, {"type": "node", "id": 3314834681, "lat": 4.5840277, "lon": -74.0998968, "tags": {"amenity": "bar"}}, {"type": "node", "id": 3346935366, "lat": 4.5729618, "lon": -74.0914992, "tags": {"addr:street": "Carrera 6", "amenity": "bar", "name": "Martica Bar", "source": "Kaart Ground Survey 2017"}}, {"type": "node", "id": 3417624886, "lat": 4.6279607, "lon": -74.0687754, "tags": {"addr:street": "Avenida Carrera 14", "amenity": "bar", "name": "Curuba Caf\u00e9 Bar", "source": "Kaart Ground Survey 2017"}}, {"type": "node", "id": 3417860901, "lat": 4.6007322, "lon": -74.1534324}, {"type": "node", "id": 3417860902, "lat": 4.6007964, "lon": -74.1532486}, {"type": "node", "id": 3417860903, "lat": 4.6007269, "lon": -74.1532205}, {"type": "node", "id": 3417860904, "lat": 4.6006547, "lon": -74.1534109}, {"type": "node", "id": 3417860943, "lat": 4.6000384, "lon": -74.1550873, "tags": {"addr:housenumber": "63-44", "amenity": "bar", "name": "Le bar de la Biere"}}, {"type": "node", "id": 3418564494, "lat": 4.7451062, "lon": -74.1084465, "tags": {"amenity": "nightclub"}}, {"type": "node", "id": 3418564500, "lat": 4.7449059, "lon": -74.1087287, "tags": {"amenity": "nightclub"}}, {"type": "node", "id": 3418594424, "lat": 4.5831312, "lon": -74.1381384}, {"type": "node", "id": 3418594425, "lat": 4.5831867, "lon": -74.1380618}, {"type": "node", "id": 3418594426, "lat": 4.5831364, "lon": -74.138034}, {"type": "node", "id": 3418594427, "lat": 4.5830722, "lon": -74.138114}, {"type": "node", "id": 3418664267, "lat": 4.6326, "lon": -74.0640844, "tags": {"addr:housenumber": "7-13", "addr:street": "Calle 46", "amenity": "nightclub", "name": "SAVOY"}}, {"type": "node", "id": 3418789718, "lat": 4.6316017, "lon": -74.064475, "tags": {"addr:housenumber": "7-16", "addr:street": "Calle 45", "amenity": "bar", "name": "Canares Lounge"}}, {"type": "node", "id": 3418862159, "lat": 4.6316889, "lon": -74.0647189, "tags": {"addr:housenumber": "7-52", "addr:street": "Calle 45", "amenity": "pub", "name": "Cafe pub MORFEO"}}, {"type": "node", "id": 3418885723, "lat": 4.629717, "lon": -74.0684077, "tags": {"addr:city": "Bogot\u00e1 D.C.", "addr:housenumber": "Kra 14", "addr:street": "40A-83", "amenity": "bar", "name": "Kovalto Bar"}}, {"type": "node", "id": 3418907092, "lat": 4.599774, "lon": -74.1550274, "tags": {"addr:housenumber": "63-15", "amenity": "bar", "name": "Sanwich-Bar"}}, {"type": "node", "id": 3418914544, "lat": 4.6331308, "lon": -74.1302549}, {"type": "node", "id": 3418914545, "lat": 4.6332545, "lon": -74.130246}, {"type": "node", "id": 3418914561, "lat": 4.6331237, "lon": -74.1302074}, {"type": "node", "id": 3418914562, "lat": 4.6332522, "lon": -74.1302068}, {"type": "node", "id": 3418914589, "lat": 4.6328056, "lon": -74.1292032}, {"type": "node", "id": 3418914590, "lat": 4.6329257, "lon": -74.1291982}, {"type": "node", "id": 3418914591, "lat": 4.632928, "lon": -74.1292526}, {"type": "node", "id": 3418914592, "lat": 4.6328078, "lon": -74.1292575}, {"type": "node", "id": 3418924311, "lat": 4.5837224, "lon": -74.0985268, "tags": {"addr:housenumber": "Av Caracas", "addr:street": "14-07 sur", "amenity": "bar", "name": "Boos Bonny"}}, {"type": "node", "id": 3419005296, "lat": 4.6734168, "lon": -74.1480537, "tags": {"amenity": "bar"}}, {"type": "node", "id": 3419138385, "lat": 4.6101433, "lon": -74.1191758, "tags": {"amenity": "bar", "name": "Azul"}}, {"type": "node", "id": 3419163103, "lat": 4.6750419, "lon": -74.1479207, "tags": {"amenity": "bar"}}, {"type": "node", "id": 3419231596, "lat": 4.7503135, "lon": -74.0504594, "tags": {"amenity": "bar", "name": "Los Elegidos"}}, {"type": "node", "id": 3419809564, "lat": 4.6331051, "lon": -74.1795062, "tags": {"amenity": "bar"}}, {"type": "node", "id": 3420330179, "lat": 4.7500457, "lon": -74.0502702, "tags": {"amenity": "bar", "name": "El Bigotudo"}}, {"type": "node", "id": 3420355018, "lat": 4.7065592, "lon": -74.0971174, "tags": {"amenity": "bar"}}, {"type": "node", "id": 3420355029, "lat": 4.7061662, "lon": -74.0966091, "tags": {"amenity": "bar"}}, {"type": "node", "id": 3420374407, "lat": 4.7431696, "lon": -74.1244999}, {"type": "node", "id": 3420374408, "lat": 4.7433532, "lon": -74.124559}, {"type": "node", "id": 3420374409, "lat": 4.743121, "lon": -74.1246199}, {"type": "node", "id": 3420374410, "lat": 4.7433103, "lon": -74.1246724}, {"type": "node", "id": 3420374418, "lat": 4.7431352, "lon": -74.1238799}, {"type": "node", "id": 3420374419, "lat": 4.7431805, "lon": -74.1237511}, {"type": "node", "id": 3420374420, "lat": 4.7430528, "lon": -74.1238543}, {"type": "node", "id": 3420374441, "lat": 4.742724, "lon": -74.1249695}, {"type": "node", "id": 3420374442, "lat": 4.7428676, "lon": -74.1250172}, {"type": "node", "id": 3420374443, "lat": 4.7426586, "lon": -74.1251226}, {"type": "node", "id": 3420394771, "lat": 4.5577809, "lon": -74.0988844}, {"type": "node", "id": 3420394772, "lat": 4.5577813, "lon": -74.0988187}, {"type": "node", "id": 3420394773, "lat": 4.5576967, "lon": -74.0988667}, {"type": "node", "id": 3420394774, "lat": 4.5577194, "lon": -74.0989193}, {"type": "node", "id": 3420454500, "lat": 4.7556952, "lon": -74.1031653, "tags": {"amenity": "bar", "name": "Mi lindo Puerto Rico"}}, {"type": "node", "id": 3420532333, "lat": 4.7525875, "lon": -74.1083738, "tags": {"amenity": "bar", "name": "Santana"}}, {"type": "node", "id": 3420570904, "lat": 4.7570586, "lon": -74.0475515, "tags": {"amenity": "bar", "name": "Okey Paisa"}}, {"type": "node", "id": 3420847900, "lat": 4.707477, "lon": -74.1245463, "tags": {"amenity": "bar"}}, {"type": "node", "id": 3420858115, "lat": 4.674576, "lon": -74.1475328, "tags": {"amenity": "bar"}}, {"type": "node", "id": 3420859138, "lat": 4.5998501, "lon": -74.1329011, "tags": {"amenity": "bar"}}, {"type": "node", "id": 3420874167, "lat": 4.5200388, "lon": -74.1228473}, {"type": "node", "id": 3420874168, "lat": 4.5199658, "lon": -74.1228315}, {"type": "node", "id": 3420874169, "lat": 4.5199815, "lon": -74.1227159}, {"type": "node", "id": 3420878793, "lat": 4.5200156, "lon": -74.1227283, "tags": {"entrance": "yes"}}, {"type": "node", "id": 3420885909, "lat": 4.6733397, "lon": -74.1479692}, {"type": "node", "id": 3420885919, "lat": 4.6732383, "lon": -74.1481111}, {"type": "node", "id": 3420885922, "lat": 4.6735634, "lon": -74.1481344}, {"type": "node", "id": 3420885923, "lat": 4.6734473, "lon": -74.1482673}, {"type": "node", "id": 3420885927, "lat": 4.6735019, "lon": -74.1480809}, {"type": "node", "id": 3420885928, "lat": 4.6733872, "lon": -74.1482221}, {"type": "node", "id": 3420885929, "lat": 4.6734118, "lon": -74.1480138}, {"type": "node", "id": 3420885930, "lat": 4.6733053, "lon": -74.1481549}, {"type": "node", "id": 3420887228, "lat": 4.706671, "lon": -74.1004321, "tags": {"amenity": "bar", "name": "OPEN"}}, {"type": "node", "id": 3420887231, "lat": 4.707358, "lon": -74.1005447, "tags": {"amenity": "bar", "name": "Edi son"}}, {"type": "node", "id": 3420887234, "lat": 4.706615, "lon": -74.1008826}, {"type": "node", "id": 3420887235, "lat": 4.706698, "lon": -74.1008777}, {"type": "node", "id": 3420887236, "lat": 4.7067032, "lon": -74.100974}, {"type": "node", "id": 3420887237, "lat": 4.7066178, "lon": -74.1009765}, {"type": "node", "id": 3420887362, "lat": 4.7065788, "lon": -74.098973, "tags": {"amenity": "bar"}}, {"type": "node", "id": 3420911216, "lat": 4.6757262, "lon": -74.0970625, "tags": {"addr:housenumber": "45", "addr:street": "Calle 64H", "amenity": "bar"}}, {"type": "node", "id": 3420997293, "lat": 4.5800132, "lon": -74.2028095, "tags": {"amenity": "bar", "name": "TAURUS"}}, {"type": "node", "id": 3420997330, "lat": 4.5798244, "lon": -74.20294, "tags": {"addr:street": "Carrera 5E", "amenity": "bar", "name": "LA RANA TOLIMENSE"}}, {"type": "node", "id": 3421600439, "lat": 4.6340749, "lon": -74.0786823, "tags": {"addr:housenumber": "43-45", "addr:street": "Carrera 28", "amenity": "bar", "name": "Potrerito"}}, {"type": "node", "id": 3421817296, "lat": 4.6340364, "lon": -74.0785414, "tags": {"addr:housenumber": "43-52", "addr:street": "Carrera 28", "amenity": "bar", "operator": "Desnivel Sanwich", "source": "Kaart Ground Survey 2017"}}, {"type": "node", "id": 3462202789, "lat": 4.6332909, "lon": -74.0799404, "tags": {"amenity": "bar", "name": "Deep Blue", "smoking": "isolated"}}, {"type": "node", "id": 3462226593, "lat": 4.6316245, "lon": -74.0823919, "tags": {"addr:street": "Calle 29A", "amenity": "bar", "name": "La Turquesa", "smoking": "outside", "source": "Kaart Ground Survey 2017"}}, {"type": "node", "id": 3462245323, "lat": 4.6315062, "lon": -74.081923, "tags": {"amenity": "bar", "name": "Bavara Bar", "smoking": "outside"}}, {"type": "node", "id": 3462266108, "lat": 4.6345432, "lon": -74.0778688, "tags": {"addr:street": "Calle 45", "amenity": "bar", "name": "Punto Cinco", "smoking": "outside", "source": "Kaart Ground Survey 2017"}}, {"type": "node", "id": 3462279950, "lat": 4.6341774, "lon": -74.0782226, "tags": {"addr:city": "Bogot\u00e1 D.C.", "addr:housenumber": "Cll. 45", "addr:street": "Carrera 27A", "amenity": "bar", "name": "Academia de Billar La Nacional", "smoking": "outside", "sport": "billiards"}}, {"type": "node", "id": 3465601626, "lat": 4.637912, "lon": -74.1541982, "tags": {"amenity": "bar"}}, {"type": "node", "id": 3465602063, "lat": 4.6379066, "lon": -74.1543484, "tags": {"amenity": "bar"}}, {"type": "node", "id": 3504216121, "lat": 4.6039745, "lon": -74.1046323}, {"type": "node", "id": 3504216122, "lat": 4.6040452, "lon": -74.1045783}, {"type": "node", "id": 3504216123, "lat": 4.6039355, "lon": -74.104434}, {"type": "node", "id": 3504216124, "lat": 4.6038649, "lon": -74.1044881}, {"type": "node", "id": 3519070993, "lat": 4.6982158, "lon": -74.1447878, "tags": {"amenity": "pub", "name": "Bogot\u00e1 Beer Company"}}, {"type": "node", "id": 3556688706, "lat": 4.6248407, "lon": -74.1700621, "tags": {"amenity": "bar", "name": "Casa Vieja"}}, {"type": "node", "id": 3749988222, "lat": 4.5947353, "lon": -74.1382997, "tags": {"addr:housenumber": "39", "amenity": "bar", "name": "Casino Tayrona"}}, {"type": "node", "id": 3749988224, "lat": 4.5947741, "lon": -74.1382164, "tags": {"amenity": "bar", "name": "Casino"}}, {"type": "node", "id": 3749989027, "lat": 4.5947112, "lon": -74.1381011, "tags": {"amenity": "bar", "designation": "Juegos de azar", "name": "Broadway Casino"}}, {"type": "node", "id": 3750009396, "lat": 4.5948829, "lon": -74.13872, "tags": {"addr:housenumber": "77", "amenity": "bar", "designation": "Cigarrer\u00eda", "name": "Puente El Guavio"}}, {"type": "node", "id": 3750009402, "lat": 4.5948743, "lon": -74.1388602, "tags": {"addr:housenumber": "93", "amenity": "nightclub", "designation": "Juegos de azar", "name": "Casino Club Tropical"}}, {"type": "node", "id": 3750035536, "lat": 4.5948327, "lon": -74.1392451}, {"type": "node", "id": 3750035541, "lat": 4.5950279, "lon": -74.1392719}, {"type": "node", "id": 3750035543, "lat": 4.5948488, "lon": -74.1393094}, {"type": "node", "id": 3750035551, "lat": 4.5950145, "lon": -74.1392102}, {"type": "node", "id": 3750039166, "lat": 4.5949839, "lon": -74.1395656, "tags": {"addr:housenumber": "39", "amenity": "nightclub", "designation": "Casino", "name": "Fantasia Royal"}}, {"type": "node", "id": 3750043902, "lat": 4.5946417, "lon": -74.139182, "tags": {"addr:housenumber": "06", "amenity": "nightclub", "designation": "Billares", "name": "Las Vegas"}}, {"type": "node", "id": 3750655304, "lat": 4.5943518, "lon": -74.1392011, "tags": {"addr:housenumber": "13", "amenity": "bar", "name": "Billares", "note": "Segundo Piso"}}, {"type": "node", "id": 3750677426, "lat": 4.5947015, "lon": -74.1393839, "tags": {"addr:housenumber": "22", "amenity": "bar", "designation": "Restaurante-Bar", "name": "La fonda Antioque\u00f1a"}}, {"type": "node", "id": 3750745237, "lat": 4.5942613, "lon": -74.1381821, "tags": {"addr:housenumber": "17", "amenity": "nightclub", "level": "2", "name": "Cancun"}}, {"type": "node", "id": 3750745238, "lat": 4.5942521, "lon": -74.1381682, "tags": {"addr:housenumber": "17", "amenity": "bar", "level": "3", "name": "Billares"}}, {"type": "node", "id": 3751147847, "lat": 4.6326578, "lon": -74.0651079}, {"type": "node", "id": 3751147849, "lat": 4.632672, "lon": -74.0651719}, {"type": "node", "id": 3751147858, "lat": 4.6322374, "lon": -74.065016}, {"type": "node", "id": 3751147859, "lat": 4.632203, "lon": -74.0648879}, {"type": "node", "id": 3751147860, "lat": 4.6320166, "lon": -74.0649347}, {"type": "node", "id": 3752286439, "lat": 4.5930858, "lon": -74.1385445, "tags": {"addr:city": "Bogot\u00e1 D.C.", "amenity": "bar", "level": "2", "name": "Triamonthy", "note": "Billares"}}, {"type": "node", "id": 3752286443, "lat": 4.5930674, "lon": -74.138409, "tags": {"addr:city": "Bogot\u00e1 D.C.", "amenity": "bar", "name": "Casa Bar"}}, {"type": "node", "id": 3755250257, "lat": 4.621227, "lon": -74.1427242}, {"type": "node", "id": 3755250258, "lat": 4.6212632, "lon": -74.1426911}, {"type": "node", "id": 3755250259, "lat": 4.6211899, "lon": -74.1426153}, {"type": "node", "id": 3755250260, "lat": 4.6211568, "lon": -74.1426497}, {"type": "node", "id": 3755255442, "lat": 4.7346581, "lon": -74.0889561}, {"type": "node", "id": 3755255444, "lat": 4.7346453, "lon": -74.0889292}, {"type": "node", "id": 3755255445, "lat": 4.7347182, "lon": -74.0888997}, {"type": "node", "id": 3755255446, "lat": 4.7347284, "lon": -74.0889255}, {"type": "node", "id": 3755293791, "lat": 4.5641202, "lon": -74.08306}, {"type": "node", "id": 3755293794, "lat": 4.5641294, "lon": -74.08308}, {"type": "node", "id": 3755293795, "lat": 4.5642116, "lon": -74.0830404}, {"type": "node", "id": 3755293796, "lat": 4.5641976, "lon": -74.0830223}, {"type": "node", "id": 3755293801, "lat": 4.5641702, "lon": -74.0830612}, {"type": "node", "id": 3755293802, "lat": 4.5641909, "lon": -74.0830512}, {"type": "node", "id": 3755294966, "lat": 4.6954319, "lon": -74.1070307, "tags": {"amenity": "bar"}}, {"type": "node", "id": 3755295031, "lat": 4.5648225, "lon": -74.0835059}, {"type": "node", "id": 3755295032, "lat": 4.5647731, "lon": -74.0833906}, {"type": "node", "id": 3755295034, "lat": 4.564884, "lon": -74.0834865}, {"type": "node", "id": 3755295035, "lat": 4.5648346, "lon": -74.0833792}, {"type": "node", "id": 3755299639, "lat": 4.637564, "lon": -74.0640309}, {"type": "node", "id": 3755299640, "lat": 4.6376527, "lon": -74.0638982}, {"type": "node", "id": 3755299641, "lat": 4.6375367, "lon": -74.0639298}, {"type": "node", "id": 3755299642, "lat": 4.6377126, "lon": -74.0641165}, {"type": "node", "id": 3755299643, "lat": 4.6376313, "lon": -74.0641403}, {"type": "node", "id": 3755299644, "lat": 4.6375959, "lon": -74.0640237}, {"type": "node", "id": 3755299645, "lat": 4.6376801, "lon": -74.0639993}, {"type": "node", "id": 3755299707, "lat": 4.6379753, "lon": -74.0637501}, {"type": "node", "id": 3755299708, "lat": 4.6380608, "lon": -74.0640473}, {"type": "node", "id": 3755316762, "lat": 4.6321461, "lon": -74.0649407, "tags": {"addr:housenumber": "45-39", "addr:street": "Carrera 8", "amenity": "bar", "name": "Terraza San Esteban"}}, {"type": "node", "id": 3755328445, "lat": 4.688832, "lon": -74.0892496, "tags": {"amenity": "bar", "name": "la sede del futbolista"}}, {"type": "node", "id": 3755328450, "lat": 4.6886765, "lon": -74.0896747, "tags": {"amenity": "bar", "name": "donde lucas"}}, {"type": "node", "id": 3755329161, "lat": 4.758844, "lon": -74.0484363, "tags": {"addr:street": "Carrera 50 20", "amenity": "bar", "name": "BAR"}}, {"type": "node", "id": 3755329217, "lat": 4.7583612, "lon": -74.0486707, "tags": {"addr:street": "Calle 180 05", "amenity": "bar", "name": "bar 80"}}, {"type": "node", "id": 3755329218, "lat": 4.7584053, "lon": -74.0486587, "tags": {"addr:street": "Calle 180 10", "amenity": "bar", "name": "bar"}}, {"type": "node", "id": 3755329222, "lat": 4.7582516, "lon": -74.0483636, "tags": {"addr:street": "Carrera 49B 03", "amenity": "bar", "name": "bar"}}, {"type": "node", "id": 3755331441, "lat": 4.7574391, "lon": -74.0476268, "tags": {"addr:street": "Carrera 48A 43", "amenity": "bar", "name": "cigarreria bar 43"}}, {"type": "node", "id": 3755365830, "lat": 4.6347016, "lon": -74.0641853}, {"type": "node", "id": 3755365831, "lat": 4.6346802, "lon": -74.0640993}, {"type": "node", "id": 3755365832, "lat": 4.6347714, "lon": -74.0640831}, {"type": "node", "id": 3755368212, "lat": 4.6081179, "lon": -74.168649, "tags": {"amenity": "bar"}}, {"type": "node", "id": 3755387585, "lat": 4.7222134, "lon": -74.0466692}, {"type": "node", "id": 3755391892, "lat": 4.6374463, "lon": -74.0636135}, {"type": "node", "id": 3755391893, "lat": 4.6374231, "lon": -74.0635171}, {"type": "node", "id": 3755391894, "lat": 4.6373383, "lon": -74.0635376}, {"type": "node", "id": 3755391895, "lat": 4.6373614, "lon": -74.063634}, {"type": "node", "id": 3755391905, "lat": 4.6376692, "lon": -74.0638904}, {"type": "node", "id": 3755391906, "lat": 4.6376343, "lon": -74.063783}, {"type": "node", "id": 3755391907, "lat": 4.6374911, "lon": -74.0638227}, {"type": "node", "id": 3755391908, "lat": 4.6375202, "lon": -74.0639278}, {"type": "node", "id": 3755391909, "lat": 4.6376308, "lon": -74.063776}, {"type": "node", "id": 3755391910, "lat": 4.6375737, "lon": -74.0635939}, {"type": "node", "id": 3755391911, "lat": 4.6374213, "lon": -74.0636324}, {"type": "node", "id": 3755391912, "lat": 4.6374818, "lon": -74.0638157}, {"type": "node", "id": 3755391931, "lat": 4.6381249, "lon": -74.0640278}, {"type": "node", "id": 3755391935, "lat": 4.6380411, "lon": -74.063731}, {"type": "node", "id": 3755391949, "lat": 4.6379842, "lon": -74.0635953}, {"type": "node", "id": 3755391950, "lat": 4.6379366, "lon": -74.0634379}, {"type": "node", "id": 3755391951, "lat": 4.6377832, "lon": -74.0634759}, {"type": "node", "id": 3755391952, "lat": 4.6378326, "lon": -74.0636422}, {"type": "node", "id": 3755391953, "lat": 4.6377755, "lon": -74.0634815}, {"type": "node", "id": 3755391954, "lat": 4.6378363, "lon": -74.0636807}, {"type": "node", "id": 3755391955, "lat": 4.6377269, "lon": -74.0637193}, {"type": "node", "id": 3755391956, "lat": 4.637661, "lon": -74.063513}, {"type": "node", "id": 3755922758, "lat": 4.6321644, "lon": -74.0648875}, {"type": "node", "id": 3755942034, "lat": 4.6328312, "lon": -74.0650896, "tags": {"amenity": "bar", "name": "Sabana Bar"}}, {"type": "node", "id": 3755955228, "lat": 4.7223884, "lon": -74.0468955}, {"type": "node", "id": 3755955229, "lat": 4.7223475, "lon": -74.0466496}, {"type": "node", "id": 3755955231, "lat": 4.7222501, "lon": -74.0469213}, {"type": "node", "id": 3755959134, "lat": 4.6785023, "lon": -74.101852}, {"type": "node", "id": 3756530080, "lat": 4.6360035, "lon": -74.0641598}, {"type": "node", "id": 3756530081, "lat": 4.6359186, "lon": -74.0641691}, {"type": "node", "id": 3756530082, "lat": 4.6358965, "lon": -74.0639668}, {"type": "node", "id": 3756530083, "lat": 4.6359814, "lon": -74.0639574}, {"type": "node", "id": 3756530084, "lat": 4.6359185, "lon": -74.0641467}, {"type": "node", "id": 3756530087, "lat": 4.6359093, "lon": -74.0640796}, {"type": "node", "id": 3756726465, "lat": 4.6063564, "lon": -74.144499}, {"type": "node", "id": 3756726466, "lat": 4.6064053, "lon": -74.144457}, {"type": "node", "id": 3756726467, "lat": 4.6062111, "lon": -74.1443224}, {"type": "node", "id": 3756726468, "lat": 4.6061773, "lon": -74.1443748}, {"type": "node", "id": 3756726513, "lat": 4.6054604, "lon": -74.1439853}, {"type": "node", "id": 3756726514, "lat": 4.6054906, "lon": -74.1439293}, {"type": "node", "id": 3756726515, "lat": 4.6054836, "lon": -74.1438966}, {"type": "node", "id": 3756726516, "lat": 4.6054604, "lon": -74.1438802}, {"type": "node", "id": 3756726517, "lat": 4.6053905, "lon": -74.1439573}, {"type": "node", "id": 3756774062, "lat": 4.6063066, "lon": -74.1444284, "tags": {"amenity": "bar"}}, {"type": "node", "id": 3756774063, "lat": 4.6054556, "lon": -74.1439324, "tags": {"amenity": "bar"}}, {"type": "node", "id": 3756782443, "lat": 4.5769993, "lon": -74.2186337, "tags": {"addr:street": "Calle 12", "amenity": "bar", "name": "la tiendita"}}, {"type": "node", "id": 3756782444, "lat": 4.5770879, "lon": -74.2186488, "tags": {"addr:street": "Calle 12", "amenity": "bar", "name": "tu cantina"}}, {"type": "node", "id": 3756782445, "lat": 4.5771682, "lon": -74.2186823, "tags": {"addr:street": "Calle 12", "amenity": "bar", "name": "beer"}}, {"type": "node", "id": 3756782448, "lat": 4.5770356, "lon": -74.2183507}, {"type": "node", "id": 3756782449, "lat": 4.5771423, "lon": -74.2183987}, {"type": "node", "id": 3756782450, "lat": 4.5772077, "lon": -74.218296}, {"type": "node", "id": 3756782451, "lat": 4.5771053, "lon": -74.2182348}, {"type": "node", "id": 3757425555, "lat": 4.6539616, "lon": -74.1093371, "tags": {"amenity": "bar", "name": "BAR", "wifi": "yes"}}, {"type": "node", "id": 3757478982, "lat": 4.6539896, "lon": -74.1093505, "tags": {"amenity": "nightclub", "name": "Cafe Bar la estacion"}}, {"type": "node", "id": 3757633702, "lat": 4.6305391, "lon": -74.1781662, "tags": {"amenity": "bar", "name": "Gatogris"}}, {"type": "node", "id": 3868217706, "lat": 4.6460175, "lon": -74.0958274}, {"type": "node", "id": 3897257082, "lat": 4.6787146, "lon": -74.0500294, "tags": {"addr:city": "Bogot\u00e1", "addr:housenumber": "#93B-45", "addr:street": "Carrera 14", "amenity": "pub", "internet_access": "wlan", "name": "Chelarte", "smoking": "outside"}}, {"type": "node", "id": 3902505470, "lat": 4.6653447, "lon": -74.0537123, "tags": {"addr:city": "Bogot\u00e1 D.C.", "addr:housenumber": "#11-36", "addr:street": "Calle 81", "amenity": "pub", "name": "BBC Bodega", "website": "http://bogotabeercompany.com/"}}, {"type": "node", "id": 3942613012, "lat": 4.7122523, "lon": -74.097099, "tags": {"amenity": "pub", "name": "Billares Montecarlo", "sport": "billiards"}}, {"type": "node", "id": 3942613014, "lat": 4.7119062, "lon": -74.0966867, "tags": {"amenity": "nightclub", "internet_access": "no", "name": "El Negrito Rumbero"}}, {"type": "node", "id": 3942613017, "lat": 4.7123591, "lon": -74.0972721, "tags": {"amenity": "bar", "name": "La Pruebita"}}, {"type": "node", "id": 3942613018, "lat": 4.7122143, "lon": -74.0971295, "tags": {"amenity": "nightclub", "internet_access": "no", "name": "Pasi\u00f3n Latina"}}, {"type": "node", "id": 4037081131, "lat": 4.7433077, "lon": -74.0251016}, {"type": "node", "id": 4053761711, "lat": 4.7432116, "lon": -74.0244093}, {"type": "node", "id": 4053761714, "lat": 4.7431893, "lon": -74.0242485}, {"type": "node", "id": 4054826426, "lat": 4.668955, "lon": -74.0536791, "tags": {"addr:street": "Calle 85", "amenity": "pub", "name": "Rock & Roll Circus", "source": "Kaart Ground Survey 2017"}}, {"type": "node", "id": 4056655889, "lat": 4.6487557, "lon": -74.0608553, "tags": {"addr:housenumber": "63-49", "addr:street": "Carrera 8", "amenity": "pub", "name": "George & Dragon"}}, {"type": "node", "id": 4072232440, "lat": 4.6499846, "lon": -74.0625333}, {"type": "node", "id": 4072232446, "lat": 4.6500809, "lon": -74.0624971}, {"type": "node", "id": 4072232447, "lat": 4.6501089, "lon": -74.062574}, {"type": "node", "id": 4072694715, "lat": 4.6500149, "lon": -74.0626159}, {"type": "node", "id": 4072694716, "lat": 4.6500152, "lon": -74.0625218}, {"type": "node", "id": 4072694717, "lat": 4.650043, "lon": -74.0626033}, {"type": "node", "id": 4072694718, "lat": 4.6500466, "lon": -74.06251}, {"type": "node", "id": 4072694720, "lat": 4.6500758, "lon": -74.0625887}, {"type": "node", "id": 4072694721, "lat": 4.6500847, "lon": -74.0625075}, {"type": "node", "id": 4080171673, "lat": 4.5817153, "lon": -74.1307301}, {"type": "node", "id": 4080171674, "lat": 4.5817355, "lon": -74.1306493}, {"type": "node", "id": 4080171675, "lat": 4.5816404, "lon": -74.1307115}, {"type": "node", "id": 4080171676, "lat": 4.5816901, "lon": -74.1305286}, {"type": "node", "id": 4080337585, "lat": 4.5817098, "lon": -74.132004, "tags": {"amenity": "bar"}}, {"type": "node", "id": 4088712715, "lat": 4.6956303, "lon": -74.0304266, "tags": {"amenity": "pub", "name": "Rock & Roll Circus", "operator": "Bebidas y Comida"}}, {"type": "node", "id": 4088728960, "lat": 4.6677533, "lon": -74.0557975, "tags": {"amenity": "bar", "name": "Chupitos Bar"}}, {"type": "node", "id": 4088728961, "lat": 4.6680761, "lon": -74.0549753, "tags": {"amenity": "bar", "name": "Crown Casinos/Bar"}}, {"type": "node", "id": 4088728962, "lat": 4.6681931, "lon": -74.0549233, "tags": {"amenity": "bar", "name": "Fabric Club"}}, {"type": "node", "id": 4088728963, "lat": 4.6691992, "lon": -74.0550819, "tags": {"amenity": "bar", "name": "Gnoveva Bar"}}, {"type": "node", "id": 4088728964, "lat": 4.6692945, "lon": -74.0552591, "tags": {"amenity": "bar", "name": "La Trampa Bar"}}, {"type": "node", "id": 4088728965, "lat": 4.6690092, "lon": -74.0546884, "tags": {"amenity": "bar", "name": "Mint Bar"}}, {"type": "node", "id": 4088728966, "lat": 4.669129, "lon": -74.0550793, "tags": {"amenity": "bar", "name": "Mole"}}, {"type": "node", "id": 4088728967, "lat": 4.6691614, "lon": -74.0551431, "tags": {"amenity": "bar", "name": "Paleo Bar"}}, {"type": "node", "id": 4088728968, "lat": 4.6692517, "lon": -74.0551828, "tags": {"amenity": "bar", "name": "Simona Bar"}}, {"type": "node", "id": 4088728969, "lat": 4.6685426, "lon": -74.0554015, "tags": {"amenity": "bar", "name": "Sunrise Bar"}}, {"type": "node", "id": 4088728970, "lat": 4.669158, "lon": -74.0549988, "tags": {"amenity": "bar", "name": "Trio Bar"}}, {"type": "node", "id": 4088728971, "lat": 4.667393, "lon": -74.0559607, "tags": {"addr:housenumber": "14-23", "addr:street": "Calle 82", "amenity": "bar", "name": "Vaquerito Bar", "source": "Kaart Ground Survey 2017"}}, {"type": "node", "id": 4088728972, "lat": 4.6689607, "lon": -74.0545911, "tags": {"amenity": "bar", "name": "11:11 Bar"}}, {"type": "node", "id": 4092879668, "lat": 4.7565663, "lon": -74.114186, "tags": {"amenity": "bar"}}, {"type": "node", "id": 4092879674, "lat": 4.7560121, "lon": -74.1148176, "tags": {"amenity": "bar"}}, {"type": "node", "id": 4092879687, "lat": 4.7556759, "lon": -74.1150102, "tags": {"amenity": "bar"}}, {"type": "node", "id": 4092897201, "lat": 4.7578503, "lon": -74.1141787, "tags": {"amenity": "bar"}}, {"type": "node", "id": 4100234184, "lat": 4.5817616, "lon": -74.1305482}, {"type": "node", "id": 4103543288, "lat": 4.6346657, "lon": -74.0678468, "tags": {"addr:housenumber": "14-42", "addr:street": "calle 47", "amenity": "bar", "name": "Son 4 ruta-Bar"}}, {"type": "node", "id": 4103559390, "lat": 4.6346701, "lon": -74.067899, "tags": {"addr:housenumber": "14-50", "addr:street": "calle 47", "amenity": "bar", "name": "Terraza 47"}}, {"type": "node", "id": 4103559391, "lat": 4.6346754, "lon": -74.0679246, "tags": {"addr:housenumber": "14-50", "addr:street": "calle 47", "amenity": "bar", "name": "Magna Music hall"}}, {"type": "node", "id": 4103559413, "lat": 4.6346855, "lon": -74.0680815, "tags": {"amenity": "bar"}}, {"type": "node", "id": 4104184660, "lat": 4.6383754, "lon": -74.0661438, "tags": {"addr:city": "Bogot\u00e1 D.C.", "addr:street": "Calle 51", "amenity": "bar", "name": "Cafe Bar Demetrius"}}, {"type": "node", "id": 4105844087, "lat": 4.7582578, "lon": -74.0473453, "tags": {"amenity": "bar"}}, {"type": "node", "id": 4106215014, "lat": 4.6825268, "lon": -74.1068437}, {"type": "node", "id": 4106215016, "lat": 4.6825764, "lon": -74.1068073}, {"type": "node", "id": 4106215018, "lat": 4.6826224, "lon": -74.1067716}, {"type": "node", "id": 4106215020, "lat": 4.6826638, "lon": -74.1067398}, {"type": "node", "id": 4106215030, "lat": 4.6828847, "lon": -74.1065626}, {"type": "node", "id": 4106215032, "lat": 4.6829366, "lon": -74.1065192}, {"type": "node", "id": 4106215040, "lat": 4.6828217, "lon": -74.1063685}, {"type": "node", "id": 4106215041, "lat": 4.6827656, "lon": -74.1064036}, {"type": "node", "id": 4106215046, "lat": 4.6825375, "lon": -74.1065696}, {"type": "node", "id": 4106215047, "lat": 4.6824955, "lon": -74.1065985}, {"type": "node", "id": 4106215048, "lat": 4.6824473, "lon": -74.1066356}, {"type": "node", "id": 4106215049, "lat": 4.6823992, "lon": -74.1066703}, {"type": "node", "id": 4108233997, "lat": 4.5898246, "lon": -74.1020294, "tags": {"addr:street": "Transversal 23", "amenity": "bar", "name": "TIKAL", "source": "Kaart Ground Survey 2017"}}, {"type": "node", "id": 4110474971, "lat": 4.6334451, "lon": -74.0669832, "tags": {"addr:housenumber": "13-64", "amenity": "bar", "name": "El Rinconcito"}}, {"type": "node", "id": 4110474972, "lat": 4.6334301, "lon": -74.0669297, "tags": {"addr:housenumber": "13-60", "amenity": "bar", "name": "Picapiedra"}}, {"type": "node", "id": 4110474973, "lat": 4.633405, "lon": -74.066779, "tags": {"addr:housenumber": "13-52", "amenity": "bar", "name": "La Sombrilla"}}, {"type": "node", "id": 4110474974, "lat": 4.6333967, "lon": -74.066712, "tags": {"addr:housenumber": "13-48", "amenity": "bar", "name": "Punto Orange"}}, {"type": "node", "id": 4110789088, "lat": 4.6328508, "lon": -74.0650634}, {"type": "node", "id": 4110790890, "lat": 4.632863, "lon": -74.0651225}, {"type": "node", "id": 4111042163, "lat": 4.7392961, "lon": -74.1009113, "tags": {"amenity": "bar"}}, {"type": "node", "id": 4111773449, "lat": 4.6335314, "lon": -74.0678253, "tags": {"addr:housenumber": "14-26", "amenity": "bar", "name": "Tienda el Barcito"}}, {"type": "node", "id": 4111931873, "lat": 4.6324625, "lon": -74.066647, "tags": {"addr:housenumber": "13-24", "amenity": "bar", "name": "Buscando la Melod\u00eda"}}, {"type": "node", "id": 4111931874, "lat": 4.6324839, "lon": -74.0667221, "tags": {"addr:housenumber": "13-26", "amenity": "bar", "name": "Palermo 45"}}, {"type": "node", "id": 4111931881, "lat": 4.6329799, "lon": -74.0663848, "tags": {"addr:housenumber": "45A - 37", "amenity": "bar", "name": "In my place"}}, {"type": "node", "id": 4112079493, "lat": 4.6357051, "lon": -74.0682511}, {"type": "node", "id": 4112079494, "lat": 4.6357136, "lon": -74.068296}, {"type": "node", "id": 4112079495, "lat": 4.6358987, "lon": -74.0682594}, {"type": "node", "id": 4112079496, "lat": 4.6358898, "lon": -74.0682105}, {"type": "node", "id": 4112307160, "lat": 4.6317478, "lon": -74.0666192, "tags": {"amenity": "bar"}}, {"type": "node", "id": 4112307180, "lat": 4.6307953, "lon": -74.0675192, "tags": {"amenity": "bar"}}, {"type": "node", "id": 4112345308, "lat": 4.63709, "lon": -74.0662738}, {"type": "node", "id": 4112345309, "lat": 4.6372957, "lon": -74.0662396}, {"type": "node", "id": 4112345312, "lat": 4.6372058, "lon": -74.0662401}, {"type": "node", "id": 4112345313, "lat": 4.6372934, "lon": -74.0662255}, {"type": "node", "id": 4112420003, "lat": 4.6364411, "lon": -74.0663729, "tags": {"amenity": "bar"}}, {"type": "node", "id": 4112420005, "lat": 4.6364558, "lon": -74.0666224, "tags": {"amenity": "bar", "name": "Chicas malas"}}, {"type": "node", "id": 4112420006, "lat": 4.6364652, "lon": -74.0666626, "tags": {"amenity": "bar"}}, {"type": "node", "id": 4112420010, "lat": 4.6365711, "lon": -74.0666895, "tags": {"amenity": "bar", "name": "Ventanilla blanca"}}, {"type": "node", "id": 4112420011, "lat": 4.6366295, "lon": -74.0666957, "tags": {"amenity": "bar", "name": "Cafe internet bar"}}, {"type": "node", "id": 4113103897, "lat": 4.6028423, "lon": -74.1492788, "tags": {"amenity": "bar", "name": "Berajad"}}, {"type": "node", "id": 4113164589, "lat": 4.6768432, "lon": -74.0797764, "tags": {"addr:street": "Calle 75B", "amenity": "bar", "name": "venta insumos de cerveza"}}, {"type": "node", "id": 4113219314, "lat": 4.6279795, "lon": -74.1780345, "tags": {"amenity": "bar", "name": "PATO MAR"}}, {"type": "node", "id": 4113219937, "lat": 4.6280749, "lon": -74.1775197, "tags": {"addr:housenumber": "2 PISO", "amenity": "bar", "name": "BILLARES LE\u00d3N"}}, {"type": "node", "id": 4113219941, "lat": 4.6278286, "lon": -74.1776233, "tags": {"amenity": "bar", "name": "EL PORTAL"}}, {"type": "node", "id": 4113219952, "lat": 4.6278233, "lon": -74.1772944, "tags": {"amenity": "bar", "name": "METALLICA"}}, {"type": "node", "id": 4113489389, "lat": 4.6379905, "lon": -74.0650934, "tags": {"addr:city": "Bogot\u00e1 D.C.", "addr:housenumber": "9-75", "addr:street": "Calle 51", "amenity": "bar", "name": "DIVERMANIA"}}, {"type": "node", "id": 4115263650, "lat": 4.6584575, "lon": -74.1126313, "tags": {"amenity": "bar", "name": "Moon Pub"}}, {"type": "node", "id": 4115263652, "lat": 4.6586179, "lon": -74.1127118, "tags": {"amenity": "bar", "name": "Karaoke"}}, {"type": "node", "id": 4115263653, "lat": 4.6586981, "lon": -74.1127333, "tags": {"amenity": "bar", "name": "Apartamento 101"}}, {"type": "node", "id": 4115263654, "lat": 4.658789, "lon": -74.1127386, "tags": {"amenity": "bar", "name": "San Sebasti\u00e1n"}}, {"type": "node", "id": 4115263655, "lat": 4.6588799, "lon": -74.1127279, "tags": {"amenity": "bar", "name": "Romeo"}}, {"type": "node", "id": 4115594748, "lat": 4.6028439, "lon": -74.1500111, "tags": {"addr:street": "72i-35", "amenity": "bar", "name": "Bar Berakah"}}, {"type": "node", "id": 4115780822, "lat": 4.6114198, "lon": -74.2116614, "tags": {"addr:street": "Calle 85A Sur 78-79 int 20", "amenity": "bar"}}, {"type": "node", "id": 4117767312, "lat": 4.6295632, "lon": -74.0660971, "tags": {"amenity": "bar", "name": "El Bandi"}}, {"type": "node", "id": 4117767331, "lat": 4.6291798, "lon": -74.0658841, "tags": {"amenity": "bar", "name": "La Terraza"}}, {"type": "node", "id": 4120468985, "lat": 4.7474308, "lon": -74.0981046}, {"type": "node", "id": 4120469092, "lat": 4.7473869, "lon": -74.0981272}, {"type": "node", "id": 4120469093, "lat": 4.7473243, "lon": -74.0979994}, {"type": "node", "id": 4120469097, "lat": 4.7473355, "lon": -74.0981535}, {"type": "node", "id": 4120469100, "lat": 4.7472883, "lon": -74.0981791}, {"type": "node", "id": 4120469101, "lat": 4.7472719, "lon": -74.0980257}, {"type": "node", "id": 4120469102, "lat": 4.7472247, "lon": -74.0980499}, {"type": "node", "id": 4120469104, "lat": 4.7472481, "lon": -74.0982016}, {"type": "node", "id": 4120469105, "lat": 4.7471827, "lon": -74.098071}, {"type": "node", "id": 4120469199, "lat": 4.7471239, "lon": -74.0984288, "tags": {"amenity": "bar", "name": "D horemo"}}, {"type": "node", "id": 4121505289, "lat": 4.7473683, "lon": -74.0979794}, {"type": "node", "id": 4121505291, "lat": 4.7473607, "lon": -74.0981402}, {"type": "node", "id": 4121505295, "lat": 4.747203, "lon": -74.0982238}, {"type": "node", "id": 4121505297, "lat": 4.7471476, "lon": -74.0982519}, {"type": "node", "id": 4121505306, "lat": 4.7471366, "lon": -74.0980927}, {"type": "node", "id": 4121505307, "lat": 4.7470819, "lon": -74.0981193}, {"type": "node", "id": 4121505315, "lat": 4.7473185, "lon": -74.0978904}, {"type": "node", "id": 4121505316, "lat": 4.747255, "lon": -74.0977706}, {"type": "node", "id": 4121505322, "lat": 4.7472944, "lon": -74.0979027}, {"type": "node", "id": 4121505323, "lat": 4.7472313, "lon": -74.0977831}, {"type": "node", "id": 4121505324, "lat": 4.7472749, "lon": -74.0979124}, {"type": "node", "id": 4121505325, "lat": 4.7472126, "lon": -74.097793}, {"type": "node", "id": 4121505326, "lat": 4.7472527, "lon": -74.0979247}, {"type": "node", "id": 4121505327, "lat": 4.7471899, "lon": -74.0978052}, {"type": "node", "id": 4121505328, "lat": 4.7472261, "lon": -74.0979385}, {"type": "node", "id": 4121505329, "lat": 4.7471643, "lon": -74.0978194}, {"type": "node", "id": 4121505330, "lat": 4.7472004, "lon": -74.0979523}, {"type": "node", "id": 4121505331, "lat": 4.7471377, "lon": -74.097834}, {"type": "node", "id": 4121505332, "lat": 4.7471786, "lon": -74.0979641}, {"type": "node", "id": 4121505333, "lat": 4.7471162, "lon": -74.0978463}, {"type": "node", "id": 4121505334, "lat": 4.7471559, "lon": -74.0979761}, {"type": "node", "id": 4121505335, "lat": 4.7470938, "lon": -74.0978592}, {"type": "node", "id": 4121505338, "lat": 4.7470877, "lon": -74.0980102}, {"type": "node", "id": 4121505339, "lat": 4.7470272, "lon": -74.0978952}, {"type": "node", "id": 4121505340, "lat": 4.747059, "lon": -74.0980254}, {"type": "node", "id": 4121505341, "lat": 4.7469992, "lon": -74.0979099}, {"type": "node", "id": 4121505342, "lat": 4.7470369, "lon": -74.0980372}, {"type": "node", "id": 4121505343, "lat": 4.7469761, "lon": -74.0979239}, {"type": "node", "id": 4121505344, "lat": 4.7470073, "lon": -74.0980525}, {"type": "node", "id": 4121505345, "lat": 4.7469473, "lon": -74.0979389}, {"type": "node", "id": 4121505348, "lat": 4.7469511, "lon": -74.0980799}, {"type": "node", "id": 4121505349, "lat": 4.7468911, "lon": -74.0979647}, {"type": "node", "id": 4121505350, "lat": 4.746926, "lon": -74.098092}, {"type": "node", "id": 4121505351, "lat": 4.7468651, "lon": -74.0979744}, {"type": "node", "id": 4121505352, "lat": 4.7468713, "lon": -74.0981169}, {"type": "node", "id": 4121505353, "lat": 4.7468138, "lon": -74.0980002}, {"type": "node", "id": 4121505354, "lat": 4.7468357, "lon": -74.0981345}, {"type": "node", "id": 4121505355, "lat": 4.7467757, "lon": -74.0980169}, {"type": "node", "id": 4121505382, "lat": 4.7474613, "lon": -74.0980336, "tags": {"amenity": "bar", "name": "san martina"}}, {"type": "node", "id": 4121505383, "lat": 4.7468763, "lon": -74.0983468, "tags": {"amenity": "bar", "name": "los rosales"}}, {"type": "node", "id": 4122150092, "lat": 4.7150615, "lon": -74.214965, "tags": {"amenity": "bar", "name": "Piso 3"}}, {"type": "node", "id": 4124124412, "lat": 4.6372859, "lon": -74.0662324, "tags": {"addr:city": "Bogot\u00e1 D.C.", "addr:housenumber": "13-52", "addr:street": "Calle 50", "amenity": "bar", "name": "Billar Danubio Club"}}, {"type": "node", "id": 4124124413, "lat": 4.6371758, "lon": -74.0660659}, {"type": "node", "id": 4124124414, "lat": 4.6370572, "lon": -74.0660878}, {"type": "node", "id": 4124676754, "lat": 4.5814627, "lon": -74.1308981, "tags": {"amenity": "bar", "description": "Este bar carece de nombre, lo dem\u00e1s corresponde a las caracter\u00edsticas de un bar com\u00fan"}}, {"type": "node", "id": 4126694680, "lat": 4.6347937, "lon": -74.0641674}, {"type": "node", "id": 4127110377, "lat": 4.5020772, "lon": -74.1156894, "tags": {"addr:street": "Carrera 1 / Calle 94 A - 18", "amenity": "bar", "name": "Somos La Diferencia"}}, {"type": "node", "id": 4127167789, "lat": 4.6342316, "lon": -74.0779526, "tags": {"amenity": "bar", "internet_access": "yes", "internet_access:fee": "no", "name": "BIZARRE ROCK BAR", "opening_hours": "week 1-53/2 Fr 09:00-12:00; week 2-52/2 We 09:00-12:00", "smoking": "outside", "wheelchair": "no"}}, {"type": "node", "id": 4127271089, "lat": 4.7579763, "lon": -74.0481552, "tags": {"amenity": "bar"}}, {"type": "node", "id": 4128348402, "lat": 4.6505027, "lon": -74.1459997, "tags": {"amenity": "bar"}}, {"type": "node", "id": 4128366575, "lat": 4.6498314, "lon": -74.1466888, "tags": {"amenity": "bar"}}, {"type": "node", "id": 4128609672, "lat": 4.7578473, "lon": -74.0465742, "tags": {"amenity": "bar"}}, {"type": "node", "id": 4128618380, "lat": 4.757985, "lon": -74.0473038, "tags": {"amenity": "bar"}}, {"type": "node", "id": 4128765325, "lat": 4.642839, "lon": -74.1420808}, {"type": "node", "id": 4128765326, "lat": 4.6427735, "lon": -74.1421318}, {"type": "node", "id": 4128765327, "lat": 4.6428082, "lon": -74.1420459}, {"type": "node", "id": 4128765328, "lat": 4.642736, "lon": -74.142105}, {"type": "node", "id": 4129165898, "lat": 4.757497, "lon": -74.0476125, "tags": {"amenity": "bar", "name": "Los 3 gaticos"}}, {"type": "node", "id": 4130687394, "lat": 4.5510452, "lon": -74.1075942, "tags": {"amenity": "bar", "name": "bar el chalet"}}, {"type": "node", "id": 4130802632, "lat": 4.6078044, "lon": -74.1428969, "tags": {"amenity": "bar"}}, {"type": "node", "id": 4130802640, "lat": 4.6066869, "lon": -74.1430203, "tags": {"amenity": "bar"}}, {"type": "node", "id": 4173819180, "lat": 4.6954654, "lon": -74.0303273, "tags": {"addr:city": "Bogot\u00e1 D.C.", "addr:housenumber": "119-24", "addr:street": "Carrera 6", "amenity": "pub", "microbrewery": "yes", "name": "Bogota Beer Company BBC Usaquen", "operator": "Bogota Beer Company", "smoking": "separated", "website": "http://www.bogotabeercompany.com/", "wheelchair": "no"}}, {"type": "node", "id": 4175151058, "lat": 4.6958177, "lon": -74.0296724, "tags": {"amenity": "bar", "name": "14 Inkas"}}, {"type": "node", "id": 4214169496, "lat": 4.6773888, "lon": -74.0493513}, {"type": "node", "id": 4214169506, "lat": 4.677641, "lon": -74.049215}, {"type": "node", "id": 4214169507, "lat": 4.6769269, "lon": -74.0471778}, {"type": "node", "id": 4214169508, "lat": 4.6772566, "lon": -74.049105}, {"type": "node", "id": 4214169509, "lat": 4.6768193, "lon": -74.0469635}, {"type": "node", "id": 4214169511, "lat": 4.6766709, "lon": -74.0470385}, {"type": "node", "id": 4214169515, "lat": 4.6767785, "lon": -74.0472529}, {"type": "node", "id": 4214169520, "lat": 4.6775088, "lon": -74.0489687}, {"type": "node", "id": 4227090234, "lat": 4.6620049, "lon": -74.0096124, "tags": {"amenity": "bar", "name": "Bar Belga Chez Th\u00e9rese 69"}}, {"type": "node", "id": 4232341203, "lat": 4.6280014, "lon": -74.0858735, "tags": {"amenity": "bar", "name": "Cigarrer\u00eda guepaje"}}, {"type": "node", "id": 4276030296, "lat": 4.7180264, "lon": -74.2131791, "tags": {"amenity": "public_bookcase", "name": "Biblioparque \"Marqu\u00e9s de San Jorge\"", "operator": "Colsubsidio"}}, {"type": "node", "id": 4281273221, "lat": 4.6497393, "lon": -74.1026055}, {"type": "node", "id": 4281273222, "lat": 4.649687, "lon": -74.1023611}, {"type": "node", "id": 4281273226, "lat": 4.6498772, "lon": -74.102607}, {"type": "node", "id": 4281273233, "lat": 4.6496551, "lon": -74.1024255}, {"type": "node", "id": 4281273234, "lat": 4.6495095, "lon": -74.102524}, {"type": "node", "id": 4281273236, "lat": 4.6495449, "lon": -74.1023818}, {"type": "node", "id": 4281273239, "lat": 4.6499355, "lon": -74.1023646}, {"type": "node", "id": 4281273245, "lat": 4.6491867, "lon": -74.1023945}, {"type": "node", "id": 4288666490, "lat": 4.640312, "lon": -74.0623567, "tags": {"addr:street": "Calle 54", "amenity": "bar", "name": "Statua Rota"}}, {"type": "node", "id": 4291376593, "lat": 4.6456456, "lon": -74.0754279, "tags": {"amenity": "bar", "name": "cigarreria t\u00edo sam"}}, {"type": "node", "id": 4291606391, "lat": 4.5116796, "lon": -74.1165651, "tags": {"amenity": "bar", "name": "MORENA SALSA"}}, {"type": "node", "id": 4313518708, "lat": 4.6320571, "lon": -74.0650668}, {"type": "node", "id": 4313863390, "lat": 4.6137947, "lon": -74.2187844, "tags": {"amenity": "bar", "name": "casa ciudad verde"}}, {"type": "node", "id": 4386012991, "lat": 4.6689647, "lon": -74.0551453, "tags": {"addr:housenumber": "#83-56", "addr:street": "Carrera 14A", "amenity": "bar", "name": "La Villa Gringo Tuesdays", "name:es": "La Villa Gringo Tuesdays"}}, {"type": "node", "id": 4417651389, "lat": 4.644206, "lon": -74.061865}, {"type": "node", "id": 4424106891, "lat": 4.6178955, "lon": -74.1379878}, {"type": "node", "id": 4424106892, "lat": 4.6188313, "lon": -74.1386809, "tags": {"amenity": "bar"}}, {"type": "node", "id": 4424106893, "lat": 4.6189022, "lon": -74.138675, "tags": {"amenity": "bar"}}, {"type": "node", "id": 4424106894, "lat": 4.6189072, "lon": -74.138587, "tags": {"amenity": "bar"}}, {"type": "node", "id": 4424106895, "lat": 4.6188382, "lon": -74.138593, "tags": {"amenity": "bar"}}, {"type": "node", "id": 4424106896, "lat": 4.6188993, "lon": -74.1384803, "tags": {"amenity": "bar"}}, {"type": "node", "id": 4424106897, "lat": 4.6188303, "lon": -74.1384773, "tags": {"amenity": "bar"}}, {"type": "node", "id": 4424106898, "lat": 4.6189062, "lon": -74.138418, "tags": {"amenity": "bar"}}, {"type": "node", "id": 4424106899, "lat": 4.6187662, "lon": -74.1384308, "tags": {"amenity": "bar"}}, {"type": "node", "id": 4424106900, "lat": 4.6187594, "lon": -74.1383597, "tags": {"amenity": "bar"}}, {"type": "node", "id": 4424106901, "lat": 4.6188934, "lon": -74.1383537, "tags": {"amenity": "bar"}}, {"type": "node", "id": 4424106902, "lat": 4.6187653, "lon": -74.1382984, "tags": {"amenity": "bar"}}, {"type": "node", "id": 4424106903, "lat": 4.6188845, "lon": -74.1382371, "tags": {"amenity": "bar"}}, {"type": "node", "id": 4424106904, "lat": 4.6188806, "lon": -74.1381728, "tags": {"amenity": "bar"}}, {"type": "node", "id": 4424106905, "lat": 4.6188707, "lon": -74.1381105, "tags": {"amenity": "bar"}}, {"type": "node", "id": 4424106906, "lat": 4.6187406, "lon": -74.1381698, "tags": {"amenity": "bar"}}, {"type": "node", "id": 4424106907, "lat": 4.6187318, "lon": -74.1380987, "tags": {"amenity": "bar"}}, {"type": "node", "id": 4424106908, "lat": 4.6187318, "lon": -74.1380443, "tags": {"amenity": "bar"}}, {"type": "node", "id": 4424106909, "lat": 4.6188668, "lon": -74.1380384, "tags": {"amenity": "bar"}}, {"type": "node", "id": 4424106910, "lat": 4.6188579, "lon": -74.1379761, "tags": {"amenity": "bar"}}, {"type": "node", "id": 4424106911, "lat": 4.6187298, "lon": -74.13798, "tags": {"amenity": "bar"}}, {"type": "node", "id": 4424106912, "lat": 4.6188579, "lon": -74.1379049, "tags": {"amenity": "bar"}}, {"type": "node", "id": 4424106913, "lat": 4.6187229, "lon": -74.1379217, "tags": {"amenity": "bar"}}, {"type": "node", "id": 4424106914, "lat": 4.6187288, "lon": -74.1378565, "tags": {"amenity": "bar"}}, {"type": "node", "id": 4424106915, "lat": 4.6188617, "lon": -74.1377789, "tags": {"amenity": "bar"}}, {"type": "node", "id": 4424106916, "lat": 4.6188529, "lon": -74.1375978, "tags": {"amenity": "bar"}}, {"type": "node", "id": 4424106917, "lat": 4.6190467, "lon": -74.1375139, "tags": {"amenity": "bar"}}, {"type": "node", "id": 4512503089, "lat": 4.5964302, "lon": -74.0693826, "tags": {"addr:housenumber": "12-65", "addr:street": "Carrera 1", "amenity": "pub", "name": "Casa Blue", "name:en": "Casa Blue", "name:es": "Casa Blue"}}, {"type": "node", "id": 4545785078, "lat": 4.6413365, "lon": -74.0643743, "tags": {"amenity": "bar", "outdoor_seating": "only"}}, {"type": "node", "id": 4599057991, "lat": 4.7168062, "lon": -74.2119019, "tags": {"amenity": "bar", "name": "Bar Arizona", "name:es": "Bar Arizona"}}, {"type": "node", "id": 4650285799, "lat": 4.6401429, "lon": -74.1483757, "tags": {"amenity": "bar", "name": "barcelona bar"}}, {"type": "node", "id": 4654929292, "lat": 4.6555044, "lon": -74.1060385, "tags": {"addr:city": "Bogot\u00e1", "addr:street": "Calle 25B", "amenity": "pub", "name": "Bogot\u00e1 Beer company", "name:es": "Bogot\u00e1 Beer company", "source": "Kaart Ground Survey 2017"}}, {"type": "node", "id": 4687578293, "lat": 4.6009108, "lon": -74.0682329, "tags": {"addr:street": "Calle 17", "amenity": "bar", "name": "L'Aldea", "name:es": "L'Aldea", "source": "Kaart Ground Survey 2017"}}, {"type": "node", "id": 4695701891, "lat": 4.6136176, "lon": -74.0664903, "tags": {"amenity": "pub", "name": "Cerveceria Irlandesa", "name:es": "Cerveceria Irlandesa", "opening_hours": "Mo-Sa 12:00-01:00; Su 12:00-21:00"}}, {"type": "node", "id": 4717364891, "lat": 4.5970701, "lon": -74.0696884, "tags": {"amenity": "bar", "name": "Bolon De Verde, Jazz Club", "name:es": "Bolon De Verde", "opening_hours": "We, Sa 18:00-01:00", "website": "https://m.facebook.com/pg/bolondeverdeclub/"}}, {"type": "node", "id": 4720305034, "lat": 4.5970867, "lon": -74.0695702, "tags": {"amenity": "bar", "name": "Bolon de Verde, Jazz Club", "opening_hours": "We, Sa 18:00-01:00", "website": "https://m.facebook.com/pg/bolondeverdeclub/"}}, {"type": "node", "id": 4745778580, "lat": 4.6703895, "lon": -74.0967347, "tags": {"amenity": "bar", "name": "La Cascada"}}, {"type": "node", "id": 4745778586, "lat": 4.6692002, "lon": -74.097003, "tags": {"amenity": "bar", "name": "Alcatraz"}}, {"type": "node", "id": 4745778596, "lat": 4.6695186, "lon": -74.0969257, "tags": {"amenity": "bar", "name": "Clan Fami"}}, {"type": "node", "id": 4747852181, "lat": 4.6113115, "lon": -74.1438831, "tags": {"amenity": "bar"}}, {"type": "node", "id": 4785481372, "lat": 4.6423536, "lon": -74.076576, "tags": {"amenity": "bar", "internet_access": "no", "internet_access:fee": "no", "name": "La Trampa Vallenata", "opening_hours": "17:00-03:00", "smoking": "isolated", "wheelchair": "no"}}, {"type": "node", "id": 4789281308, "lat": 4.6422313, "lon": -74.0759712, "tags": {"amenity": "bar", "internet_access": "yes", "internet_access:fee": "no", "name": "Sports Cafe Bar", "opening_hours": "Tu-Su 14:00-03:00", "smoking": "separated", "wheelchair": "no"}}, {"type": "node", "id": 4790932322, "lat": 4.6700346, "lon": -74.0549268, "tags": {"addr:street": "Calle 85", "amenity": "nightclub", "name:en": "Armando Records", "source": "Kaart Ground Survey 2017"}}, {"type": "node", "id": 4809857823, "lat": 4.600465, "lon": -74.0702664, "tags": {"addr:street": "Carrera 4", "amenity": "bar", "name": "El gato naranjo", "source": "Kaart Ground Survey 2017"}}, {"type": "node", "id": 4840098722, "lat": 4.6193311, "lon": -74.0664513, "tags": {"amenity": "nightclub", "name": "Baum", "name:es": "Baum"}}, {"type": "node", "id": 4845822622, "lat": 4.6131312, "lon": -74.069068, "tags": {"amenity": "nightclub", "name": "BLACK", "name:es": "BLACK"}}, {"type": "node", "id": 4845822721, "lat": 4.6170256, "lon": -74.0676047, "tags": {"amenity": "nightclub", "name": "Klan 31", "name:en": "Klan 31", "name:es": "Klan 31"}}, {"type": "node", "id": 4850967621, "lat": 4.6684277, "lon": -74.0539871, "tags": {"amenity": "nightclub", "name": "Dislobery", "name:es": "Dislobery"}}, {"type": "node", "id": 4867280621, "lat": 4.6698957, "lon": -74.0388267, "tags": {"amenity": "bar", "name": "GrindHouse", "name:en": "GrindHouse", "name:es": "GrindHouse"}}, {"type": "node", "id": 4870772523, "lat": 4.6271947, "lon": -74.0676196, "tags": {"amenity": "pub", "name": "BBC Bodega"}}, {"type": "node", "id": 4890098321, "lat": 4.6344388, "lon": -74.0773575, "tags": {"addr:street": "Calle 45", "amenity": "bar", "name": "Tramoya", "name:es": "Tramoya", "source": "Kaart Ground Survey 2017"}}, {"type": "node", "id": 4892458102, "lat": 4.6218909, "lon": -74.0909493, "tags": {"amenity": "bar", "name": "Cantina NN"}}, {"type": "node", "id": 4934072521, "lat": 4.6540019, "lon": -74.0600059, "tags": {"addr:housenumber": "#69-38", "addr:street": "Carrera 10", "amenity": "bar", "name": "El Mono Bandido", "name:es": "El Mono Bandido", "opening_hours": "Mo-Th 16:00-00:00; Fr-Sa 16:00-02:00"}}, {"type": "node", "id": 4957814021, "lat": 4.6010826, "lon": -74.0704281, "tags": {"amenity": "nightclub", "name": "Revellion Gastro Bar", "name:es": "Revellion Gastro Bar"}}, {"type": "node", "id": 4967091422, "lat": 4.6508118, "lon": -74.0634098, "tags": {"amenity": "nightclub", "name": "Video club", "name:en": "Video club", "name:es": "Video club"}}, {"type": "node", "id": 5015573938, "lat": 4.6004701, "lon": -74.0703501, "tags": {"addr:street": "Carrera 4", "amenity": "bar", "name": "Rosas", "name:es": "Rosas", "source": "Kaart Ground Survey 2017"}}, {"type": "node", "id": 5015574146, "lat": 4.6006289, "lon": -74.0717296, "tags": {"amenity": "bar", "name": "Jimenez", "name:es": "Jimenez"}}, {"type": "node", "id": 5015574150, "lat": 4.6005239, "lon": -74.0701275, "tags": {"amenity": "pub", "name": "Delfos pub", "name:es": "Delfos pub"}}, {"type": "node", "id": 5015574151, "lat": 4.6005441, "lon": -74.0699548, "tags": {"amenity": "pub", "name": "Doors bar y pub", "name:es": "Doors bar y pub"}}, {"type": "node", "id": 5015574153, "lat": 4.6005291, "lon": -74.070234, "tags": {"addr:street": "Carrera 4", "amenity": "bar", "name": "Papyros", "name:es": "Papyros", "source": "Kaart Ground Survey 2017"}}, {"type": "node", "id": 5018690398, "lat": 4.6002629, "lon": -74.070468}, {"type": "node", "id": 5018690401, "lat": 4.6002669, "lon": -74.0704907}, {"type": "node", "id": 5018690402, "lat": 4.6003885, "lon": -74.0705135}, {"type": "node", "id": 5018690403, "lat": 4.6003591, "lon": -74.0704666}, {"type": "node", "id": 5018690404, "lat": 4.6003712, "lon": -74.0704586}, {"type": "node", "id": 5018690407, "lat": 4.6003553, "lon": -74.0704118}, {"type": "node", "id": 5018690416, "lat": 4.600311, "lon": -74.0705739}, {"type": "node", "id": 5021040024, "lat": 4.5969687, "lon": -74.0712398, "tags": {"amenity": "pub", "name": "The Irish pub", "name:es": "The Irish pub"}}, {"type": "node", "id": 5027457222, "lat": 4.6296277, "lon": -74.074871, "tags": {"addr:city": "Bogot\u00e1", "addr:street": "Carrera 24", "amenity": "bar", "brewery": "yes", "name": "Bogot\u00e1 Beer Company Bodega", "outdoor_seating": "yes", "source": "Kaart Ground Survey 2017"}}, {"type": "node", "id": 5028843314, "lat": 4.618704, "lon": -74.0679271, "tags": {"amenity": "pub", "name": "Bogot\u00e1 Beer Company"}}, {"type": "node", "id": 5028885122, "lat": 4.6198158, "lon": -74.0742807, "tags": {"amenity": "pub", "name": "La Antioque\u00f1a"}}, {"type": "node", "id": 5043793221, "lat": 4.6003618, "lon": -74.0691103, "tags": {"amenity": "bar", "name": "Villa Tranvia", "name:es": "Villa Tranvia"}}, {"type": "node", "id": 5043793328, "lat": 4.5980534, "lon": -74.0695374, "tags": {"amenity": "bar", "name": "Super Chicha", "name:es": "Super Chicha"}}, {"type": "node", "id": 5046523921, "lat": 4.5952375, "lon": -74.073565, "tags": {"amenity": "bar", "name": "Bodega 15/08/17", "name:es": "Bodega 15/08/17"}}, {"type": "node", "id": 5055550222, "lat": 4.6324863, "lon": -74.0759899, "tags": {"addr:housenumber": "#4194", "addr:street": "Carrera 25", "amenity": "pub", "name:en": "Dos Carreras", "opening_hours": "Mo-Sa 15:00-23:00"}}, {"type": "node", "id": 5055555122, "lat": 4.6595584, "lon": -74.0673879, "tags": {"addr:housenumber": "#70a-60", "addr:street": "Carrera 22", "amenity": "bar", "name:en": "Cerveceria Gigante", "opening_hours": "Th-Sa 17:00-23:00"}}, {"type": "node", "id": 5055600421, "lat": 4.630424, "lon": -74.074102, "tags": {"addr:housenumber": "#21-34", "addr:street": "Calle 40", "amenity": "bar", "internet_access": "wlan", "name:en": "Cervecer\u00eda Statua Rota", "opening_hours": "Mo 17:00-00:00; Tu-We 17:00-03:00; Th-Sa 12:00-03:00", "source": "Kaart Ground Survey 2017"}}, {"type": "node", "id": 5055607121, "lat": 4.6750349, "lon": -74.049081, "tags": {"addr:housenumber": "#12-11", "addr:street": "Calle 93", "amenity": "bar", "internet_access": "wlan", "name:en": "Tap House", "opening_hours": "Mo-We 16:00-22:00; Th-Sa 16:00-02:00"}}, {"type": "node", "id": 5056362421, "lat": 4.6559061, "lon": -74.0588794, "tags": {"addr:housenumber": "#10-47", "addr:street": "Calle 71", "amenity": "bar", "name:en": "Tierra Santa"}}, {"type": "node", "id": 5057199225, "lat": 4.7477079, "lon": -74.0353728, "tags": {"amenity": "bar", "name:en": "Chelarte"}}, {"type": "node", "id": 5059143024, "lat": 4.6506208, "lon": -74.0691113, "tags": {"addr:city": "Bogot\u00e1 D.C.", "addr:street": "Avenida Calle 63", "amenity": "bar", "name": "Arsenal Colombia", "name:es": "Arsenal Colombia", "source": "Kaart Ground Survey 2017"}}, {"type": "node", "id": 5061020724, "lat": 4.6585874, "lon": -74.0665979, "tags": {"addr:city": "Chapinero", "addr:housenumber": "#69-33", "addr:street": "Carrera 20", "amenity": "bar", "name": "Bogota Beer Company La Bodega", "opening_hours": "Mo-Tu 15:00-21:00; We 14:00-22:00; Th 14:00-23:00; Fr 13:00-00:00; Sa 14:00-21:00", "source": "Kaart Ground Survey 2017"}}, {"type": "node", "id": 5080607722, "lat": 4.6508503, "lon": -74.0635093, "tags": {"addr:street": "Calle 64", "amenity": "bar", "name:en": "El TITIC\u00d3"}}, {"type": "node", "id": 5080614721, "lat": 4.6563282, "lon": -74.0597374, "tags": {"addr:street": "Calle 71", "amenity": "bar", "name:en": "Salsa Camar\u00e1"}}, {"type": "node", "id": 5093567322, "lat": 4.5990526, "lon": -74.0694152, "tags": {"addr:housenumber": "14-83", "addr:street": "Carrera 2", "amenity": "bar", "name": "Mitho Cafe", "name:en": "Mitho Cafe", "name:es": "Mitho Cafe", "name:fr": "Mitho Cafe"}}, {"type": "node", "id": 5093567323, "lat": 4.6005729, "lon": -74.0698032, "tags": {"addr:street": "Carrera 3", "amenity": "bar", "name": "The Doors", "name:es": "The Doors"}}, {"type": "node", "id": 5093567324, "lat": 4.600374, "lon": -74.069113, "tags": {"addr:street": "Calle 12F", "amenity": "bar", "name": "Tranvia Galeria", "name:en": "Tranvia Galeria", "name:es": "Tranvia Galeria", "name:fr": "Tranvia Galeria"}}, {"type": "node", "id": 5093567325, "lat": 4.6001048, "lon": -74.0692587, "tags": {"addr:housenumber": "12D", "addr:street": "Carrera 3", "amenity": "nightclub", "name": "La Tanda", "name:en": "La Tanda", "name:es": "La Tanda", "name:fr": "La Tanda"}}, {"type": "node", "id": 5093567421, "lat": 4.5989646, "lon": -74.0687756, "tags": {"amenity": "bar"}}, {"type": "node", "id": 5093567521, "lat": 4.5988394, "lon": -74.0694193, "tags": {"amenity": "bar"}}, {"type": "node", "id": 5118419948, "lat": 4.704125, "lon": -74.0257837}, {"type": "node", "id": 5118419949, "lat": 4.7042181, "lon": -74.0256389}, {"type": "node", "id": 5118419950, "lat": 4.7042898, "lon": -74.0257236}, {"type": "node", "id": 5118419951, "lat": 4.7042905, "lon": -74.0257814}, {"type": "node", "id": 5118419952, "lat": 4.704214, "lon": -74.0257257}, {"type": "node", "id": 5118419953, "lat": 4.7042555, "lon": -74.0256611}, {"type": "node", "id": 5122224568, "lat": 4.7486119, "lon": -74.0477296}, {"type": "node", "id": 5122224569, "lat": 4.7486445, "lon": -74.0477248}, {"type": "node", "id": 5122224570, "lat": 4.7486757, "lon": -74.0479141}, {"type": "node", "id": 5122224571, "lat": 4.748645, "lon": -74.0479185}, {"type": "node", "id": 5122268529, "lat": 4.7485993, "lon": -74.0513218, "tags": {"addr:street": "Calle 167", "amenity": "bar", "name": "La Guacaaraca", "source": "Kaart Ground Survey 2017"}}, {"type": "node", "id": 5126362084, "lat": 4.6333962, "lon": -74.0717039, "tags": {"addr:street": "Calle 45", "amenity": "bar", "name": "Mi Nueva Milan"}}, {"type": "node", "id": 5127009679, "lat": 4.7369577, "lon": -74.0221258, "tags": {"addr:street": "Calle 162A", "amenity": "bar", "name": "Bar La Playita", "source": "Kaart Ground Survey 2017"}}, {"type": "node", "id": 5127309407, "lat": 4.7225401, "lon": -74.0666608}, {"type": "node", "id": 5127309408, "lat": 4.7225803, "lon": -74.0666422}, {"type": "node", "id": 5127309409, "lat": 4.7226029, "lon": -74.0666911}, {"type": "node", "id": 5127309410, "lat": 4.7225627, "lon": -74.0667098}, {"type": "node", "id": 5127309414, "lat": 4.722596, "lon": -74.0666781}, {"type": "node", "id": 5128283165, "lat": 4.7626572, "lon": -74.0371627, "tags": {"addr:city": "Bogot\u00e1 D.C.", "addr:street": "Calle 186", "amenity": "bar", "name": "The Bar", "source": "Kaart Ground Survey 2017"}}, {"type": "node", "id": 5128351725, "lat": 4.7621147, "lon": -74.0370861, "tags": {"addr:city": "Bogot\u00e1 D.C.", "addr:street": "Carrera 15B", "amenity": "bar", "name": "Bolirana Bar", "source": "Kaart Ground Survey 2017"}}, {"type": "node", "id": 5128351731, "lat": 4.7625411, "lon": -74.0390553}, {"type": "node", "id": 5128351732, "lat": 4.7625127, "lon": -74.039059}, {"type": "node", "id": 5128351733, "lat": 4.7625103, "lon": -74.0390403}, {"type": "node", "id": 5128351734, "lat": 4.7625387, "lon": -74.0390366}, {"type": "node", "id": 5128789701, "lat": 4.6986607, "lon": -74.048763}, {"type": "node", "id": 5128789702, "lat": 4.6988095, "lon": -74.0487194}, {"type": "node", "id": 5128789703, "lat": 4.6987688, "lon": -74.0485796}, {"type": "node", "id": 5128789704, "lat": 4.6986199, "lon": -74.0486232}, {"type": "node", "id": 5130976239, "lat": 4.7502766, "lon": -74.0431813, "tags": {"addr:street": "Avenida Calle 170", "amenity": "nightclub", "name": "Club Level", "source": "Kaart Ground Survey 2017"}}, {"type": "node", "id": 5131781399, "lat": 4.7450431, "lon": -74.0464548, "tags": {"addr:street": "Calle 164", "amenity": "bar", "name": "Cigarrer\u00eda Bar Especial Express", "source": "Kaart Ground Survey 2017"}}, {"type": "node", "id": 5133516497, "lat": 4.6441858, "lon": -74.0617972}, {"type": "node", "id": 5133516498, "lat": 4.6443196, "lon": -74.0617592}, {"type": "node", "id": 5133516499, "lat": 4.6443384, "lon": -74.0618275}, {"type": "node", "id": 5133735347, "lat": 4.6511633, "lon": -74.0637121, "tags": {"addr:housenumber": "13-57", "addr:street": "Calle 64", "amenity": "bar", "name": "Lexus", "source": "Kaart Ground Survey 2017"}}, {"type": "node", "id": 5134496458, "lat": 4.6279637, "lon": -74.0700517, "tags": {"amenity": "bar"}}, {"type": "node", "id": 5135489622, "lat": 4.6141733, "lon": -74.0687528, "tags": {"addr:housenumber": "6-73", "addr:street": "Calle 27", "amenity": "bar", "name": "El Bembe Salsa Revolucion"}}, {"type": "node", "id": 5135616213, "lat": 4.7029426, "lon": -74.0321326}, {"type": "node", "id": 5135616214, "lat": 4.7028581, "lon": -74.0321587}, {"type": "node", "id": 5135905288, "lat": 4.7014949, "lon": -74.0482736, "tags": {"addr:street": "Calle 122", "amenity": "bar", "name": "Nick Havana", "source": "Kaart Ground Survey 2017"}}, {"type": "node", "id": 5135935700, "lat": 4.6787535, "lon": -74.0904789, "tags": {"addr:street": "Carrera 69", "amenity": "bar", "name": "Bar Pikikos", "source": "Kaart Ground Survey 2017"}}, {"type": "node", "id": 5136002142, "lat": 4.6235368, "lon": -74.0733367, "tags": {"addr:street": "Avenida Calle 34", "amenity": "nightclub", "name": "Club de Billares Manchester", "source": "Kaart Ground Survey 2017"}}, {"type": "node", "id": 5136329652, "lat": 4.612229, "lon": -74.0754268}, {"type": "node", "id": 5136329653, "lat": 4.6121817, "lon": -74.0753633}, {"type": "node", "id": 5136329654, "lat": 4.6122278, "lon": -74.0753287}, {"type": "node", "id": 5136329655, "lat": 4.6122754, "lon": -74.0753914}, {"type": "node", "id": 5136864749, "lat": 4.5833999, "lon": -74.1262796, "tags": {"addr:housenumber": "42-68", "addr:street": "Carrera 27", "amenity": "bar", "name": "MORRIS"}}, {"type": "node", "id": 5136864750, "lat": 4.5833923, "lon": -74.1263027, "tags": {"addr:housenumber": "42-72", "addr:street": "Carrera 27", "amenity": "bar", "name": "GLOBELL"}}, {"type": "node", "id": 5136864751, "lat": 4.5833812, "lon": -74.1263412, "tags": {"addr:housenumber": "42-72", "addr:street": "Carrera 27", "amenity": "bar", "name": "WANDS"}}, {"type": "node", "id": 5138183501, "lat": 4.6845423, "lon": -74.0916354, "tags": {"addr:street": "Carrera 70 Bis", "amenity": "bar", "name": "Matias Bar", "source": "Kaart Ground Survey 2017"}}, {"type": "node", "id": 5138368866, "lat": 4.6327104, "lon": -74.0697782}, {"type": "node", "id": 5138368867, "lat": 4.6326954, "lon": -74.0698791}, {"type": "node", "id": 5138368894, "lat": 4.6327186, "lon": -74.0693325, "tags": {"addr:city": "Bogot\u00e1", "addr:housenumber": "calle 45", "addr:postcode": "111311", "addr:street": "Carrera 15", "addr:unit": "49", "amenity": "bar", "name": "Black maria", "outdoor_seating": "no"}}, {"type": "node", "id": 5138924165, "lat": 4.6189769, "lon": -74.1145492, "tags": {"amenity": "bar", "operator": "Brisas del tolima"}}, {"type": "node", "id": 5140241977, "lat": 4.6326665, "lon": -74.0698646}, {"type": "node", "id": 5140435010, "lat": 4.5984808, "lon": -74.1244609}, {"type": "node", "id": 5140435011, "lat": 4.598412, "lon": -74.1243727}, {"type": "node", "id": 5140435012, "lat": 4.598415, "lon": -74.1245143}, {"type": "node", "id": 5140435013, "lat": 4.5983487, "lon": -74.1244259}, {"type": "node", "id": 5140435105, "lat": 4.5992727, "lon": -74.1242262}, {"type": "node", "id": 5140435106, "lat": 4.5991997, "lon": -74.1241473}, {"type": "node", "id": 5140435107, "lat": 4.5993126, "lon": -74.1241939}, {"type": "node", "id": 5140435108, "lat": 4.5992437, "lon": -74.1241113}, {"type": "node", "id": 5140658095, "lat": 4.7245815, "lon": -74.0307279, "tags": {"addr:city": "Bogot\u00e1 D.C.", "addr:street": "Calle 147", "amenity": "bar", "name": "Tr3s Copas", "source": "Kaart Ground Survey 2017"}}, {"type": "node", "id": 5140713060, "lat": 4.632621, "lon": -74.0698059}, {"type": "node", "id": 5141569078, "lat": 4.6340523, "lon": -74.165676, "tags": {"amenity": "bar", "name": "FDS"}}, {"type": "node", "id": 5141828569, "lat": 4.7193973, "lon": -74.1251761, "tags": {"amenity": "bar", "name": "La Tienda"}}, {"type": "node", "id": 5141902368, "lat": 4.7403696, "lon": -74.1029711, "tags": {"amenity": "bar"}}, {"type": "node", "id": 5141902370, "lat": 4.740264, "lon": -74.1027344, "tags": {"amenity": "bar"}}, {"type": "node", "id": 5141902371, "lat": 4.7398921, "lon": -74.1027922, "tags": {"amenity": "bar"}}, {"type": "node", "id": 5141911639, "lat": 4.6136284, "lon": -74.1097234, "tags": {"amenity": "bar", "name": "la frontera"}}, {"type": "node", "id": 5141916703, "lat": 4.7399844, "lon": -74.1035323, "tags": {"amenity": "bar"}}, {"type": "node", "id": 5141964579, "lat": 4.6052784, "lon": -74.1934722, "tags": {"addr:city": "Bosa", "addr:street": "Calle 70C Sur", "amenity": "bar", "name": "Bar la esquina"}}, {"type": "node", "id": 5141986142, "lat": 4.5994673, "lon": -74.1211941, "tags": {"amenity": "bar", "name": "cigarreria tovar"}}, {"type": "node", "id": 5141986397, "lat": 4.5971157, "lon": -74.1240674, "tags": {"addr:housenumber": "35", "addr:street": "Carrera 40A", "addr:unit": "05", "amenity": "bar", "name": "Donde fabi"}}, {"type": "node", "id": 5142075494, "lat": 4.6062297, "lon": -74.1937926, "tags": {"amenity": "bar", "name": "Bar"}}, {"type": "node", "id": 5142082999, "lat": 4.6313517, "lon": -74.0727671, "tags": {"amenity": "bar", "name": "pizza bar"}}, {"type": "node", "id": 5142089535, "lat": 4.6332662, "lon": -74.0722565, "tags": {"addr:housenumber": "19", "addr:street": "Calle 45", "amenity": "bar", "name": "Musa Bar", "source": "Kaart Ground Survey 2017"}}, {"type": "node", "id": 5142099576, "lat": 4.6335444, "lon": -74.073817, "tags": {"addr:street": "Calle 45", "amenity": "bar", "name": "ROCKOLA AND DRAFT", "source": "Kaart Ground Survey 2017"}}, {"type": "node", "id": 5142099579, "lat": 4.633432, "lon": -74.0731847, "tags": {"addr:street": "Calle 45", "amenity": "bar", "name": "Bar la 45", "source": "Kaart Ground Survey 2017"}}, {"type": "node", "id": 5142215658, "lat": 4.6329972, "lon": -74.0692877}, {"type": "node", "id": 5142215659, "lat": 4.6329762, "lon": -74.0692663}, {"type": "node", "id": 5142215660, "lat": 4.6329003, "lon": -74.0692693}, {"type": "node", "id": 5142215661, "lat": 4.6329017, "lon": -74.0693082}, {"type": "node", "id": 5142215662, "lat": 4.6329972, "lon": -74.0692991}, {"type": "node", "id": 5142234000, "lat": 4.608444, "lon": -74.1388972}, {"type": "node", "id": 5142234001, "lat": 4.6083995, "lon": -74.1390036}, {"type": "node", "id": 5142234019, "lat": 4.6083261, "lon": -74.1389721}, {"type": "node", "id": 5142234020, "lat": 4.6083809, "lon": -74.1388554}, {"type": "node", "id": 5143622421, "lat": 4.684774, "lon": -74.0812304}, {"type": "node", "id": 5143622422, "lat": 4.6847475, "lon": -74.0812662}, {"type": "node", "id": 5143622423, "lat": 4.6846701, "lon": -74.0812087}, {"type": "node", "id": 5143622424, "lat": 4.6846966, "lon": -74.0811728}, {"type": "node", "id": 5143622425, "lat": 4.6847562, "lon": -74.081128}, {"type": "node", "id": 5143622426, "lat": 4.6847652, "lon": -74.0811153}, {"type": "node", "id": 5143622427, "lat": 4.6847459, "lon": -74.0811016}, {"type": "node", "id": 5143622428, "lat": 4.6847626, "lon": -74.0810781}, {"type": "node", "id": 5143622429, "lat": 4.684828, "lon": -74.0811247}, {"type": "node", "id": 5143622430, "lat": 4.6848023, "lon": -74.0811609}, {"type": "node", "id": 5143793456, "lat": 4.6706457, "lon": -74.0785978, "tags": {"addr:street": "Calle 71", "amenity": "bar", "name": "Bar Corporaci\u00f3n", "source": "Kaart Ground Survey 2017"}}, {"type": "node", "id": 5144015603, "lat": 4.7281973, "lon": -74.0531285}, {"type": "node", "id": 5144015606, "lat": 4.7283053, "lon": -74.0530969}, {"type": "node", "id": 5144133868, "lat": 4.6687327, "lon": -74.0543438}, {"type": "node", "id": 5144133869, "lat": 4.6686422, "lon": -74.0543864}, {"type": "node", "id": 5144133872, "lat": 4.6687597, "lon": -74.0543985}, {"type": "node", "id": 5144133873, "lat": 4.6686686, "lon": -74.0544428}, {"type": "node", "id": 5144133891, "lat": 4.6689637, "lon": -74.0550191}, {"type": "node", "id": 5144133892, "lat": 4.6690496, "lon": -74.0549786}, {"type": "node", "id": 5144133894, "lat": 4.6690358, "lon": -74.0549492}, {"type": "node", "id": 5144133895, "lat": 4.6689499, "lon": -74.0549898}, {"type": "node", "id": 5144193661, "lat": 4.6740479, "lon": -74.0535659, "tags": {"addr:street": "Avenida Carrera 15", "amenity": "nightclub", "name": "Tan Go", "source": "Kaart Ground Survey 2017"}}, {"type": "node", "id": 5145191607, "lat": 4.679774, "lon": -74.0874562, "tags": {"addr:street": "Avenida Calle 72", "amenity": "nightclub", "name": "Discoteca", "source": "Kaart Ground Survey 2017"}}, {"type": "node", "id": 5145206837, "lat": 4.6712584, "lon": -74.0780996}, {"type": "node", "id": 5145206838, "lat": 4.6713306, "lon": -74.0781975}, {"type": "node", "id": 5145206839, "lat": 4.6712412, "lon": -74.0782638}, {"type": "node", "id": 5145206840, "lat": 4.671169, "lon": -74.0781659}, {"type": "node", "id": 5145570766, "lat": 4.6685172, "lon": -74.0535603}, {"type": "node", "id": 5145570769, "lat": 4.6685848, "lon": -74.0536233}, {"type": "node", "id": 5145570770, "lat": 4.6686594, "lon": -74.0535408}, {"type": "node", "id": 5145570771, "lat": 4.6685935, "lon": -74.05348}, {"type": "node", "id": 5145570783, "lat": 4.6690274, "lon": -74.0545372}, {"type": "node", "id": 5145570784, "lat": 4.669068, "lon": -74.054616}, {"type": "node", "id": 5145570785, "lat": 4.6692056, "lon": -74.0545446}, {"type": "node", "id": 5145570786, "lat": 4.6691649, "lon": -74.0544658}, {"type": "node", "id": 5145713054, "lat": 4.666841, "lon": -74.0776108, "tags": {"addr:street": "Calle 70", "amenity": "bar", "name": "La Estacion", "source": "Kaart Ground Survey 2017"}}, {"type": "node", "id": 5146003048, "lat": 4.6693169, "lon": -74.053733}, {"type": "node", "id": 5146003049, "lat": 4.6694171, "lon": -74.0536738}, {"type": "node", "id": 5146003050, "lat": 4.6694614, "lon": -74.0537492}, {"type": "node", "id": 5146003053, "lat": 4.6694406, "lon": -74.0537608}, {"type": "node", "id": 5146026955, "lat": 4.6703563, "lon": -74.0553379, "tags": {"addr:street": "Avenida Calle 85", "amenity": "bar", "name": "Corona", "source": "Kaart Ground Survey 2017"}}, {"type": "node", "id": 5147981913, "lat": 4.7289663, "lon": -74.0495536, "tags": {"addr:street": "Calle 146", "amenity": "nightclub", "club": "dancing", "name": "September Disco", "source": "Kaart Ground Survey 2017"}}, {"type": "node", "id": 5148012924, "lat": 4.6723735, "lon": -74.0951806, "tags": {"addr:street": "Calle 64C", "amenity": "bar", "name": "Bogot\u00e1 Beer Company", "source": "Kaart Ground Survey 2017"}}, {"type": "node", "id": 5148025403, "lat": 4.6777136, "lon": -74.0956494, "tags": {"addr:street": "Avenida Calle 66", "amenity": "bar", "name": "Bar Sebas", "source": "Kaart Ground Survey 2017"}}, {"type": "node", "id": 5148168038, "lat": 4.6753248, "lon": -74.098545, "tags": {"addr:street": "Carrera 70B", "amenity": "bar", "name": "Beer Master Bar", "source": "Kaart Ground Survey 2017"}}, {"type": "node", "id": 5148380706, "lat": 4.6760631, "lon": -74.0968813, "tags": {"addr:street": "Avenida Carrera 70", "amenity": "bar", "name": "Maracana Bar", "source": "Kaart Ground Survey 2017"}}, {"type": "node", "id": 5148622804, "lat": 4.6697162, "lon": -74.0682205, "tags": {"addr:street": "Calle 77", "amenity": "bar", "name": "Bar La Negra", "source": "Kaart Ground Survey 2017"}}, {"type": "node", "id": 5148762793, "lat": 4.6699574, "lon": -74.0683047, "tags": {"addr:street": "Calle 77", "amenity": "bar", "name": "Bar Rackela Eden Hall", "source": "Kaart Ground Survey 2017"}}, {"type": "node", "id": 5148845791, "lat": 4.6905551, "lon": -74.1173914, "tags": {"addr:street": "Transversal 93", "amenity": "bar", "name": "Bar Juank", "source": "Kaart Ground Survey 2017"}}, {"type": "node", "id": 5150062152, "lat": 4.7184684, "lon": -74.069528, "tags": {"addr:street": "Calle 129", "amenity": "bar", "name": "Pcaific Club CAV", "source": "Kaart Ground Survey 2017"}}, {"type": "node", "id": 5150219454, "lat": 4.6702833, "lon": -74.1064437, "tags": {"addr:street": "Carrera 71C", "amenity": "pub", "name": "England Pub", "source": "Kaart Ground Survey 2017"}}, {"type": "node", "id": 5150232099, "lat": 4.670429, "lon": -74.1061762, "tags": {"addr:street": "Avenida Calle 53", "amenity": "bar", "name": "Vlady Karaoke Bar", "source": "Kaart Ground Survey 2017"}}, {"type": "node", "id": 5150232822, "lat": 4.6693569, "lon": -74.1050956}, {"type": "node", "id": 5150232823, "lat": 4.6693046, "lon": -74.105045}, {"type": "node", "id": 5150232824, "lat": 4.6692302, "lon": -74.1051245}, {"type": "node", "id": 5150232825, "lat": 4.6692872, "lon": -74.105175}, {"type": "node", "id": 5150934766, "lat": 4.6969854, "lon": -74.1128244, "tags": {"addr:street": "Calle 70A", "amenity": "bar", "name": "La Chuchis", "source": "Kaart Ground Survey 2017"}}, {"type": "node", "id": 5152439630, "lat": 4.8063927, "lon": -74.105104}, {"type": "node", "id": 5152439631, "lat": 4.8063367, "lon": -74.1050383}, {"type": "node", "id": 5152439632, "lat": 4.8062122, "lon": -74.1051453}, {"type": "node", "id": 5152439633, "lat": 4.8062683, "lon": -74.105211}, {"type": "node", "id": 5152593398, "lat": 4.7036771, "lon": -74.0926319, "tags": {"addr:street": "Diagonal 83", "amenity": "bar", "name": "Zarek Cigarrer\u00eda Bar", "source": "Kaart Ground Survey 2017"}}, {"type": "node", "id": 5157665831, "lat": 4.7398664, "lon": -74.029322, "tags": {"addr:street": "Calle 163A", "amenity": "bar", "name": "Los Pinos D'J", "source": "Kaart Ground Survey 2017"}}, {"type": "node", "id": 5157673751, "lat": 4.6888846, "lon": -74.0966283, "tags": {"addr:street": "Carrera 73A", "amenity": "bar", "name": "Blue Label Bar", "source": "Kaart Ground Survey 2017"}}, {"type": "node", "id": 5157673756, "lat": 4.6888409, "lon": -74.0966995, "tags": {"addr:street": "Avenida Calle 72", "amenity": "bar", "name": "La Barra VIP", "source": "Kaart Ground Survey 2017"}}, {"type": "node", "id": 5157767789, "lat": 4.6911193, "lon": -74.0996179, "tags": {"addr:street": "Avenida Calle 72", "amenity": "bar", "name": "Tattos Bar", "source": "Kaart Ground Survey 2017"}}, {"type": "node", "id": 5157811152, "lat": 4.6922579, "lon": -74.101026, "tags": {"addr:street": "Avenida Calle 72", "amenity": "bar", "name": "Bogot\u00e1 Oh La L\u00e1", "source": "Kaart Ground Survey 2017"}}, {"type": "node", "id": 5157932257, "lat": 4.7161215, "lon": -74.0558815}, {"type": "node", "id": 5157932258, "lat": 4.7161123, "lon": -74.0557853}, {"type": "node", "id": 5157932259, "lat": 4.7162033, "lon": -74.0557758}, {"type": "node", "id": 5157932260, "lat": 4.7162128, "lon": -74.0558721}, {"type": "node", "id": 5159682247, "lat": 4.697818, "lon": -74.1037756, "tags": {"addr:street": "Calle 74 Bis", "amenity": "bar", "name": "La Columna Bar", "source": "Kaart Ground Survey 2017"}}, {"type": "node", "id": 5159761210, "lat": 4.7282146, "lon": -74.0531881}, {"type": "node", "id": 5159761213, "lat": 4.7283226, "lon": -74.0531565}, {"type": "node", "id": 5159861587, "lat": 4.6968294, "lon": -74.0945408, "tags": {"addr:street": "Calle 78", "amenity": "bar", "name": "El Rincon Guavate\u00f1o", "source": "Kaart Ground Survey 2017"}}, {"type": "node", "id": 5161076397, "lat": 4.6963799, "lon": -74.1001191, "tags": {"addr:street": "Calle 75", "amenity": "bar", "name": "Bar la Clave 75", "source": "Kaart Ground Survey 2017"}}, {"type": "node", "id": 5161089410, "lat": 4.6984752, "lon": -74.0978635, "tags": {"addr:street": "Calle 77A", "amenity": "bar", "name": "la Bonita", "source": "Kaart Ground Survey 2017"}}, {"type": "node", "id": 5161264705, "lat": 4.6973009, "lon": -74.0987518, "tags": {"addr:street": "Calle 76", "amenity": "bar", "name": "Tropezon Bar", "source": "Kaart Ground Survey 2017"}}, {"type": "node", "id": 5161384427, "lat": 4.7219154, "lon": -74.0523769, "tags": {"addr:street": "Carrera 45A", "amenity": "bar", "name": "Tabaco y Channel", "source": "Kaart Ground Survey 2017"}}, {"type": "node", "id": 5161417176, "lat": 4.6980289, "lon": -74.0692127, "tags": {"addr:street": "Avenida Suba", "amenity": "bar", "name": "Bogota Beer Company", "source": "Kaart Ground Survey 2017"}}, {"type": "node", "id": 5161607064, "lat": 4.7089346, "lon": -74.1001486, "tags": {"addr:street": "Carrera 90", "amenity": "bar", "name": "Bar la Amistad", "source": "Kaart Ground Survey 2017"}}, {"type": "node", "id": 5161805377, "lat": 4.7064149, "lon": -74.1050311}, {"type": "node", "id": 5161805378, "lat": 4.7063334, "lon": -74.1049417}, {"type": "node", "id": 5161805379, "lat": 4.7063967, "lon": -74.1048836}, {"type": "node", "id": 5161805380, "lat": 4.7064782, "lon": -74.1049731}, {"type": "node", "id": 5161938625, "lat": 4.7319417, "lon": -74.098738, "tags": {"addr:street": "Carrera 102A", "amenity": "pub", "name": "Black Pub", "source": "Kaart Ground Survey 2017"}}, {"type": "node", "id": 5162872659, "lat": 4.731347, "lon": -74.0452041, "tags": {"addr:city": "Bogot\u00e1 D.C.", "addr:street": "Avenida Carrera 19", "amenity": "pub", "name": "San Arnold Pub", "source": "Kaart Ground Survey 2017"}}, {"type": "node", "id": 5162872664, "lat": 4.7309682, "lon": -74.0452793, "tags": {"addr:city": "Bogot\u00e1 D.C.", "addr:street": "Avenida Carrera 19", "amenity": "nightclub", "name": "Salome", "source": "Kaart Ground Survey 2017"}}, {"type": "node", "id": 5163072820, "lat": 4.731395, "lon": -74.044831, "tags": {"addr:city": "Bogot\u00e1 D.C.", "addr:street": "Avenida Carrera 19", "amenity": "bar", "name": "Pool Bar", "source": "Kaart Ground Survey 2017"}}, {"type": "node", "id": 5163472549, "lat": 4.7103565, "lon": -74.0946338, "tags": {"addr:street": "Calle 90", "amenity": "nightclub", "name": "Karaoke en la Voz", "source": "Kaart Ground Survey 2017"}}, {"type": "node", "id": 5163543357, "lat": 4.7151691, "lon": -74.0560561, "tags": {"addr:street": "Carrera 49", "amenity": "bar", "name": "Club de Billares Bumangues", "source": "Kaart Ground Survey 2017"}}, {"type": "node", "id": 5163543383, "lat": 4.7141215, "lon": -74.0542472, "tags": {"addr:street": "Calle 128B", "amenity": "bar", "name": "Bar Ruta 128", "source": "Kaart Ground Survey 2017"}}, {"type": "node", "id": 5163987262, "lat": 4.6961247, "lon": -74.157203, "tags": {"addr:street": "Avenida Carrera 129", "amenity": "bar", "name": "Contreras", "source": "Kaart Ground Survey 2017"}}, {"type": "node", "id": 5164081547, "lat": 4.6952726, "lon": -74.1149304, "tags": {"addr:street": "Carrera 94", "amenity": "bar", "name": "Bar Punto Rojo", "source": "Kaart Ground Survey 2017"}}, {"type": "node", "id": 5165776922, "lat": 4.6890515, "lon": -74.1041316, "tags": {"addr:street": "Carrera 80", "amenity": "bar", "name": "Video Bar Donde Liz", "source": "Kaart Ground Survey 2017"}}, {"type": "node", "id": 5165776951, "lat": 4.6913124, "lon": -74.1023909, "tags": {"addr:street": "Carrera 80", "amenity": "bar", "name": "Camale\u00f3n", "source": "Kaart Ground Survey 2017"}}, {"type": "node", "id": 5165905750, "lat": 4.7647658, "lon": -74.0298869}, {"type": "node", "id": 5165905751, "lat": 4.7647284, "lon": -74.0298921}, {"type": "node", "id": 5165905752, "lat": 4.764724, "lon": -74.0298601}, {"type": "node", "id": 5165905753, "lat": 4.7647614, "lon": -74.0298549}, {"type": "node", "id": 5166197379, "lat": 4.6844883, "lon": -74.0993688, "tags": {"addr:street": "Calle 68B", "amenity": "bar", "source": "Kaart Ground Survey 2017"}}, {"type": "node", "id": 5168219756, "lat": 4.7648422, "lon": -74.0275532, "tags": {"addr:city": "Bogot\u00e1 D.C.", "addr:street": "Carrera 7", "amenity": "bar", "name": "El Soler", "source": "Kaart Ground Survey 2017"}}, {"type": "node", "id": 5171612603, "lat": 4.6525107, "lon": -74.0664539, "tags": {"addr:city": "Chapinero", "addr:street": "Calle 63C", "amenity": "nightclub", "name": "D Kulb Klan", "source": "Kaart Ground Survey 2017"}}, {"type": "node", "id": 5171778899, "lat": 4.7257661, "lon": -74.0960447, "tags": {"addr:street": "Calle 128C", "amenity": "pub", "name": "El Rinc\u00f3n Bohem\u00edo", "source": "Kaart Ground Survey 2017"}}, {"type": "node", "id": 5171788736, "lat": 4.6468714, "lon": -74.0646382, "tags": {"addr:street": "Carrera 13A", "amenity": "bar", "name": "El Campin", "source": "Kaart Ground Survey 2017"}}, {"type": "node", "id": 5171798520, "lat": 4.6784339, "lon": -74.1017746}, {"type": "node", "id": 5171808321, "lat": 4.6785066, "lon": -74.10171}, {"type": "node", "id": 5171808322, "lat": 4.678575, "lon": -74.1017874}, {"type": "node", "id": 5171850735, "lat": 4.7209474, "lon": -74.0930635}, {"type": "node", "id": 5171850736, "lat": 4.7209098, "lon": -74.0930129}, {"type": "node", "id": 5171850737, "lat": 4.7208073, "lon": -74.0930898}, {"type": "node", "id": 5171850738, "lat": 4.7208449, "lon": -74.0931403}, {"type": "node", "id": 5171941684, "lat": 4.6521562, "lon": -74.063612, "tags": {"addr:street": "Calle 65", "amenity": "bar", "name": "Abbot Rock Bar", "source": "Kaart Ground Survey 2017"}}, {"type": "node", "id": 5172046964, "lat": 4.6496527, "lon": -74.0658632, "tags": {"addr:city": "Bogot\u00e1 D.C.", "addr:street": "Avenida Calle 63", "amenity": "bar", "name": "Bar La 15", "source": "Kaart Ground Survey 2017"}}, {"type": "node", "id": 5172067138, "lat": 4.6499601, "lon": -74.1021743}, {"type": "node", "id": 5172067139, "lat": 4.6499464, "lon": -74.1022139}, {"type": "node", "id": 5172067140, "lat": 4.6496482, "lon": -74.1020958}, {"type": "node", "id": 5172067141, "lat": 4.6495692, "lon": -74.1023154}, {"type": "node", "id": 5172067142, "lat": 4.649522, "lon": -74.1024474}, {"type": "node", "id": 5172067143, "lat": 4.649535, "lon": -74.1024533}, {"type": "node", "id": 5172067144, "lat": 4.6496544, "lon": -74.1024964}, {"type": "node", "id": 5172067145, "lat": 4.649743, "lon": -74.1023177}, {"type": "node", "id": 5172067146, "lat": 4.6498809, "lon": -74.1023196}, {"type": "node", "id": 5172067147, "lat": 4.6499654, "lon": -74.102429}, {"type": "node", "id": 5172067148, "lat": 4.6499645, "lon": -74.1024999}, {"type": "node", "id": 5172067149, "lat": 4.6500237, "lon": -74.1022033}, {"type": "node", "id": 5172067150, "lat": 4.6493004, "lon": -74.1020821}, {"type": "node", "id": 5172067151, "lat": 4.6495518, "lon": -74.1021807}, {"type": "node", "id": 5172067152, "lat": 4.6498121, "lon": -74.1023029}, {"type": "node", "id": 5172067153, "lat": 4.649933, "lon": -74.1025634}, {"type": "node", "id": 5172067154, "lat": 4.6498081, "lon": -74.102622}, {"type": "node", "id": 5172067155, "lat": 4.6496845, "lon": -74.1025607}, {"type": "node", "id": 5173409293, "lat": 4.6488539, "lon": -74.0641345, "tags": {"addr:street": "Calle 62", "amenity": "bar", "name": "Taberna Bar Nico", "source": "Kaart Ground Survey 2017"}}, {"type": "node", "id": 5173472791, "lat": 4.6514447, "lon": -74.0633431, "tags": {"addr:street": "Carrera 13", "amenity": "nightclub", "name": "Karaoke", "source": "Kaart Ground Survey 2017"}}, {"type": "node", "id": 5173707363, "lat": 4.7337794, "lon": -74.0885159}, {"type": "node", "id": 5173707364, "lat": 4.7337573, "lon": -74.0884669}, {"type": "node", "id": 5173707365, "lat": 4.7337062, "lon": -74.08849}, {"type": "node", "id": 5173707366, "lat": 4.7337282, "lon": -74.088539}, {"type": "node", "id": 5173736181, "lat": 4.644723, "lon": -74.0631052, "tags": {"addr:street": "Carrera 9", "amenity": "bar", "name": "La Vecy", "source": "Kaart Ground Survey 2017"}}, {"type": "node", "id": 5173815526, "lat": 4.6424273, "lon": -74.0767036}, {"type": "node", "id": 5173815527, "lat": 4.6424512, "lon": -74.0768497}, {"type": "node", "id": 5173815528, "lat": 4.6425624, "lon": -74.0768341}, {"type": "node", "id": 5173815530, "lat": 4.6425504, "lon": -74.0767482}, {"type": "node", "id": 5173815531, "lat": 4.6425728, "lon": -74.0766799}, {"type": "node", "id": 5173815532, "lat": 4.6425834, "lon": -74.0767428}, {"type": "node", "id": 5173815533, "lat": 4.6424171, "lon": -74.0766469}, {"type": "node", "id": 5173815534, "lat": 4.6425634, "lon": -74.076622}, {"type": "node", "id": 5173834371, "lat": 4.6453959, "lon": -74.0625206, "tags": {"addr:street": "Carrera 9", "amenity": "bar", "name": "La Esquina Bar", "source": "Kaart Ground Survey 2017"}}, {"type": "node", "id": 5173842786, "lat": 4.6781442, "lon": -74.0809452, "tags": {"addr:street": "Carrera 65", "amenity": "bar", "name": "La Jungla", "source": "Kaart Ground Survey 2017"}}, {"type": "node", "id": 5174878830, "lat": 4.6463987, "lon": -74.0633081, "tags": {"addr:street": "Calle 60", "amenity": "bar", "name": "Tri3ar", "source": "Kaart Ground Survey 2017"}}, {"type": "node", "id": 5175221697, "lat": 4.6301255, "lon": -74.0748224, "tags": {"addr:city": "Bogot\u00e1", "addr:street": "Carrera 24", "amenity": "pub", "brewery": "yes", "name": "Pubway", "source": "Kaart Ground Survey 2017"}}, {"type": "node", "id": 5175375821, "lat": 4.7094662, "lon": -74.0497796, "tags": {"amenity": "bar", "name": "Americano jardin infantil clara ines salsedo", "name:en": "Bilingue"}}, {"type": "node", "id": 5175537602, "lat": 4.6223136, "lon": -74.0681524, "tags": {"addr:street": "Carrera 13", "amenity": "bar", "name": "Bar y Licores", "source": "Kaart Ground Survey 2017"}}, {"type": "node", "id": 5175538031, "lat": 4.62175, "lon": -74.0682592, "tags": {"addr:street": "Carrera 13", "amenity": "bar", "name": "Inferno Bar", "source": "Kaart Ground Survey 2017"}}, {"type": "node", "id": 5176500721, "lat": 4.749517, "lon": -74.0843277, "tags": {"amenity": "bar", "name": "Pinarin jardin pedagogico imelda directora"}}, {"type": "node", "id": 5177240717, "lat": 4.6411165, "lon": -74.075967}, {"type": "node", "id": 5177240718, "lat": 4.6411926, "lon": -74.075953}, {"type": "node", "id": 5177244523, "lat": 4.6410997, "lon": -74.0758743}, {"type": "node", "id": 5177244524, "lat": 4.641176, "lon": -74.0758607}, {"type": "node", "id": 5178602077, "lat": 4.6964466, "lon": -74.1261929, "tags": {"addr:street": "Carrera 105", "amenity": "nightclub", "name": "Club Katrina", "source": "Kaart Ground Survey 2017"}}, {"type": "node", "id": 5178602082, "lat": 4.6965609, "lon": -74.1260292, "tags": {"addr:street": "Carrera 105", "amenity": "bar", "name": "Ibiza", "source": "Kaart Ground Survey 2017"}}, {"type": "node", "id": 5178949552, "lat": 4.6435305, "lon": -74.0765461, "tags": {"addr:street": "Calle 53B", "amenity": "bar", "name": "Cafeteria Bar", "source": "Kaart Ground Survey 2017"}}, {"type": "node", "id": 5179041261, "lat": 4.7008821, "lon": -74.1245882, "tags": {"addr:street": "Carrera 105F", "amenity": "bar", "name": "Bar Angy", "source": "Kaart Ground Survey 2017"}}, {"type": "node", "id": 5179173367, "lat": 4.702879, "lon": -74.0322147}, {"type": "node", "id": 5179173368, "lat": 4.7029635, "lon": -74.0321862}, {"type": "node", "id": 5184141172, "lat": 4.7007349, "lon": -74.1320859, "tags": {"addr:street": "Avenida Calle 63", "amenity": "bar", "name": "Taberna Bar los Caballitos", "source": "Kaart Ground Survey 2017"}}, {"type": "node", "id": 5184254390, "lat": 4.7029836, "lon": -74.1152709, "tags": {"addr:city": "Bogot\u00e1 D.C.", "addr:street": "Avenida Calle 72", "amenity": "nightclub", "name": "Club De Billares EL Polo", "source": "Kaart Ground Survey 2017"}}, {"type": "node", "id": 5184633281, "lat": 4.7041956, "lon": -74.1171775, "tags": {"addr:street": "Avenida Calle 72", "amenity": "bar", "name": "Atelier", "source": "Kaart Ground Survey 2017"}}, {"type": "node", "id": 5184633289, "lat": 4.7041143, "lon": -74.1170852, "tags": {"addr:street": "Avenida Calle 72", "amenity": "bar", "name": "Sheriff Taberna", "source": "Kaart Ground Survey 2017"}}, {"type": "node", "id": 5184676089, "lat": 4.7031445, "lon": -74.1159724, "tags": {"addr:street": "Avenida Calle 72", "amenity": "bar", "name": "Blue Bay", "source": "Kaart Ground Survey 2017"}}, {"type": "node", "id": 5184676110, "lat": 4.7027446, "lon": -74.1154845, "tags": {"addr:street": "Avenida Calle 72", "amenity": "bar", "name": "Cafe Parrilla Bar", "source": "Kaart Ground Survey 2017"}}, {"type": "node", "id": 5184676114, "lat": 4.702812, "lon": -74.1155664, "tags": {"addr:street": "Avenida Calle 72", "amenity": "bar", "name": "Aguaymant", "source": "Kaart Ground Survey 2017"}}, {"type": "node", "id": 5184721094, "lat": 4.7025766, "lon": -74.115323, "tags": {"addr:street": "Avenida Calle 72", "amenity": "bar", "name": "Disco Bar", "source": "Kaart Ground Survey 2017"}}, {"type": "node", "id": 5184721108, "lat": 4.7022938, "lon": -74.1150547, "tags": {"addr:street": "Avenida Calle 72", "amenity": "bar", "name": "Kaluha Bar", "source": "Kaart Ground Survey 2017"}}, {"type": "node", "id": 5184721114, "lat": 4.7020773, "lon": -74.1147615, "tags": {"addr:street": "Avenida Calle 72", "amenity": "bar", "name": "Barrockola V8", "source": "Kaart Ground Survey 2017"}}, {"type": "node", "id": 5184721120, "lat": 4.7020264, "lon": -74.1146559, "tags": {"addr:street": "Avenida Calle 72", "amenity": "bar", "name": "Dubai", "source": "Kaart Ground Survey 2017"}}, {"type": "node", "id": 5184796782, "lat": 4.7021615, "lon": -74.1165673, "tags": {"addr:street": "Calle 71B", "amenity": "bar", "name": "Tercer Tiempo", "source": "Kaart Ground Survey 2017"}}, {"type": "node", "id": 5186234364, "lat": 4.7043777, "lon": -74.1316502}, {"type": "node", "id": 5186234365, "lat": 4.7043179, "lon": -74.1315902}, {"type": "node", "id": 5186234366, "lat": 4.7043629, "lon": -74.1315451}, {"type": "node", "id": 5186234367, "lat": 4.7044226, "lon": -74.1316051}, {"type": "node", "id": 5186892408, "lat": 4.7193511, "lon": -74.1210873, "tags": {"addr:street": "Calle 79", "amenity": "bar", "name": "Villas Bar", "source": "Kaart Ground Survey 2017"}}, {"type": "node", "id": 5187236547, "lat": 4.6945432, "lon": -74.1177072}, {"type": "node", "id": 5187236548, "lat": 4.6945748, "lon": -74.1177561}, {"type": "node", "id": 5187236549, "lat": 4.6944499, "lon": -74.1178375}, {"type": "node", "id": 5187236550, "lat": 4.6944183, "lon": -74.1177886}, {"type": "node", "id": 5187397558, "lat": 4.7162872, "lon": -74.118223, "tags": {"addr:street": "Carrera 110", "amenity": "bar", "name": "La Nevade Sabanera", "source": "Kaart Ground Survey 2017"}}, {"type": "node", "id": 5188968875, "lat": 4.6039768, "lon": -74.0686875}, {"type": "node", "id": 5188968876, "lat": 4.6036209, "lon": -74.06836}, {"type": "node", "id": 5188968877, "lat": 4.6038388, "lon": -74.0687627}, {"type": "node", "id": 5200543521, "lat": 4.7235991, "lon": -74.0862381, "tags": {"amenity": "bar", "name": "Hogar wiliam"}}, {"type": "node", "id": 5202353721, "lat": 4.7374113, "lon": -74.0982608, "tags": {"amenity": "bar", "name": "Mundo feliz de los ni\u00f1os oriental"}}, {"type": "node", "id": 5202612161, "lat": 4.6058261, "lon": -74.0720188, "tags": {"addr:street": "Avenida Calle 19", "amenity": "bar", "name": "Terraza Bar", "source": "Kaart Ground Survey 2017"}}, {"type": "node", "id": 5203057134, "lat": 4.6033854, "lon": -74.0683287, "tags": {"addr:street": "Avenida Calle 19", "amenity": "pub", "name": "Capital Pub", "source": "Kaart Ground Survey 2017"}}, {"type": "node", "id": 5203244023, "lat": 4.5622422, "lon": -74.0889724}, {"type": "node", "id": 5203244024, "lat": 4.562224, "lon": -74.0889212}, {"type": "node", "id": 5203244027, "lat": 4.5622062, "lon": -74.0889854}, {"type": "node", "id": 5203244028, "lat": 4.5621879, "lon": -74.0889331}, {"type": "node", "id": 5208928458, "lat": 4.5883215, "lon": -74.1072652, "tags": {"addr:housenumber": "24-11", "addr:street": "Calle 20 Sur", "amenity": "bar", "name": "Punto Paisa", "source": "Kaart Ground Survey 2017"}}, {"type": "node", "id": 5209140321, "lat": 4.672242, "lon": -74.0536374, "tags": {"addr:housenumber": "# 87-71", "addr:postcode": "148771", "addr:street": "Carrera 14", "amenity": "bar", "internet_access": "wlan", "name": "El Pepino bar", "name:en": "Music House Hostel", "tourism": "hostel"}}, {"type": "node", "id": 5209173442, "lat": 4.5723569, "lon": -74.0980812, "tags": {"addr:street": "Calle 27 Sur", "amenity": "bar", "name": "Willo's Rumba Bar", "source": "Kaart Ground Survey 2017"}}, {"type": "node", "id": 5214751036, "lat": 4.6131893, "lon": -74.075049, "tags": {"addr:street": "Calle 24", "amenity": "bar", "name": "Bar la Almendra", "source": "Kaart Ground Survey 2017"}}, {"type": "node", "id": 5214856549, "lat": 4.6115255, "lon": -74.0722423, "tags": {"addr:street": "Carrera 13", "amenity": "bar", "name": "Bartender", "source": "Kaart Ground Survey 2017"}}, {"type": "node", "id": 5216312102, "lat": 4.6135603, "lon": -74.0751597, "tags": {"addr:street": "Calle 24", "amenity": "bar", "name": "Bar el Trebol", "source": "Kaart Ground Survey 2017"}}, {"type": "node", "id": 5216312124, "lat": 4.6128997, "lon": -74.0745427, "tags": {"addr:street": "Calle 24", "amenity": "bar", "source": "Kaart Ground Survey 2017"}}, {"type": "node", "id": 5216312131, "lat": 4.6128349, "lon": -74.0744123, "tags": {"addr:street": "Calle 24", "amenity": "bar", "name": "Bar la Mona de la 24", "source": "Kaart Ground Survey 2017"}}, {"type": "node", "id": 5217110336, "lat": 4.6180166, "lon": -74.1132156, "tags": {"addr:street": "Carrera 50", "amenity": "bar", "name": "Licorera Bar La 50", "source": "Kaart Ground Survey 2017"}}, {"type": "node", "id": 5219979493, "lat": 4.6529745, "lon": -74.0611539, "tags": {"addr:housenumber": "67-20", "addr:street": "Avenida Carrera 11", "amenity": "bar", "name": "Matik Matik", "source": "Kaart Ground Survey 2017"}}, {"type": "node", "id": 5220063642, "lat": 4.6337178, "lon": -74.0719791, "tags": {"addr:street": "Carrera 19", "amenity": "bar", "name": "Sazon de la Vega", "source": "Kaart Ground Survey 2017"}}, {"type": "node", "id": 5220449348, "lat": 4.5794186, "lon": -74.108374, "tags": {"addr:street": "Calle 28 Sur", "amenity": "bar", "name": "Licor y menta", "source": "Kaart Ground Survey 2017"}}, {"type": "node", "id": 5222104736, "lat": 4.5988409, "lon": -74.0862345, "tags": {"addr:street": "Calle 6A", "amenity": "bar", "name": "Cigarria el Malague\u00f1o", "source": "Kaart Ground Survey 2017"}}, {"type": "node", "id": 5222377211, "lat": 4.5937329, "lon": -74.0899573, "tags": {"addr:street": "Transversal 17A", "amenity": "bar", "name": "Video Bar", "source": "Kaart Ground Survey 2017"}}, {"type": "node", "id": 5226769745, "lat": 4.6135206, "lon": -74.0762341, "tags": {"addr:street": "Carrera 17", "amenity": "bar", "name": "Bar Santander", "source": "Kaart Ground Survey 2017"}}, {"type": "node", "id": 5226813317, "lat": 4.5419187, "lon": -74.0839218, "tags": {"addr:street": "Carrera 13 B E", "amenity": "bar", "name": "Bar JDG", "source": "Kaart Ground Survey 2017"}}, {"type": "node", "id": 5227170395, "lat": 4.5987431, "lon": -74.0857215, "tags": {"addr:street": "Carrera 15A", "amenity": "bar", "name": "La Ultima y Nos Vamos", "source": "Kaart Ground Survey 2017"}}, {"type": "node", "id": 5227216492, "lat": 4.5665393, "lon": -74.0972619, "tags": {"addr:street": "Calle 30D Sur", "amenity": "bar", "name": "El Portal", "source": "Kaart Ground Survey 2017"}}, {"type": "node", "id": 5228549466, "lat": 4.5896297, "lon": -74.1035466, "tags": {"addr:housenumber": "24-60", "addr:street": "Diagonal 13 Sur", "amenity": "bar", "operator": "Bar Los Recuerdos", "source": "Kaart Ground Survey 2017"}}, {"type": "node", "id": 5228589558, "lat": 4.5919311, "lon": -74.0954074}, {"type": "node", "id": 5228589559, "lat": 4.5919881, "lon": -74.0953628}, {"type": "node", "id": 5228589560, "lat": 4.5919396, "lon": -74.0953004}, {"type": "node", "id": 5228589561, "lat": 4.5918822, "lon": -74.0953484}, {"type": "node", "id": 5228617695, "lat": 4.6305567, "lon": -74.0835833, "tags": {"addr:street": "Avenida Calle 26", "amenity": "bar", "name": "Punto 26", "source": "Kaart Ground Survey 2017"}}, {"type": "node", "id": 5228825300, "lat": 4.5971946, "lon": -74.0877272}, {"type": "node", "id": 5228825301, "lat": 4.5971948, "lon": -74.087659}, {"type": "node", "id": 5228825302, "lat": 4.5969308, "lon": -74.0876581}, {"type": "node", "id": 5228825303, "lat": 4.5969306, "lon": -74.0877263}, {"type": "node", "id": 5228935449, "lat": 4.5663575, "lon": -74.1028595, "tags": {"addr:street": "Calle 35 Sur", "amenity": "bar", "name": "Aguila La Isla", "source": "Kaart Ground Survey 2017"}}, {"type": "node", "id": 5228995169, "lat": 4.5657428, "lon": -74.1004482}, {"type": "node", "id": 5228995170, "lat": 4.56577, "lon": -74.1004161}, {"type": "node", "id": 5228995171, "lat": 4.5658048, "lon": -74.1004458}, {"type": "node", "id": 5228995172, "lat": 4.5657776, "lon": -74.1004779}, {"type": "node", "id": 5229059180, "lat": 4.6532977, "lon": -74.06134, "tags": {"addr:housenumber": "67-43", "addr:street": "Avenida Carrera 11", "amenity": "pub", "name": "Lareal", "source": "Kaart Ground Survey 2017"}}, {"type": "node", "id": 5229107093, "lat": 4.5895292, "lon": -74.0985612}, {"type": "node", "id": 5229107094, "lat": 4.5895366, "lon": -74.0986134}, {"type": "node", "id": 5229107095, "lat": 4.5894864, "lon": -74.0986023}, {"type": "node", "id": 5229107096, "lat": 4.5894864, "lon": -74.0985799}, {"type": "node", "id": 5229107097, "lat": 4.5890904, "lon": -74.0999465}, {"type": "node", "id": 5229107102, "lat": 4.5890527, "lon": -74.0999836}, {"type": "node", "id": 5229107103, "lat": 4.5889977, "lon": -74.0999279}, {"type": "node", "id": 5229107104, "lat": 4.5890347, "lon": -74.0998907}, {"type": "node", "id": 5229109380, "lat": 4.5850892, "lon": -74.0984804}, {"type": "node", "id": 5229109385, "lat": 4.5850521, "lon": -74.0985184}, {"type": "node", "id": 5229109386, "lat": 4.5849927, "lon": -74.0984599}, {"type": "node", "id": 5229109387, "lat": 4.5850297, "lon": -74.098422}, {"type": "node", "id": 5229109398, "lat": 4.5843056, "lon": -74.0996763, "tags": {"addr:street": "Ciclovia Calle 17 Sur", "amenity": "bar", "name": "Pa Latinos", "source": "Kaart Ground Survey 2017"}}, {"type": "node", "id": 5229109408, "lat": 4.5847176, "lon": -74.1000686, "tags": {"addr:housenumber": "16-77", "addr:street": "Ciclovia Calle 17 Sur", "amenity": "bar", "name": "Terraza Boulevar", "source": "Kaart Ground Survey 2017"}}, {"type": "node", "id": 5229169770, "lat": 4.554714, "lon": -74.0970146, "tags": {"addr:street": "Calle 37B Sur", "amenity": "bar", "name": "El Pachuno", "source": "Kaart Ground Survey 2017"}}, {"type": "node", "id": 5230656438, "lat": 4.6515815, "lon": -74.0620936, "tags": {"addr:housenumber": "65-31", "addr:street": "Avenida Carrera 11", "amenity": "bar", "name": "La Fonda Del Camino", "source": "Kaart Ground Survey 2017"}}, {"type": "node", "id": 5230709974, "lat": 4.5478505, "lon": -74.0933697, "tags": {"addr:street": "Calle 43 Sur", "amenity": "bar", "name": "Bar Tres Esquinas", "source": "Kaart Ground Survey 2017"}}, {"type": "node", "id": 5230789414, "lat": 4.547121, "lon": -74.1377934, "tags": {"addr:street": "Calle 70C S", "amenity": "nightclub", "name": "Balcon de Las Quintas Club", "source": "Kaart Ground Survey 2017"}}, {"type": "node", "id": 5230831020, "lat": 4.5469282, "lon": -74.1380007}, {"type": "node", "id": 5230831721, "lat": 4.5468582, "lon": -74.1379827}, {"type": "node", "id": 5230831724, "lat": 4.5469199, "lon": -74.1380334}, {"type": "node", "id": 5230831725, "lat": 4.5468498, "lon": -74.1380154}, {"type": "node", "id": 5230925240, "lat": 4.5545466, "lon": -74.0970356, "tags": {"addr:street": "Calle 37B Sur", "amenity": "bar", "name": "Bar el Paraiso Aquilar", "source": "Kaart Ground Survey 2017"}}, {"type": "node", "id": 5231440941, "lat": 4.6918276, "lon": -74.0513332, "tags": {"addr:street": "Avenida Carrera 19", "amenity": "bar", "name": "Star's Box", "source": "Kaart Ground Survey 2017"}}, {"type": "node", "id": 5231451581, "lat": 4.6309202, "lon": -74.1071848}, {"type": "node", "id": 5231451582, "lat": 4.6308741, "lon": -74.1072214}, {"type": "node", "id": 5231451583, "lat": 4.630929, "lon": -74.1072909}, {"type": "node", "id": 5231451584, "lat": 4.630975, "lon": -74.1072543}, {"type": "node", "id": 5231597142, "lat": 4.5516178, "lon": -74.1388756, "tags": {"addr:city": "Bogot\u00e1", "addr:street": "Calle 66A Sur", "amenity": "bar", "name": "Bar Bolitejo", "source": "Kaart Ground Survey 2017"}}, {"type": "node", "id": 5233005720, "lat": 4.6246584, "lon": -74.0974794, "tags": {"addr:street": "Carrera 42 Bis", "amenity": "bar", "name": "Karaoke", "source": "Kaart Ground Survey 2017"}}, {"type": "node", "id": 5233194847, "lat": 4.6693546, "lon": -74.1052464}, {"type": "node", "id": 5233194848, "lat": 4.6694257, "lon": -74.1051741}, {"type": "node", "id": 5233194855, "lat": 4.6687857, "lon": -74.104535, "tags": {"addr:street": "Avenida Calle 53", "amenity": "bar", "name": "Bar Rockola", "source": "Kaart Ground Survey 2017"}}, {"type": "node", "id": 5233194856, "lat": 4.6688081, "lon": -74.1045568, "tags": {"addr:street": "Avenida Calle 53", "amenity": "bar", "name": "Mr. Monkey", "source": "Kaart Ground Survey 2017"}}, {"type": "node", "id": 5233194857, "lat": 4.6688383, "lon": -74.1045982, "tags": {"addr:street": "Avenida Calle 53", "amenity": "bar", "name": "Ibiza Terraza", "source": "Kaart Ground Survey 2017"}}, {"type": "node", "id": 5233194858, "lat": 4.668881, "lon": -74.104628, "tags": {"addr:street": "Avenida Calle 53", "amenity": "bar", "name": "Shots 53", "source": "Kaart Ground Survey 2017"}}, {"type": "node", "id": 5233362540, "lat": 4.6671775, "lon": -74.1185075}, {"type": "node", "id": 5233362543, "lat": 4.6672314, "lon": -74.1184523}, {"type": "node", "id": 5233362544, "lat": 4.6671545, "lon": -74.1183758}, {"type": "node", "id": 5233362545, "lat": 4.6671005, "lon": -74.1184291}, {"type": "node", "id": 5233362548, "lat": 4.66718, "lon": -74.1184039}, {"type": "node", "id": 5233510712, "lat": 4.6786695, "lon": -74.0963372}, {"type": "node", "id": 5233510713, "lat": 4.6785269, "lon": -74.0961622}, {"type": "node", "id": 5233510714, "lat": 4.6784636, "lon": -74.0962142}, {"type": "node", "id": 5233510715, "lat": 4.6786062, "lon": -74.0963892}, {"type": "node", "id": 5233739122, "lat": 4.6687384, "lon": -74.1233984, "tags": {"addr:street": "Carrera 82", "amenity": "bar", "name": "Billares Model\u00eda", "source": "Kaart Ground Survey 2017", "sport": "billiards"}}, {"type": "node", "id": 5233766019, "lat": 4.6364211, "lon": -74.1174845, "tags": {"addr:street": "Avenida Calle 13", "amenity": "bar", "name": "Copacabana", "source": "Kaart Ground Survey 2017"}}, {"type": "node", "id": 5235215760, "lat": 4.6427436, "lon": -74.1133421, "tags": {"addr:city": "Bogot\u00e1 D.C.", "addr:street": "Calle 19", "amenity": "bar", "name": "Monte Video Bar", "source": "Kaart Ground Survey 2017"}}, {"type": "node", "id": 5235215791, "lat": 4.6395206, "lon": -74.1208689, "tags": {"addr:city": "Bogot\u00e1 D.C.", "addr:street": "Avenida Calle 13", "amenity": "nightclub", "name": "Manhattan", "source": "Kaart Ground Survey 2017"}}, {"type": "node", "id": 5235474196, "lat": 4.6107918, "lon": -74.1373116, "tags": {"addr:city": "Bogot\u00e1 D.C.", "addr:street": "Carrera 69", "amenity": "bar", "name": "La Oficina Paisa Bar", "source": "Kaart Ground Survey 2017"}}, {"type": "node", "id": 5235495605, "lat": 4.6136441, "lon": -74.1353295}, {"type": "node", "id": 5235495606, "lat": 4.613535, "lon": -74.1354744}, {"type": "node", "id": 5235495607, "lat": 4.6134368, "lon": -74.1354}, {"type": "node", "id": 5235495608, "lat": 4.6135459, "lon": -74.1352551}, {"type": "node", "id": 5235511906, "lat": 4.6504717, "lon": -74.1224288, "tags": {"addr:city": "Bogot\u00e1", "addr:street": "Calle 19", "amenity": "bar", "name": "Mi Baco", "source": "Kaart Ground Survey 2017"}}, {"type": "node", "id": 5235553472, "lat": 4.6137449, "lon": -74.1355154}, {"type": "node", "id": 5235553473, "lat": 4.6138046, "lon": -74.1354534}, {"type": "node", "id": 5235553474, "lat": 4.6137591, "lon": -74.1354094}, {"type": "node", "id": 5235553475, "lat": 4.6136995, "lon": -74.1354713}, {"type": "node", "id": 5235553501, "lat": 4.6118525, "lon": -74.1339993}, {"type": "node", "id": 5235553502, "lat": 4.6120169, "lon": -74.1338046}, {"type": "node", "id": 5235553503, "lat": 4.6119737, "lon": -74.133745}, {"type": "node", "id": 5235553504, "lat": 4.611798, "lon": -74.1339529}, {"type": "node", "id": 5239696740, "lat": 4.6032212, "lon": -74.1226404}, {"type": "node", "id": 5239696741, "lat": 4.6031105, "lon": -74.1227515}, {"type": "node", "id": 5239696742, "lat": 4.6030671, "lon": -74.122708}, {"type": "node", "id": 5239696743, "lat": 4.6031779, "lon": -74.122597}, {"type": "node", "id": 5239701257, "lat": 4.6108307, "lon": -74.1325624, "tags": {"addr:street": "Carrera 68G Bis", "amenity": "bar", "name": "GH Bar", "source": "Kaart Ground Survey 2017"}}, {"type": "node", "id": 5239863234, "lat": 4.6080613, "lon": -74.1275028}, {"type": "node", "id": 5239863235, "lat": 4.608151, "lon": -74.1274164}, {"type": "node", "id": 5239863236, "lat": 4.608187, "lon": -74.127454}, {"type": "node", "id": 5239863237, "lat": 4.6080973, "lon": -74.1275404}, {"type": "node", "id": 5240087366, "lat": 4.6157164, "lon": -74.1327738}, {"type": "node", "id": 5240087367, "lat": 4.6156802, "lon": -74.1328404}, {"type": "node", "id": 5240087368, "lat": 4.615939, "lon": -74.1329817}, {"type": "node", "id": 5240087369, "lat": 4.6159752, "lon": -74.1329151}, {"type": "node", "id": 5240174966, "lat": 4.6143656, "lon": -74.1354451, "tags": {"addr:city": "Bogot\u00e1 D.C.", "addr:street": "Avenida Primero de Mayo", "amenity": "bar", "name": "Anggelus", "source": "Kaart Ground Survey 2017"}}, {"type": "node", "id": 5240174970, "lat": 4.6145424, "lon": -74.1355892, "tags": {"addr:street": "Avenida Primero de Mayo", "amenity": "bar", "name": "Billares El Gran Paris", "source": "Kaart Ground Survey 2017"}}, {"type": "node", "id": 5240174971, "lat": 4.6146176, "lon": -74.1356458, "tags": {"addr:city": "Bogot\u00e1 D.C.", "addr:street": "Avenida Primero de Mayo", "amenity": "bar", "name": "Karoake Plaza Bar", "source": "Kaart Ground Survey 2017"}}, {"type": "node", "id": 5240174974, "lat": 4.6150517, "lon": -74.1357476}, {"type": "node", "id": 5240174975, "lat": 4.6148959, "lon": -74.1359359}, {"type": "node", "id": 5240174976, "lat": 4.6151244, "lon": -74.135812}, {"type": "node", "id": 5240174977, "lat": 4.6149712, "lon": -74.1359961}, {"type": "node", "id": 5240174978, "lat": 4.615015, "lon": -74.1360321}, {"type": "node", "id": 5240174979, "lat": 4.6151668, "lon": -74.1358424}, {"type": "node", "id": 5240174980, "lat": 4.6150784, "lon": -74.136083}, {"type": "node", "id": 5240174981, "lat": 4.6152301, "lon": -74.1358933}, {"type": "node", "id": 5240174982, "lat": 4.6151119, "lon": -74.1360422}, {"type": "node", "id": 5240174983, "lat": 4.6151534, "lon": -74.1360765}, {"type": "node", "id": 5240174984, "lat": 4.6151199, "lon": -74.1361173}, {"type": "node", "id": 5240174985, "lat": 4.6152705, "lon": -74.1359273}, {"type": "node", "id": 5240174986, "lat": 4.6153246, "lon": -74.135965}, {"type": "node", "id": 5240174987, "lat": 4.6151742, "lon": -74.136164}, {"type": "node", "id": 5240174989, "lat": 4.6153656, "lon": -74.1360022}, {"type": "node", "id": 5240174992, "lat": 4.6153513, "lon": -74.1362762}, {"type": "node", "id": 5240174993, "lat": 4.615226, "lon": -74.1361704}, {"type": "node", "id": 5240174994, "lat": 4.6154918, "lon": -74.1361047}, {"type": "node", "id": 5240174995, "lat": 4.6154167, "lon": -74.1363344}, {"type": "node", "id": 5240174996, "lat": 4.6155623, "lon": -74.1361668}, {"type": "node", "id": 5240174997, "lat": 4.6154656, "lon": -74.1363772}, {"type": "node", "id": 5240174998, "lat": 4.6156112, "lon": -74.1362096}, {"type": "node", "id": 5240175004, "lat": 4.6156358, "lon": -74.1365298, "tags": {"addr:city": "Bogot\u00e1 D.C.", "addr:street": "Avenida Primero de Mayo", "amenity": "nightclub", "name": "Club Mariachi Caballo lacno", "source": "Kaart Ground Survey 2017"}}, {"type": "node", "id": 5240175019, "lat": 4.6163145, "lon": -74.1370332, "tags": {"addr:city": "Bogot\u00e1 D.C.", "addr:street": "Avenida Primero de Mayo", "amenity": "nightclub", "name": "Keops", "source": "Kaart Ground Survey 2017"}}, {"type": "node", "id": 5240175628, "lat": 4.6166903, "lon": -74.1373233}, {"type": "node", "id": 5240175629, "lat": 4.6166961, "lon": -74.137006}, {"type": "node", "id": 5240175630, "lat": 4.6169284, "lon": -74.1370089}, {"type": "node", "id": 5240175631, "lat": 4.6169215, "lon": -74.1373302}, {"type": "node", "id": 5240254490, "lat": 4.6251777, "lon": -74.1309911}, {"type": "node", "id": 5240254491, "lat": 4.6251672, "lon": -74.1308434}, {"type": "node", "id": 5240254492, "lat": 4.6252643, "lon": -74.1308364}, {"type": "node", "id": 5240254493, "lat": 4.6252748, "lon": -74.1309841}, {"type": "node", "id": 5240262719, "lat": 4.623057, "lon": -74.1173443, "tags": {"addr:street": "Calle 4D", "amenity": "bar", "name": "Bianka", "source": "Kaart Ground Survey 2017"}}, {"type": "node", "id": 5241241080, "lat": 4.6209924, "lon": -74.1186105, "tags": {"addr:street": "Carrera 56", "amenity": "bar", "name": "Hard Beer", "source": "Kaart Ground Survey 2017"}}, {"type": "node", "id": 5241252963, "lat": 4.6208364, "lon": -74.1187615, "tags": {"addr:street": "Carrera 56", "amenity": "bar", "name": "Samoa Bar", "source": "Kaart Ground Survey 2017"}}, {"type": "node", "id": 5241257866, "lat": 4.6215187, "lon": -74.1124466, "tags": {"addr:street": "Carrera 53B", "amenity": "bar", "name": "Dep\u00f3sito de Cerveza San Rafael", "source": "Kaart Ground Survey 2017"}}, {"type": "node", "id": 5241276266, "lat": 4.6178868, "lon": -74.1376977}, {"type": "node", "id": 5241276267, "lat": 4.6176168, "lon": -74.1377059}, {"type": "node", "id": 5241276268, "lat": 4.6176255, "lon": -74.137996}, {"type": "node", "id": 5241276273, "lat": 4.6189647, "lon": -74.1376455, "tags": {"addr:housenumber": "5-29", "addr:street": "Carrera 71D", "amenity": "bar", "name": "Fusion Bar and Disco", "source": "Kaart Ground Survey 2017"}}, {"type": "node", "id": 5241281545, "lat": 4.6233329, "lon": -74.1145842, "tags": {"addr:street": "Calle 5A", "amenity": "bar", "name": "Zona VIP", "source": "Kaart Ground Survey 2017"}}, {"type": "node", "id": 5241502867, "lat": 4.6195422, "lon": -74.1374952, "tags": {"addr:housenumber": "4-15", "addr:street": "Carrera 71D", "amenity": "bar", "name": "Sunset Cafe Bar", "source": "Kaart Ground Survey 2017"}}, {"type": "node", "id": 5241502883, "lat": 4.6197885, "lon": -74.1375012, "tags": {"addr:housenumber": "3A-37 -", "addr:street": "Carrera 71D", "amenity": "bar", "name": "Canterbury Cafe Bar", "source": "Kaart Ground Survey 2017"}}, {"type": "node", "id": 5241502885, "lat": 4.6200599, "lon": -74.1375071, "tags": {"addr:housenumber": "3A-05", "addr:street": "Carrera 71D", "amenity": "bar", "name": "Martina Bar", "source": "Kaart Ground Survey 2017"}}, {"type": "node", "id": 5241636910, "lat": 4.6117036, "lon": -74.1132134, "tags": {"addr:city": "Bogot\u00e1 D.C.", "addr:street": "Calle 2D", "amenity": "bar", "name": "J.R.K. Bar Social", "source": "Kaart Ground Survey 2017"}}, {"type": "node", "id": 5241825685, "lat": 4.6232206, "lon": -74.1120421, "tags": {"addr:street": "Carrera 53C", "amenity": "bar", "name": "Bombillo Verde", "source": "Kaart Ground Survey 2017"}}, {"type": "node", "id": 5242976828, "lat": 4.597664, "lon": -74.1006559, "tags": {"addr:city": "Bogot\u00e1 D.C.", "addr:street": "Avenida Carrera 27", "amenity": "bar", "name": "Copacabana", "source": "Kaart Ground Survey 2017"}}, {"type": "node", "id": 5243286691, "lat": 4.5671059, "lon": -74.1327863}, {"type": "node", "id": 5243286692, "lat": 4.567051, "lon": -74.1327524}, {"type": "node", "id": 5243286693, "lat": 4.5671111, "lon": -74.1326801}, {"type": "node", "id": 5243286694, "lat": 4.5671314, "lon": -74.1326982}, {"type": "node", "id": 5243286695, "lat": 4.5671381, "lon": -74.1327291}, {"type": "node", "id": 5243464865, "lat": 4.5960579, "lon": -74.1386972, "tags": {"addr:city": "Bogot\u00e1 D.C.", "addr:street": "Calle 40 Sur", "amenity": "bar", "name": "Los del Valle", "source": "Kaart Ground Survey 2017"}}, {"type": "node", "id": 5251169349, "lat": 4.6332057, "lon": -74.1483006, "tags": {"addr:city": "Bogot\u00e1", "addr:street": "Calle 6A Bis", "amenity": "bar", "name": "Iron Horse", "source": "Kaart Ground Survey 2017"}}, {"type": "node", "id": 5252764531, "lat": 4.6415834, "lon": -74.1604656, "tags": {"addr:street": "Calle 2", "amenity": "bar", "name": "Bar Ginebra Pub", "source": "Kaart Ground Survey 2017"}}, {"type": "node", "id": 5254247756, "lat": 4.6123065, "lon": -74.1385337, "tags": {"addr:street": "Carrera 69B", "amenity": "bar", "name": "Bar el Apero", "source": "Kaart Ground Survey 2017"}}, {"type": "node", "id": 5258084651, "lat": 4.6308569, "lon": -74.0662948}, {"type": "node", "id": 5258084653, "lat": 4.6309149, "lon": -74.0662861}, {"type": "node", "id": 5258084654, "lat": 4.6308663, "lon": -74.0663579}, {"type": "node", "id": 5258084655, "lat": 4.6309242, "lon": -74.0663492}, {"type": "node", "id": 5297588665, "lat": 4.7533354, "lon": -74.0586699, "tags": {"amenity": "bar", "name": "El Sofa"}}, {"type": "node", "id": 5312069723, "lat": 4.7030421, "lon": -74.1345721, "tags": {"amenity": "bar", "name": "Juego Limpio"}}, {"type": "node", "id": 5312873823, "lat": 4.6917299, "lon": -74.050429, "tags": {"amenity": "bar"}}, {"type": "node", "id": 5319468323, "lat": 4.5790265, "lon": -74.126094, "tags": {"amenity": "bar", "name": "shy"}}, {"type": "node", "id": 5322079933, "lat": 4.7156857, "lon": -74.2085217, "tags": {"amenity": "bar", "name": "Bar luci"}}, {"type": "node", "id": 5335552935, "lat": 4.7170891, "lon": -74.2130119, "tags": {"amenity": "bar", "name": "Bar Gay Alcal\u00e1", "name:es": "Bar Gay Alcal\u00e1"}}, {"type": "node", "id": 5379921878, "lat": 4.7417387, "lon": -74.08388}, {"type": "node", "id": 5379921879, "lat": 4.7417134, "lon": -74.0837864}, {"type": "node", "id": 5389993585, "lat": 4.7123591, "lon": -74.113457, "tags": {"amenity": "bar"}}, {"type": "node", "id": 5415543623, "lat": 4.648721, "lon": -74.0566471, "tags": {"amenity": "bar", "name": "BBC"}}, {"type": "node", "id": 5419367034, "lat": 4.6698714, "lon": -74.0545358, "tags": {"amenity": "bar", "name": "Armando records"}}, {"type": "node", "id": 5438525122, "lat": 4.600071, "lon": -74.0705904, "tags": {"addr:postcode": "111711", "addr:street": "Calle 12D # 4-02", "amenity": "bar", "internet_access": "wlan", "name": "Bogot\u00e1 Beer Company La Candelaria", "opening_hours": "Su-We 12:00-02:00; Th-Sa 12:00-03:00", "website": "http://bogotabeercompany.com"}}, {"type": "node", "id": 5438616023, "lat": 4.6002553, "lon": -74.0705173, "tags": {"addr:postcode": "111711", "addr:street": "Calle 12D # 4-02", "amenity": "bar", "internet_access": "wlan", "name": "Bogot\u00e1 Beer Company La Candelaria", "opening_hours": "Su-We 12:00-02:00; Th-Sa 12:00-03:00", "website": "http://bogotabeercompany.com"}}, {"type": "node", "id": 5451643921, "lat": 4.6003084, "lon": -74.0706886, "tags": {"amenity": "bar", "name": "Casa de Manu"}}, {"type": "node", "id": 5483069522, "lat": 4.7050997, "lon": -74.0491237, "tags": {"amenity": "bar", "name": "BBC La Bodega"}}, {"type": "node", "id": 5487206721, "lat": 4.7376958, "lon": -74.0308315, "tags": {"amenity": "bar", "name": "Beer bar"}}, {"type": "node", "id": 5495053498, "lat": 4.6973601, "lon": -74.0903386, "tags": {"amenity": "bar", "name": "john"}}, {"type": "node", "id": 5539142924, "lat": 4.6032442, "lon": -74.0705186, "tags": {"amenity": "bar", "name:en": "quite Rafa to"}}, {"type": "node", "id": 5543816940, "lat": 4.6690054, "lon": -74.0830984, "tags": {"addr:street": "60", "amenity": "bar", "name": "La Bodega - Bogota Beer Company"}}, {"type": "node", "id": 5562890027, "lat": 4.6002005, "lon": -74.0705119}, {"type": "node", "id": 5562890028, "lat": 4.6002419, "lon": -74.0705508}, {"type": "node", "id": 5562890029, "lat": 4.6002882, "lon": -74.0705308}, {"type": "node", "id": 5569868080, "lat": 4.6112892, "lon": -74.220874, "tags": {"amenity": "public_bookcase", "name": "Minibiblioteca 6"}}, {"type": "node", "id": 5661642857, "lat": 4.6752498, "lon": -74.0216172}, {"type": "node", "id": 5661642858, "lat": 4.6752498, "lon": -74.021455}, {"type": "node", "id": 5661642859, "lat": 4.6751104, "lon": -74.0214325}, {"type": "node", "id": 5661642860, "lat": 4.675107, "lon": -74.021612}, {"type": "node", "id": 5744983722, "lat": 4.668447, "lon": -74.0542335, "tags": {"amenity": "bar", "name:en": "Black sheep"}}, {"type": "node", "id": 5744986321, "lat": 4.668763, "lon": -74.0541072, "tags": {"amenity": "bar", "name:en": "Hotel V bar"}}, {"type": "node", "id": 5744986322, "lat": 4.6032177, "lon": -74.0706732, "tags": {"amenity": "bar", "name:en": "Quiebracanto"}}, {"type": "node", "id": 5744986323, "lat": 4.6132658, "lon": -74.0753543, "tags": {"amenity": "nightclub", "name:en": "Paisas nightclub"}}, {"type": "node", "id": 5744991921, "lat": 4.6132212, "lon": -74.075451, "tags": {"amenity": "nightclub", "name:en": "Fiebre nightclub"}}, {"type": "node", "id": 5790593053, "lat": 4.7496572, "lon": -74.0439333, "tags": {"addr:housenumber": "169-10", "addr:street": "Carrera 21", "amenity": "bar", "name": "Tropical Drinks", "opening_hours": "We-Th 15:00-01:00; Fr-Sa 16:00-03:00"}}, {"type": "node", "id": 5839924886, "lat": 4.6976879, "lon": -74.0462314, "tags": {"addr:street": "Carrera 17", "amenity": "bar", "name": "District Music Lab", "opening_hours": "Mo-Su 12:00-03:00"}}, {"type": "node", "id": 5859845320, "lat": 4.6141796, "lon": -74.2122257}, {"type": "node", "id": 5859845323, "lat": 4.614285, "lon": -74.2122046}, {"type": "node", "id": 5866253886, "lat": 4.6759176, "lon": -74.0473685, "tags": {"amenity": "pub", "name": "London Calling"}}, {"type": "node", "id": 5938945697, "lat": 4.6328427, "lon": -74.0699959, "tags": {"amenity": "bar"}}, {"type": "node", "id": 5949896359, "lat": 4.6078833, "lon": -74.2187361, "tags": {"amenity": "public_bookcase"}}, {"type": "node", "id": 5949896360, "lat": 4.6055573, "lon": -74.214521, "tags": {"amenity": "public_bookcase"}}, {"type": "node", "id": 6006058443, "lat": 4.6721814, "lon": -74.1073982, "tags": {"addr:city": "Bogot\u00e1", "addr:street": "Avenida Calle 53", "amenity": "bar", "name": "Rockola Bar Daniela"}}, {"type": "node", "id": 6008897430, "lat": 4.624268, "lon": -74.0710371, "tags": {"addr:city": "Bogota", "addr:street": "Carrera 16", "amenity": "bar", "name": "Van Der"}}, {"type": "node", "id": 6016385394, "lat": 4.6291763, "lon": -74.0703935, "tags": {"amenity": "bar", "name": "La 40"}}, {"type": "node", "id": 6016385396, "lat": 4.6228568, "lon": -74.0712324, "tags": {"amenity": "bar", "name": "El Bukowski"}}, {"type": "node", "id": 6016404547, "lat": 4.620567, "lon": -74.0728761, "tags": {"amenity": "bar", "name": "La Barber\u00eda"}}, {"type": "node", "id": 6025186352, "lat": 4.6405351, "lon": -74.0720418, "tags": {"addr:city": "Bogot\u00e1", "addr:housenumber": "52-12", "addr:street": "Carrera 21", "amenity": "bar", "name": "Donde Mao"}}, {"type": "node", "id": 6025597663, "lat": 4.6554552, "lon": -74.0606415, "tags": {"amenity": "bar", "brewery": "yes", "name": "Full Party Halloween 2018 maldita sea", "outdoor_seating": "yes"}}, {"type": "node", "id": 6026248305, "lat": 4.6172577, "lon": -74.0731506, "tags": {"addr:street": "Carrera 16", "amenity": "bar", "name": "Teusa Bar"}}, {"type": "node", "id": 6026248319, "lat": 4.6207204, "lon": -74.0712562, "tags": {"addr:city": "Bogot\u00e1", "addr:street": "Calle 32", "amenity": "bar", "name": "UVV"}}, {"type": "node", "id": 6027701441, "lat": 4.627517, "lon": -74.0818214, "tags": {"addr:city": "Bogot\u00e1", "addr:street": "Carrera 31", "amenity": "bar", "name": "Prelibato"}}, {"type": "node", "id": 6032719495, "lat": 4.6341475, "lon": -74.0781946, "tags": {"addr:city": "Bogot\u00e1", "addr:street": "Calle 45", "amenity": "nightclub", "description": "Rumba Crossover", "name": "Studio 45"}}, {"type": "node", "id": 6035016904, "lat": 4.6335944, "lon": -74.0729452, "tags": {"addr:city": "Bogot\u00e1", "addr:street": "Calle 45", "amenity": "pub", "name": "Cervecistas"}}, {"type": "node", "id": 6035016905, "lat": 4.6335844, "lon": -74.0728893, "tags": {"addr:city": "Bogot\u00e1", "addr:street": "Calle 45", "amenity": "bar", "name": "The Shots Lab"}}, {"type": "node", "id": 6035047475, "lat": 4.6335294, "lon": -74.0725636, "tags": {"addr:city": "Bogot\u00e1", "addr:housenumber": "19-58", "addr:street": "Calle 45", "amenity": "pub", "brewery": "yes", "name": "Hops"}}, {"type": "node", "id": 6035047478, "lat": 4.6334538, "lon": -74.0720899, "tags": {"addr:city": "Bogot\u00e1", "addr:street": "Calle 45", "amenity": "bar", "name": "Rockollina"}}, {"type": "node", "id": 6035642785, "lat": 4.6171953, "lon": -74.0828318, "tags": {"amenity": "bar", "name": "Bar Billar Tayrona", "sport": "billiards"}}, {"type": "node", "id": 6035737673, "lat": 4.6177711, "lon": -74.0834768, "tags": {"addr:city": "Bogot\u00e1", "addr:street": "Carrera 25", "amenity": "bar", "name": "Billares Paloquemao", "sport": "billiards"}}, {"type": "node", "id": 6038244960, "lat": 4.7154828, "lon": -74.2137249, "tags": {"amenity": "bar", "name": "Extravaganza"}}, {"type": "node", "id": 6040292867, "lat": 4.6967708, "lon": -74.091023, "tags": {"addr:floor": "2", "amenity": "bar", "name": "Billares", "sport": "billiards"}}, {"type": "node", "id": 6040292868, "lat": 4.6967541, "lon": -74.0910297, "tags": {"addr:city": "Bogot\u00e1", "addr:street": "Avenida Calle 80", "amenity": "pub", "brewery": "yes", "name": "La Bodega", "operator": "Bogot\u00e1 Beer Company"}}, {"type": "node", "id": 6040292878, "lat": 4.6971613, "lon": -74.0918003, "tags": {"amenity": "bar", "name": "Guarin"}}, {"type": "node", "id": 6044022058, "lat": 4.7328444, "lon": -74.1461769, "tags": {"amenity": "public_bath"}}, {"type": "node", "id": 6069421085, "lat": 4.6561005, "lon": -74.1062392, "tags": {"amenity": "bar", "name": "Okinawa"}}, {"type": "node", "id": 6153703193, "lat": 4.725423, "lon": -74.090865, "tags": {"amenity": "pub", "name": "Indianapolis", "sport": "billiards"}}, {"type": "node", "id": 6153791762, "lat": 4.7252324, "lon": -74.0916442, "tags": {"amenity": "bar"}}, {"type": "node", "id": 6153809555, "lat": 4.7256433, "lon": -74.0914601, "tags": {"amenity": "pub", "name": "Billares mixtos el paisa", "sport": "billiards"}}, {"type": "node", "id": 6190803830, "lat": 4.6141615, "lon": -74.2121347}, {"type": "node", "id": 6190803831, "lat": 4.614267, "lon": -74.2121137}, {"type": "node", "id": 6213000722, "lat": 4.6328558, "lon": -74.0650887}, {"type": "node", "id": 6213665699, "lat": 4.668018, "lon": -74.0538291, "tags": {"amenity": "bar", "name": "LxF"}}, {"type": "way", "id": 24249778, "nodes": [262546442, 262546443, 262546426, 262546427, 3868217706, 535506250, 262546442], "tags": {"amenity": "public_building", "building": "yes", "name": "Instituto Nacional de V\u00edas"}}, {"type": "way", "id": 24251981, "nodes": [262568106, 262568109, 262568111, 262568114, 262568106], "tags": {"addr:housename": "Edificio Sendas", "addr:street": "Carrera 7 No. 6C-54", "amenity": "public_building", "building": "yes", "name": "DIAN - Nivel Central"}}, {"type": "way", "id": 24251982, "nodes": [262568117, 262568120, 262568122, 262568124, 262568117], "tags": {"amenity": "public_building", "building": "yes", "name": "Archivo General de la Nacion"}}, {"type": "way", "id": 24546973, "nodes": [473859177, 266894239, 266894240, 266894241, 473859177], "tags": {"amenity": "pub", "building": "yes", "name": "Maramaos"}}, {"type": "way", "id": 28289708, "nodes": [310657832, 310657833, 310657834, 310657835, 310657832], "tags": {"amenity": "public_building", "name": "Palacio de San Carlos", "wikidata": "Q9054546", "wikipedia": "en:Palacio de San Carlos"}}, {"type": "way", "id": 38964680, "nodes": [4281273222, 5172067141, 5172067140, 5172067139, 5172067138, 5172067149, 463244865, 463244866, 463244869, 568701007, 5172067151, 5172067150, 4281273245, 4281273234, 5172067143, 5172067142, 4281273236, 4281273233, 5172067144, 5172067155, 4281273221, 5172067154, 4281273226, 5172067153, 5172067148, 5172067147, 4281273239, 5172067146, 5172067152, 5172067145, 4281273222], "tags": {"addr:street": "Avenida Calle 26", "amenity": "public_building", "building": "yes", "name": "Secretar\u00eda de Educaci\u00f3n Bogot\u00e1", "source": "Kaart Ground Survey 2017"}}, {"type": "way", "id": 42737115, "nodes": [534418015, 534418016, 534417985, 534417982, 534417884, 534417887, 534417885, 534417900, 534418015], "tags": {"addr:housenumber": "23-20", "addr:street": "Carrera 72B", "amenity": "public_building", "name": "DIJIN Sala t\u00e9cnica de automotores"}}, {"type": "way", "id": 42816923, "nodes": [535506250, 535506258, 262546428, 535506256, 262546442, 535506250], "tags": {"amenity": "public_building", "name": "Ministerio de Minas y Energ\u00eda"}}, {"type": "way", "id": 42820163, "nodes": [535576198, 535576200, 535576203, 535576204, 535576208, 535576209, 535576198], "tags": {"amenity": "public_building", "building": "civic", "name": "Imprenta Nacional"}}, {"type": "way", "id": 42907460, "nodes": [537257873, 537259209, 537259214, 537257882, 537257886, 4037081131, 4053761711, 4053761714, 537257889, 1276004459, 537257873], "tags": {"amenity": "public_building", "name": "Villa Servita"}}, {"type": "way", "id": 49953526, "nodes": [634723223, 634723224, 634723226, 634723229, 634723223], "tags": {"amenity": "public_building", "name": "CACMA - Casa de la Juventud de Martires"}}, {"type": "way", "id": 74635393, "nodes": [881690318, 881690317, 881690314, 881690319, 881690318], "tags": {"amenity": "public_building", "name": "Departamento Administrativo de Ciencia, Tecnolog\u00eda e Innovaci\u00f3n - Colciencias"}}, {"type": "way", "id": 86326971, "nodes": [1002573551, 1002573557, 1002573563, 1002573564, 1002573551], "tags": {"addr:city": "calle 1d:bogota", "addr:housenumber": "calle 1d # 7-56", "addr:interpolation": "all", "amenity": "public_building", "building": "yes", "description": "Escuela de Formaci\u00f3n en Derechos. Primer y Segundo S\u00e1bado de Mes - HCO", "leisure": "common", "name": "Calle 1"}}, {"type": "way", "id": 86327279, "nodes": [1002577220, 1002577221, 1002577223, 1002577224, 1002577220], "tags": {"amenity": "public_building", "building": "yes", "leisure": "common", "name": "Comedor Comunitario Las Cruces"}}, {"type": "way", "id": 126531990, "nodes": [1402501536, 1402501537, 1402501538, 1402501532, 1402501536], "tags": {"addr:housename": "Biblioteca del ICANH", "addr:housenumber": "Calle 12 # 2-38", "amenity": "public_building", "building": "yes", "int_name": "Biblioteca del Instituto Colombiano de Antropolog\u00eda e Historia", "name": "Biblioteca ICANH"}}, {"type": "way", "id": 127222686, "nodes": [1408714448, 1408714449, 1408714446, 1408714441, 1408714448], "tags": {"amenity": "public_building", "building": "yes", "int_name": "ICANH", "name": "Instituto Colombiano de Antropolog\u00eda e Historia"}}, {"type": "way", "id": 147213470, "nodes": [1604232977, 1604232982, 1604232973, 1604232980, 1604232977], "tags": {"addr:housenumber": "Cr 10 # 20-30", "amenity": "public_building", "building": "yes", "name": "IDEAM & PARQUES NACIONALES NATURALES DE COLOMBIA"}}, {"type": "way", "id": 156572589, "nodes": [1688041136, 1688041150, 1688041154, 1688041135, 1688041138, 1688041130, 1688041134, 1688041153, 1688041133, 1688041137, 1688041151, 1688041143, 1688041128, 1688041142, 1688041132, 1688041139, 1688041140, 1688041129, 1688041131, 1688041145, 1688041136], "tags": {"addr:housename": "Archivo de Bogot\u00e1", "addr:housenumber": "Calle 6 B 5 75", "alt_name": "Archivo Distrital", "amenity": "public_building", "building": "yes", "name": "Archivo de Bogot\u00e1"}}, {"type": "way", "id": 175168791, "nodes": [1858072985, 1858072990, 1858072988, 1858072987, 1858072985], "tags": {"addr:housenumber": "Dian", "addr:street": "Carrera 7 No. 6C-54", "amenity": "public_building", "building": "yes", "designation": "Edificio Sendas", "name": "Dian - Nivel Central"}}, {"type": "way", "id": 175822276, "nodes": [1863817115, 1863817153, 1863817129, 1863817135, 1863817123, 1863817109, 1863817115], "tags": {"amenity": "public_building", "building": "yes", "designation": "Sal\u00f3n Comunal", "name": "Sal\u00f3n Comunal Barrio Gran Britalia"}}, {"type": "way", "id": 176602368, "nodes": [1870864821, 1870864806, 1870864803, 1870864801, 1870864821], "tags": {"amenity": "public_building", "building": "yes"}}, {"type": "way", "id": 184472866, "nodes": [1949614302, 1949614306, 1949614298, 1949614296, 1949614302], "tags": {"amenity": "bar", "building": "yes", "leisure": "sports_centre", "source": "Cartografia Social FUNSOMA.org", "sport": "billar"}}, {"type": "way", "id": 187810357, "nodes": [1984475927, 1984475929, 1984475928, 1984475926, 1984475927], "tags": {"addr:housenumber": "90-06", "addr:street": "Carrera 16", "amenity": "public_building", "building": "yes", "name": "Cade Chic\u00f3"}}, {"type": "way", "id": 200495246, "nodes": [2104735600, 2104735601, 2104386849, 2104735602, 2104735600], "tags": {"amenity": "public_building", "building": "government", "name": "Alcaldia de Venecia"}}, {"type": "way", "id": 200496022, "nodes": [2104742036, 2104387219, 2104387223, 2104742035, 2104742036], "tags": {"amenity": "public_building", "building": "yes", "name": "Accion Comunal Barrio Vencia"}}, {"type": "way", "id": 213199919, "nodes": [2229365201, 2229365209, 2229365202, 2229365204, 2229365201], "tags": {"amenity": "public_building", "building": "yes"}}, {"type": "way", "id": 220758492, "nodes": [2298481437, 2298481438, 2298481439, 2298481440, 2298481442, 2298481437], "tags": {"amenity": "public_building", "building": "yes", "name": "Comedor Comunitario"}}, {"type": "way", "id": 222831265, "nodes": [2317747028, 2317747030, 2317747029, 2317747026, 2317747028], "tags": {"amenity": "public_building", "building": "yes"}}, {"type": "way", "id": 224604747, "nodes": [2334077680, 2334077678, 2334075643, 2334077676, 2334077680], "tags": {"amenity": "public_building", "building": "yes", "name": "Seminario Valmaria"}}, {"type": "way", "id": 239143436, "nodes": [2469532981, 2469532983, 2469532984, 2469532982, 2469532981], "tags": {"amenity": "pub", "building": "yes", "microbrewery": "yes", "name": "Bogota Beer Company", "website": "www.bogotabeercompany.com/"}}, {"type": "way", "id": 300589171, "nodes": [3046649177, 3046649175, 3046649174, 5379921878, 5379921879, 3046649176, 3046649177], "tags": {"amenity": "public_building", "name": "Casa de la Participaci\u00f3n"}}, {"type": "way", "id": 334717921, "nodes": [3417860901, 3417860902, 3417860903, 3417860904, 3417860901], "tags": {"amenity": "bar", "building": "yes", "name": "Billar"}}, {"type": "way", "id": 334783810, "nodes": [3418594424, 3418594425, 3418594426, 3418594427, 3418594424], "tags": {"amenity": "bar", "building": "yes", "name": "nectar"}}, {"type": "way", "id": 334798536, "nodes": [3418914545, 3418914544, 3418914561, 3418914562, 3418914545], "tags": {"addr:housenumber": "69f-13", "addr:street": "Calle 8", "amenity": "bar", "building": "yes", "name": "estrella"}}, {"type": "way", "id": 334798544, "nodes": [3418914589, 3418914590, 3418914591, 3418914592, 3418914589], "tags": {"addr:housenumber": "69c-11", "addr:street": "Calle 8", "amenity": "bar", "building": "yes", "name": "el chou"}}, {"type": "way", "id": 334910155, "nodes": [3420374407, 3420374409, 3420374410, 3420374408, 3420374407], "tags": {"amenity": "bar", "building": "yes", "name": "Ibhiza"}}, {"type": "way", "id": 334910165, "nodes": [3420374418, 3420374420, 343961110, 3420374419, 3420374418], "tags": {"amenity": "bar", "building": "yes", "name": "Pokeroon"}}, {"type": "way", "id": 334910186, "nodes": [3420374441, 3420374443, 315818984, 3420374442, 3420374441], "tags": {"amenity": "bar", "building": "yes", "name": "LUMIUS"}}, {"type": "way", "id": 334911908, "nodes": [3420394771, 3420394772, 3420394773, 3420394774, 3420394771], "tags": {"addr:housenumber": "37A-03", "addr:street": "Carrera 2 H", "amenity": "bar", "building": "yes", "name": "El Pino"}}, {"type": "way", "id": 334965339, "nodes": [3420874167, 3420874168, 3420874169, 3420878793, 1948529297, 3420874167], "tags": {"amenity": "bar", "building": "yes", "name": "La pola"}}, {"type": "way", "id": 334966251, "nodes": [3420885922, 3420885927, 3420885928, 3420885923, 3420885922], "tags": {"amenity": "bar", "building": "yes", "name": "103A03"}}, {"type": "way", "id": 334966253, "nodes": [3420885929, 3420885909, 3420885919, 3420885930, 3420885929], "tags": {"amenity": "bar", "building": "yes", "name": "LA CANTINA", "operator": "102-73"}}, {"type": "way", "id": 334966410, "nodes": [3420887234, 3420887235, 3420887236, 3420887237, 3420887234], "tags": {"amenity": "bar", "building": "yes"}}, {"type": "way", "id": 343588260, "nodes": [3504216121, 3504216122, 3504216123, 3504216124, 3504216121], "tags": {"addr:street": "Calle 2", "amenity": "bar", "building": "yes", "name": "Video Bar Mi Caliche", "source": "Kaart Ground Survey 2017"}}, {"type": "way", "id": 371443092, "nodes": [3750035536, 3750035543, 3750035541, 3750035551, 3750035536], "tags": {"addr:housenumber": "15", "amenity": "public_building", "building": "yes", "designation": "Pollo", "name": "Presas de venecia"}}, {"type": "way", "id": 371550119, "nodes": [4110789088, 6213000722, 4110790890, 3751147849, 3751147847, 4110789088], "tags": {"addr:city": "Chapinero", "addr:street": "Calle 46", "amenity": "bar", "building": "yes", "name": "sabana bar"}}, {"type": "way", "id": 371550136, "nodes": [3751147858, 3751147859, 3755922758, 3751147860, 4313518708, 3751147858], "tags": {"addr:city": "Chapinero", "addr:street": "Carrera 8", "amenity": "bar", "building": "yes", "name": "terrasa de san esteban"}}, {"type": "way", "id": 371983488, "nodes": [3755250257, 3755250258, 3755250259, 3755250260, 3755250257], "tags": {"amenity": "bar", "building": "yes"}}, {"type": "way", "id": 371984219, "nodes": [3755255442, 3755255444, 3755255445, 3755255446, 3755255442], "tags": {"amenity": "bar", "building": "yes"}}, {"type": "way", "id": 371988162, "nodes": [3755293794, 3755293801, 3755293802, 3755293795, 3755293796, 3755293791, 3755293794], "tags": {"amenity": "bar", "building": "yes"}}, {"type": "way", "id": 371988172, "nodes": [3755295031, 3755295034, 3755295035, 3755295032, 3755295031], "tags": {"amenity": "bar", "building": "yes"}}, {"type": "way", "id": 371988558, "nodes": [3755299639, 3755299644, 3755299645, 3755299640, 3755299641, 3755299639], "tags": {"addr:city": "Bogot\u00e1 D.C.", "addr:housenumber": "No.7-58", "addr:street": "Calle 51", "amenity": "bar", "building": "yes", "name": "Colombia Club"}}, {"type": "way", "id": 371988559, "nodes": [3755299645, 3755299642, 3755299643, 3755299644, 3755299645], "tags": {"addr:city": "Bogot\u00e1 D.C.", "addr:housenumber": "No.7-69", "addr:street": "Carrera 9", "amenity": "bar", "building": "yes", "name": "Saloon"}}, {"type": "way", "id": 371988578, "nodes": [3755299708, 3755391931, 3755391935, 3755299707, 3755299708], "tags": {"addr:city": "Bogot\u00e1 D.C.", "addr:street": "Carrera 9", "amenity": "bar", "building": "yes", "name": "Bar Indigo"}}, {"type": "way", "id": 371996298, "nodes": [4126694680, 3755365830, 3755365831, 3755365832, 4126694680], "tags": {"amenity": "bar", "building": "yes"}}, {"type": "way", "id": 371999086, "nodes": [3755391892, 3755391893, 3755391894, 3755391895, 3755391892], "tags": {"amenity": "nightclub", "building": "yes", "name": "Guadalupe"}}, {"type": "way", "id": 371999089, "nodes": [3755391905, 3755391906, 3755391907, 3755391908, 3755391905], "tags": {"amenity": "nightclub", "building": "yes"}}, {"type": "way", "id": 371999090, "nodes": [3755391909, 3755391910, 3755391911, 3755391912, 3755391909], "tags": {"amenity": "nightclub", "building": "yes"}}, {"type": "way", "id": 371999096, "nodes": [3755391949, 3755391950, 3755391951, 3755391952, 3755391949], "tags": {"addr:housenumber": "51-25", "addr:street": "Avenida Carrera 7", "amenity": "bar", "building": "yes", "name": "Pub House", "source": "Kaart Ground Survey 2017"}}, {"type": "way", "id": 371999097, "nodes": [3755391953, 3755391954, 3755391955, 3755391956, 3755391953], "tags": {"addr:housenumber": "51-05", "addr:street": "Avenida Carrera 7", "amenity": "nightclub", "building": "yes", "name": "Tierradento"}}, {"type": "way", "id": 372060244, "nodes": [3755955228, 3755955229, 3755387585, 3755955231, 3755955228], "tags": {"addr:city": "Bogot\u00e1 D.C.", "addr:street": "Avenida Carrera 19", "amenity": "pub", "building": "commercial", "name": "Bogota Beer Company", "source": "Kaart Ground Survey 2017"}}, {"type": "way", "id": 372117742, "nodes": [3756530080, 3756530081, 3756530084, 3756530087, 3756530082, 3756530083, 3756530080], "tags": {"addr:housenumber": "7-29", "addr:street": "Calle 49", "amenity": "bar", "building": "yes", "name": "Casa Babylon"}}, {"type": "way", "id": 372141306, "nodes": [3756726465, 3756726466, 3756726467, 3756726468, 3756726465], "tags": {"addr:housenumber": "02", "addr:street": "carrera 72G", "amenity": "bar", "building": "yes", "name": "Delfines paisa"}}, {"type": "way", "id": 372141319, "nodes": [3756726513, 3756726514, 3756726515, 3756726516, 3756726517, 3756726513], "tags": {"addr:housenumber": "38", "addr:street": "calle 39H S", "amenity": "bar", "building": "yes", "name": "Manantial"}}, {"type": "way", "id": 372146078, "nodes": [3756782448, 3756782449, 3756782450, 3756782451, 3756782448], "tags": {"addr:housenumber": "12-19", "addr:street": "Carrera 3", "amenity": "bar", "building": "yes", "name": "mi casa"}}, {"type": "way", "id": 405042520, "nodes": [4072694718, 4072694720, 4072232447, 4072694721, 4072232446, 4072694718], "tags": {"amenity": "nightclub", "name": "San Alejo"}}, {"type": "way", "id": 405042521, "nodes": [4072694717, 4072694720, 4072694718, 4072694716, 4072694717], "tags": {"addr:city": "Bogot\u00e1", "addr:country": "CO", "addr:housenumber": "63-82", "addr:street": "Carrera 11", "amenity": "nightclub", "name": "San Lazaro"}}, {"type": "way", "id": 405042522, "nodes": [4072232440, 4072694715, 4072694717, 4072694716, 4072232440], "tags": {"amenity": "nightclub", "name": "Stigma"}}, {"type": "way", "id": 405876041, "nodes": [4080171673, 4080171675, 4080171676, 4100234184, 4080171674, 4080171673], "tags": {"amenity": "pub", "building": "yes"}}, {"type": "way", "id": 408709780, "nodes": [4106215040, 4106215032, 4106215030, 4106215041, 4106215040], "tags": {"addr:housenumber": "23", "addr:street": "Carrera 77A", "amenity": "bar", "building": "yes", "name": "Cigarrera La camila"}}, {"type": "way", "id": 408709786, "nodes": [4106215046, 4106215020, 4106215018, 4106215047, 4106215046], "tags": {"addr:housenumber": "39", "addr:street": "Carrera 77A", "amenity": "bar", "building": "yes", "name": "La licorera"}}, {"type": "way", "id": 408709788, "nodes": [4106215048, 4106215016, 4106215014, 4106215049, 4106215048], "tags": {"addr:housenumber": "67", "addr:street": "Carrera 77A", "amenity": "bar", "building": "yes", "name": "Mono Fonica"}}, {"type": "way", "id": 409297709, "nodes": [4112079493, 4112079494, 4112079495, 4112079496, 4112079493], "tags": {"amenity": "bar", "building": "yes", "name": "cafe bar"}}, {"type": "way", "id": 410191721, "nodes": [4120468985, 4120469092, 4120469093, 4121505289, 4120468985], "tags": {"amenity": "bar", "building": "yes", "name": "imperio"}}, {"type": "way", "id": 410191729, "nodes": [4120469097, 4121505291, 4120469092, 4120469093, 4120469101, 4120469097], "tags": {"amenity": "bar", "building": "yes", "name": "mulata"}}, {"type": "way", "id": 410191732, "nodes": [4120469100, 4120469104, 4120469105, 4120469102, 4120469100], "tags": {"addr:housenumber": "41", "amenity": "bar", "building": "yes", "name": "orange"}}, {"type": "way", "id": 410316746, "nodes": [4120469097, 4120469100, 4120469102, 4120469101, 4120469097], "tags": {"addr:housenumber": "47", "amenity": "bar", "building": "yes", "name": "el condado sport bar"}}, {"type": "way", "id": 410316753, "nodes": [4120469104, 4121505295, 4121505306, 4120469105, 4120469104], "tags": {"addr:housenumber": "35", "amenity": "bar", "building": "yes", "name": "tabu"}}, {"type": "way", "id": 410316754, "nodes": [4121505295, 4121505297, 4121505307, 4121505306, 4121505295], "tags": {"addr:housenumber": "29", "amenity": "bar", "building": "yes", "name": "sound city"}}, {"type": "way", "id": 410316763, "nodes": [4121505315, 4121505322, 4121505323, 4121505316, 4121505315], "tags": {"addr:housenumber": "60", "amenity": "bar", "building": "yes", "name": "bar salsa"}}, {"type": "way", "id": 410316764, "nodes": [4121505322, 4121505324, 4121505325, 4121505323, 4121505322], "tags": {"addr:housenumber": "58", "amenity": "bar", "building": "yes", "name": "estigma"}}, {"type": "way", "id": 410316766, "nodes": [4121505326, 4121505328, 4121505329, 4121505327, 4121505326], "tags": {"addr:housenumber": "52", "amenity": "bar", "building": "yes", "name": "zonica"}}, {"type": "way", "id": 410316767, "nodes": [4121505328, 4121505330, 4121505331, 4121505329, 4121505328], "tags": {"addr:housenumber": "50", "amenity": "bar", "building": "yes", "name": "city bar"}}, {"type": "way", "id": 410316768, "nodes": [4121505330, 4121505332, 4121505333, 4121505331, 4121505330], "tags": {"addr:housenumber": "48", "amenity": "bar", "building": "yes", "name": "keops"}}, {"type": "way", "id": 410316769, "nodes": [4121505332, 4121505334, 4121505335, 4121505333, 4121505332], "tags": {"amenity": "bar", "building": "yes", "name": "D duxe"}}, {"type": "way", "id": 410316772, "nodes": [4121505338, 4121505340, 4121505341, 4121505339, 4121505338], "tags": {"addr:housenumber": "30", "amenity": "bar", "building": "yes", "name": "video tk de mao"}}, {"type": "way", "id": 410316774, "nodes": [4121505342, 4121505344, 4121505345, 4121505343, 4121505342], "tags": {"addr:housenumber": "24", "amenity": "bar", "building": "yes", "name": "nipeggio"}}, {"type": "way", "id": 410316777, "nodes": [4121505348, 4121505350, 4121505351, 4121505349, 4121505348], "tags": {"addr:housenumber": "18", "amenity": "bar", "building": "yes", "name": "santa pola"}}, {"type": "way", "id": 410316779, "nodes": [4121505352, 4121505354, 4121505355, 4121505353, 4121505352], "tags": {"amenity": "bar", "building": "yes", "name": "el santo"}}, {"type": "way", "id": 410606265, "nodes": [4112345309, 4112345313, 4112345312, 4124124413, 4124124414, 4112345308, 4112345309], "tags": {"amenity": "bar", "building": "yes"}}, {"type": "way", "id": 411152108, "nodes": [4128765326, 4128765325, 4128765327, 4128765328, 4128765326], "tags": {"amenity": "pub", "building": "yes", "name": "Monte Castilla Bar"}}, {"type": "way", "id": 421664330, "nodes": [4214169509, 4214169511, 4214169515, 4214169507, 4214169509], "tags": {"amenity": "bar", "building": "yes", "name": "El Sitio"}}, {"type": "way", "id": 421664331, "nodes": [4214169508, 4214169496, 4214169506, 4214169520, 4214169508], "tags": {"amenity": "bar", "building": "yes", "name": "El Salto del \u00c1ngel", "wheelchair": "no"}}, {"type": "way", "id": 513393388, "nodes": [5018690407, 5018690404, 5018690403, 5018690402, 5018690416]}, {"type": "way", "id": 513393389, "nodes": [5018690416, 5562890029, 5018690401, 5018690398, 5018690407]}, {"type": "way", "id": 526312597, "nodes": [5118419948, 5118419949, 5118419953, 5118419952, 5118419950, 5118419951, 5118419948], "tags": {"addr:street": "Transversal 5A", "amenity": "bar", "building": "yes", "name": "Bar y Billar Barbilla Poker", "source": "Kaart Ground Survey 2017"}}, {"type": "way", "id": 526812681, "nodes": [5122224568, 5122224569, 5122224570, 5122224571, 5122224568], "tags": {"addr:street": "Carrera 45A", "amenity": "bar", "building": "yes", "name": "Pradera Bar", "source": "Kaart Ground Survey 2017"}}, {"type": "way", "id": 527383591, "nodes": [5127309407, 5127309408, 5127309414, 5127309409, 5127309410, 5127309407], "tags": {"amenity": "bar", "building": "yes"}}, {"type": "way", "id": 527527799, "nodes": [5128351731, 5128351732, 5128351733, 5128351734, 5128351731], "tags": {"addr:city": "Bogot\u00e1 D.C.", "addr:street": "Carrera 18", "amenity": "bar", "building": "yes", "name": "Florilandia Bar", "source": "Kaart Ground Survey 2017"}}, {"type": "way", "id": 527578595, "nodes": [5128789701, 5128789702, 5128789703, 5128789704, 5128789701], "tags": {"addr:street": "Avenida Pepe Sierra - Calle 116", "amenity": "pub", "building": "yes", "name": "King's Pub", "source": "Kaart Ground Survey 2017"}}, {"type": "way", "id": 528181691, "nodes": [4417651389, 5133516497, 5133516498, 5133516499, 4417651389], "tags": {"addr:housenumber": "57-95", "addr:street": "Avenida Carrera 7", "amenity": "pub", "building": "yes", "name": "Bogot\u00e1 Beer Company", "name:en": "Bogot\u00e1 Beer Company", "name:es": "Bogot\u00e1 Beer Company", "source": "Kaart Ground Survey 2017"}}, {"type": "way", "id": 528568343, "nodes": [5136329652, 5136329653, 5136329654, 5136329655, 5136329652], "tags": {"addr:street": "Calle 23", "amenity": "nightclub", "building": "yes", "name": "Nightclub California", "source": "Kaart Ground Survey 2017"}}, {"type": "way", "id": 529093236, "nodes": [5140435010, 5140435012, 5140435013, 5140435011, 5140435010], "tags": {"amenity": "bar", "building": "yes", "name": "San Martin Bar"}}, {"type": "way", "id": 529093299, "nodes": [5140435105, 5140435107, 5140435108, 5140435106, 5140435105], "tags": {"amenity": "bar", "building": "yes", "name": "Bar Rock"}}, {"type": "way", "id": 529126634, "nodes": [5140713060, 5140241977, 5138368867, 5138368866, 5140713060], "tags": {"addr:housenumber": "41", "addr:street": "Diagonal 44 Bis", "amenity": "bar", "building": "yes", "name": "Estanco 45"}}, {"type": "way", "id": 529325027, "nodes": [5142215658, 5142215659, 5142215660, 5142215661, 5142215662, 5142215658], "tags": {"addr:street": "Calle 45", "amenity": "bar", "building": "yes", "source": "Kaart Ground Survey 2017"}}, {"type": "way", "id": 529328421, "nodes": [5142234001, 5142234019, 5142234020, 5142234000, 5142234001], "tags": {"amenity": "bar", "building": "yes"}}, {"type": "way", "id": 529528189, "nodes": [5143622421, 5143622422, 5143622423, 5143622424, 5143622421], "tags": {"addr:street": "Avenida Calle 80", "amenity": "bar", "building": "yes", "name": "Karaoke Bar", "source": "Kaart Ground Survey 2017"}}, {"type": "way", "id": 529528196, "nodes": [5143622425, 5143622426, 5143622427, 5143622428, 5143622429, 5143622430, 5143622425], "tags": {"addr:street": "Avenida Calle 80", "amenity": "bar", "building": "yes", "name": "Son Lucas", "source": "Kaart Ground Survey 2017"}}, {"type": "way", "id": 529578881, "nodes": [5144133868, 5144133872, 5144133873, 5144133869, 5144133868], "tags": {"addr:street": "Calle 84 Bis", "amenity": "bar", "building": "yes", "name": "El Macho Cantina", "source": "Kaart Ground Survey 2017"}}, {"type": "way", "id": 529578886, "nodes": [5144133892, 5144133894, 5144133895, 5144133891, 5144133892], "tags": {"addr:street": "Calle 84 Bis", "amenity": "bar", "building": "yes", "name": "Shots Bar", "source": "Kaart Ground Survey 2017"}}, {"type": "way", "id": 529698944, "nodes": [5145206840, 5145206839, 5145206838, 5145206837, 5145206840], "tags": {"addr:street": "Avenida Calle 72", "amenity": "bar", "building": "yes", "name": "La Corona", "source": "Kaart Ground Survey 2017"}}, {"type": "way", "id": 529746315, "nodes": [5145570766, 5145570769, 5145570770, 5145570771, 5145570766], "tags": {"addr:street": "Avenida Calle 82", "amenity": "bar", "building": "yes", "name": "Corona", "source": "Kaart Ground Survey 2017"}}, {"type": "way", "id": 529746321, "nodes": [5145570783, 5145570784, 5145570785, 5145570786, 5145570783], "tags": {"addr:street": "Calle 84 Bis", "amenity": "bar", "building": "yes", "name": "Bacard\u00ed", "source": "Kaart Ground Survey 2017"}}, {"type": "way", "id": 529792630, "nodes": [354742639, 5146003048, 5146003049, 5146003050, 5146003053, 354742639], "tags": {"addr:city": "Bogot\u00e1 D.C.", "addr:housenumber": "13-06", "addr:street": "Avenida Calle 85", "amenity": "pub", "building": "yes", "name": "Bogota Beer Company Calle 85", "smoking": "no", "source": "Kaart Ground Survey 2017", "website": "http://www.bogotabeercompany.com/"}}, {"type": "way", "id": 530364257, "nodes": [5150232822, 5150232823, 5150232824, 5150232825, 5150232822], "tags": {"addr:street": "Avenida Calle 53", "amenity": "bar", "building": "yes", "name": "Viva Libre", "source": "Kaart Ground Survey 2017"}}, {"type": "way", "id": 530648786, "nodes": [5152439630, 5152439631, 5152439632, 5152439633, 5152439630], "tags": {"addr:street": "Carrera 5", "amenity": "bar", "building": "yes", "name": "PubLic", "source": "Kaart Ground Survey 2017"}}, {"type": "way", "id": 531341377, "nodes": [5157932257, 5157932258, 5157932259, 5157932260, 5157932257], "tags": {"addr:street": "Carrera 49", "amenity": "bar", "building": "yes", "name": "Los Diablitos", "source": "Kaart Ground Survey 2017"}}, {"type": "way", "id": 531549375, "nodes": [5159761210, 5144015603, 5144015606, 5159761213, 5159761210], "tags": {"addr:street": "Calle 145", "amenity": "nightclub", "building": "yes", "name": "LA 145", "source": "Kaart Ground Survey 2017"}}, {"type": "way", "id": 531811040, "nodes": [5161805377, 5161805378, 5161805379, 5161805380, 5161805377], "tags": {"addr:street": "Carrera 92", "amenity": "bar", "building": "yes", "name": "El Bar de Marce", "source": "Kaart Ground Survey 2017"}}, {"type": "way", "id": 532342298, "nodes": [5165905750, 5165905751, 5165905752, 5165905753, 5165905750], "tags": {"addr:city": "Usaqu\u00e9n", "addr:street": "Carrera 8C", "amenity": "bar", "building": "yes", "name": "Mr. Beer", "source": "Kaart Ground Survey 2017"}}, {"type": "way", "id": 533018380, "nodes": [3755959134, 5171798520, 5171808321, 5171808322, 3755959134], "tags": {"addr:street": "Carrera 72", "amenity": "bar", "building": "yes", "name": "Ozzy", "source": "Kaart Ground Survey 2017"}}, {"type": "way", "id": 533025968, "nodes": [5171850735, 5171850736, 5171850737, 5171850738, 5171850735], "tags": {"addr:street": "Calle 127E", "amenity": "pub", "building": "yes", "name": "El Cantinazo del Norte", "source": "Kaart Ground Survey 2017"}}, {"type": "way", "id": 533255942, "nodes": [5173707363, 5173707364, 5173707365, 5173707366, 5173707363], "tags": {"amenity": "bar", "building": "yes", "source": "Kaart Ground Survey 2017"}}, {"type": "way", "id": 533267945, "nodes": [5173815527, 2693093844, 5173815530, 5173815528, 5173815527], "tags": {"addr:street": "Calle 53", "amenity": "nightclub", "building": "yes", "name": "Siboney", "source": "Kaart Ground Survey 2017"}}, {"type": "way", "id": 533267948, "nodes": [2693093844, 5173815526, 5173815531, 5173815532, 5173815530, 2693093844], "tags": {"addr:street": "Calle 53", "amenity": "nightclub", "building": "yes", "name": "La Firma", "source": "Kaart Ground Survey 2017"}}, {"type": "way", "id": 533267950, "nodes": [5173815526, 5173815533, 5173815534, 5173815531, 5173815526], "tags": {"addr:street": "Calle 53", "amenity": "nightclub", "building": "yes", "name": "Shilaoo", "source": "Kaart Ground Survey 2017"}}, {"type": "way", "id": 533683648, "nodes": [5177240717, 5177244523, 5177244524, 5177240718, 5177240717], "tags": {"addr:street": "Calle 52", "amenity": "bar", "building": "yes", "name": "Baradoa", "source": "Kaart Ground Survey 2017"}}, {"type": "way", "id": 533922067, "nodes": [5135616213, 5135616214, 5179173367, 5179173368, 5135616213], "tags": {"addr:city": "Bogot\u00e1 D.C.", "addr:housenumber": "Local 1", "addr:postcode": "110111", "addr:street": "Calle 127", "addr:unit": "7D - 11", "amenity": "bar", "building": "yes", "building:levels": "1", "description": "Wine Bar Bogota!", "name": "WINE LOVERS", "smoking": "no", "tourism": "wine_cellar"}}, {"type": "way", "id": 534882426, "nodes": [5186234364, 5186234365, 5186234366, 5186234367, 5186234364], "tags": {"addr:street": "Carrera 111B", "amenity": "bar", "building": "yes", "name": "Bar La Caba\u00f1a", "source": "Kaart Ground Survey 2017"}}, {"type": "way", "id": 535029490, "nodes": [5187236550, 5187236549, 5187236548, 5187236547, 5187236550], "tags": {"addr:street": "Calle 66A", "amenity": "bar", "building": "yes", "name": "Bar Los Recuerdos de Ella", "source": "Kaart Ground Survey 2017"}}, {"type": "way", "id": 535299089, "nodes": [5188968875, 2571849467, 5188968876, 5188968877, 5188968875], "tags": {"amenity": "bar", "building": "yes", "name": "Galeria bar"}}, {"type": "way", "id": 537277657, "nodes": [5203244023, 5203244027, 5203244028, 5203244024, 5203244023], "tags": {"addr:housenumber": "29-12", "addr:street": "Carrera 4 E (Avenida La Victoria)", "amenity": "nightclub", "building": "yes", "source": "Kaart Ground Survey 2017"}}, {"type": "way", "id": 540454917, "nodes": [5228589558, 5228589559, 5228589560, 5228589561, 5228589558], "tags": {"addr:street": "Carrera 19", "amenity": "bar", "building": "yes", "name": "Agula Bar La Paisa", "source": "Kaart Ground Survey 2017"}}, {"type": "way", "id": 540487078, "nodes": [5228825300, 5228825301, 5228825302, 5228825303, 5228825300], "tags": {"addr:street": "Diagonal 4A", "amenity": "bar", "building": "yes", "source": "Kaart Ground Survey 2017"}}, {"type": "way", "id": 540507723, "nodes": [5228995169, 5228995170, 5228995171, 5228995172, 5228995169], "tags": {"addr:street": "Calle 33 Sur", "amenity": "bar", "building": "yes", "name": "H.J. Sarmiento", "source": "Kaart Ground Survey 2017"}}, {"type": "way", "id": 540522287, "nodes": [5229107093, 5229107094, 5229107095, 5229107096, 5229107093], "tags": {"addr:street": "Calle 12 Sur", "amenity": "bar", "building": "yes", "name": "Bar La Caquere\u00f1a", "source": "Kaart Ground Survey 2017"}}, {"type": "way", "id": 540522289, "nodes": [5229107097, 5229107102, 5229107103, 5229107104, 5229107097], "tags": {"addr:street": "Carrera 24", "amenity": "pub", "building": "yes", "name": "Mateo Pub Cafe", "source": "Kaart Ground Survey 2017"}}, {"type": "way", "id": 540522311, "nodes": [5229109380, 5229109385, 5229109386, 5229109387, 5229109380], "tags": {"addr:street": "Carrera 16", "amenity": "bar", "building": "yes", "name": "Restaurante Bar San Pedro", "source": "Kaart Ground Survey 2017"}}, {"type": "way", "id": 540755718, "nodes": [5230831020, 5230831724, 5230831725, 5230831721, 5230831020], "tags": {"addr:housenumber": "17-37", "addr:street": "Calle 70C S", "amenity": "bar", "building": "yes", "name": "El Barril", "source": "Kaart Ground Survey 2017"}}, {"type": "way", "id": 540855623, "nodes": [5231451584, 5231451581, 5231451582, 5231451583, 5231451584], "tags": {"addr:street": "Carrera 53", "amenity": "bar", "building": "residential", "name": "Rockola Bar Rana", "source": "Kaart Ground Survey 2017"}}, {"type": "way", "id": 541116062, "nodes": [5233194847, 5233194848, 5150232822, 5150232825, 5233194847], "tags": {"addr:street": "Avenida Calle 53", "amenity": "bar", "building": "commercial", "name": "Jackass Bar", "source": "Kaart Ground Survey 2017"}}, {"type": "way", "id": 541141731, "nodes": [5233362540, 5233362543, 5233362548, 5233362544, 5233362545, 5233362540], "tags": {"addr:street": "Carrera 75", "amenity": "nightclub", "building": "yes", "source": "Kaart Ground Survey 2017"}}, {"type": "way", "id": 541158343, "nodes": [5233510712, 5233510713, 5233510714, 5233510715, 5233510712], "tags": {"addr:street": "Calle 66B", "amenity": "nightclub", "building": "yes", "name": "La Estrada", "source": "Kaart Ground Survey 2017"}}, {"type": "way", "id": 541419332, "nodes": [5235495605, 5235495606, 5235495607, 5235495608, 5235495605], "tags": {"addr:housenumber": "69-13", "addr:street": "Avenida Primero de Mayo Calle 26 Sur", "amenity": "bar", "building": "yes", "name": "Shala", "source": "Kaart Ground Survey 2017"}}, {"type": "way", "id": 541426780, "nodes": [5235553472, 5235553473, 5235553474, 5235553475, 5235553472], "tags": {"addr:housenumber": "69-13", "addr:street": "Avenida Primero de Mayo Calle 26 Sur", "amenity": "bar", "building": "yes", "name": "Shala Bar", "source": "Kaart Ground Survey 2017"}}, {"type": "way", "id": 541426795, "nodes": [5235553501, 5235553502, 5235553503, 5235553504, 5235553501], "tags": {"addr:street": "Avenida Primero de Mayo Calle 26 Sur", "amenity": "nightclub", "building": "yes", "name": "Los Angeles V.I.P", "source": "Kaart Ground Survey 2017"}}, {"type": "way", "id": 541915356, "nodes": [5239696740, 5239696741, 5239696742, 5239696743, 5239696740], "tags": {"addr:street": "Avenida Primero de Mayo", "amenity": "nightclub", "building": "yes", "name": "Salon De Eventos Casa Marques", "source": "Kaart Ground Survey 2017"}}, {"type": "way", "id": 541931517, "nodes": [5239863237, 5239863234, 5239863235, 5239863236, 5239863237], "tags": {"addr:street": "Avenida Primero de Mayo", "amenity": "nightclub", "building": "residential", "building:levels": "4", "name": "Salon de Eventos", "source": "Kaart Ground Survey 2017"}}, {"type": "way", "id": 541959720, "nodes": [5240087366, 5240087367, 5240087368, 5240087369, 5240087366], "tags": {"addr:city": "Bogot\u00e1 D.C.", "addr:street": "Carrera 69B", "amenity": "bar", "building": "yes", "name": "Club de Billares", "source": "Kaart Ground Survey 2017"}}, {"type": "way", "id": 541970659, "nodes": [5240174975, 5240174974, 5240174976, 5240174977, 5240174975], "tags": {"addr:city": "Bogot\u00e1 D.C.", "addr:street": "Avenida Primero de Mayo", "amenity": "nightclub", "building": "yes", "name": "Palacius", "source": "Kaart Ground Survey 2017"}}, {"type": "way", "id": 541970660, "nodes": [5240174977, 5240174978, 5240174979, 5240174976, 5240174977], "tags": {"addr:city": "Bogot\u00e1 D.C.", "addr:street": "Avenida Primero de Mayo", "amenity": "bar", "building": "yes", "name": "Angelos", "source": "Kaart Ground Survey 2017"}}, {"type": "way", "id": 541970661, "nodes": [5240174978, 5240174980, 5240174982, 5240174981, 5240174979, 5240174978], "tags": {"addr:city": "Bogot\u00e1 D.C.", "addr:street": "Avenida Primero de Mayo", "amenity": "nightclub", "building": "yes", "name": "Venus Club", "source": "Kaart Ground Survey 2017"}}, {"type": "way", "id": 541970663, "nodes": [5240174984, 5240174983, 5240174985, 5240174986, 5240174987, 5240174984], "tags": {"addr:city": "Bogot\u00e1 D.C.", "addr:street": "Avenida Primero de Mayo", "amenity": "bar", "building": "yes", "name": "Limbo Bar", "source": "Kaart Ground Survey 2017"}}, {"type": "way", "id": 541970665, "nodes": [5240174992, 5240174993, 5240174989, 5240174994, 5240174992], "tags": {"addr:city": "Bogot\u00e1 D.C.", "addr:street": "Avenida Primero de Mayo", "amenity": "nightclub", "building": "yes", "name": "Azafatas VIP", "source": "Kaart Ground Survey 2017"}}, {"type": "way", "id": 541970666, "nodes": [5240174992, 5240174995, 5240174996, 5240174994, 5240174992], "tags": {"addr:city": "Bogot\u00e1 D.C.", "addr:street": "Avenida Primero de Mayo", "amenity": "bar", "building": "yes", "name": "El Bar De las Cervasa", "source": "Kaart Ground Survey 2017"}}, {"type": "way", "id": 541970667, "nodes": [5240174995, 5240174997, 5240174998, 5240174996, 5240174995], "tags": {"addr:city": "Bogot\u00e1 D.C.", "addr:street": "Avenida Primero de Mayo", "amenity": "bar", "building": "yes", "name": "Happy Night", "source": "Kaart Ground Survey 2017"}}, {"type": "way", "id": 541970673, "nodes": [5240175628, 5240175629, 5240175630, 5240175631, 5240175628], "tags": {"addr:city": "Bogot\u00e1 D.C.", "addr:street": "Avenida Primero de Mayo", "amenity": "nightclub", "building": "yes", "name": "Ascanio", "source": "Kaart Ground Survey 2017"}}, {"type": "way", "id": 541980958, "nodes": [5240254490, 5240254491, 5240254492, 5240254493, 5240254490], "tags": {"addr:city": "Bogot\u00e1", "addr:street": "Carrera 69F", "amenity": "bar", "building": "yes", "name": "Restaurante Bar", "source": "Kaart Ground Survey 2017"}}, {"type": "way", "id": 542095634, "nodes": [4424106891, 5241276266, 5241276267, 5241276268, 4424106891], "tags": {"addr:housenumber": "6-61 Sur", "addr:street": "Carrera 71D", "amenity": "bar", "building": "yes", "fixme": "name", "name": "Capital Pub", "source": "Kaart Ground Survey 2017"}}, {"type": "way", "id": 542318853, "nodes": [5243286691, 5243286692, 5243286693, 5243286694, 5243286695, 5243286691], "tags": {"addr:street": "Calle 55 Sur", "amenity": "bar", "building": "yes", "name": "Drink's & Dream's", "source": "Kaart Ground Survey 2017"}}, {"type": "way", "id": 543936583, "nodes": [5258084653, 5258084651, 5258084654, 5258084655, 5258084653], "tags": {"addr:city": "Chapinero", "addr:housenumber": "9 - 94", "addr:street": "Calle 43A", "amenity": "pub", "building": "yes", "name": "Bogot\u00e1 Beer Company LA BODEGA", "smoking": "outside"}}, {"type": "way", "id": 581376694, "nodes": [5562890027, 5562890028, 5562890029, 5018690401, 5018690398, 5562890027], "tags": {"addr:city": "Bogot\u00e1 D.C.", "addr:street": "Carrera 4", "amenity": "pub", "building": "yes", "name": "Bogota Beer Company", "opening_hours": "12-2"}}, {"type": "way", "id": 593486752, "nodes": [5661642857, 5661642858, 5661642859, 5661642860, 5661642857], "tags": {"addr:housenumber": "KM 4.5", "addr:street": "V\u00eda Patios", "amenity": "bar", "building": "yes", "name": "The Beer Wagon Pub"}}, {"type": "way", "id": 620189552, "nodes": [5859845320, 6190803830, 6190803831, 5859845323, 5859845320], "tags": {"amenity": "bar", "building": "yes", "name": "Tom Y Jerry"}}, {"type": "relation", "id": 7450339, "members": [{"type": "way", "ref": 513393389, "role": "outer"}, {"type": "way", "ref": 513393388, "role": "outer"}], "tags": {"addr:street": "Carrera 4", "amenity": "pub", "building": "yes", "name": "Carrera 4", "type": "multipolygon"}}]}