{"version": 0.6, "generator": "Overpass API 0.7.55.5 2ca3f387", "osm3s": {"timestamp_osm_base": "2019-01-18T16:10:02Z", "copyright": "The data included in this document is from www.openstreetmap.org. The data is made available under ODbL."}, "elements": [{"type": "node", "id": 30384160, "lat": 19.345469, "lon": -99.1902182}, {"type": "node", "id": 297275710, "lat": 19.50934, "lon": -99.1264383}, {"type": "node", "id": 318074764, "lat": 19.3454303, "lon": -99.1905801}, {"type": "node", "id": 319144424, "lat": 19.3613908, "lon": -99.1876508}, {"type": "node", "id": 319144425, "lat": 19.3607736, "lon": -99.185423}, {"type": "node", "id": 319144426, "lat": 19.3615897, "lon": -99.1851608}, {"type": "node", "id": 319144427, "lat": 19.3615818, "lon": -99.1852916}, {"type": "node", "id": 319144428, "lat": 19.3615708, "lon": -99.1856765}, {"type": "node", "id": 319144429, "lat": 19.3616576, "lon": -99.1859971}, {"type": "node", "id": 319144431, "lat": 19.3618011, "lon": -99.186492}, {"type": "node", "id": 319144432, "lat": 19.3618242, "lon": -99.1867887}, {"type": "node", "id": 319144433, "lat": 19.3617924, "lon": -99.1869828}, {"type": "node", "id": 330798834, "lat": 19.4186655, "lon": -99.237839}, {"type": "node", "id": 330798835, "lat": 19.4190167, "lon": -99.2372075}, {"type": "node", "id": 330798836, "lat": 19.4185845, "lon": -99.2368913}, {"type": "node", "id": 330798837, "lat": 19.4181679, "lon": -99.2375437}, {"type": "node", "id": 331139124, "lat": 19.4144187, "lon": -99.2447093}, {"type": "node", "id": 331139134, "lat": 19.4143849, "lon": -99.2447321}, {"type": "node", "id": 331139149, "lat": 19.4143557, "lon": -99.2447318}, {"type": "node", "id": 331139165, "lat": 19.4143306, "lon": -99.2447165}, {"type": "node", "id": 331139169, "lat": 19.4143277, "lon": -99.2446359}, {"type": "node", "id": 331139172, "lat": 19.4143668, "lon": -99.2446124}, {"type": "node", "id": 331139173, "lat": 19.414393, "lon": -99.244617}, {"type": "node", "id": 331139174, "lat": 19.4144133, "lon": -99.2446322}, {"type": "node", "id": 331139175, "lat": 19.4144277, "lon": -99.244665}, {"type": "node", "id": 331420424, "lat": 19.3888434, "lon": -99.1949264}, {"type": "node", "id": 331420425, "lat": 19.388892, "lon": -99.1957161}, {"type": "node", "id": 331420426, "lat": 19.3890215, "lon": -99.1959049}, {"type": "node", "id": 331420427, "lat": 19.3891025, "lon": -99.1960594}, {"type": "node", "id": 331420428, "lat": 19.3891186, "lon": -99.1962311}, {"type": "node", "id": 331420429, "lat": 19.3890053, "lon": -99.196377}, {"type": "node", "id": 331420430, "lat": 19.3888515, "lon": -99.1964371}, {"type": "node", "id": 331420431, "lat": 19.3887705, "lon": -99.1965572}, {"type": "node", "id": 331420432, "lat": 19.3887624, "lon": -99.1967632}, {"type": "node", "id": 331420433, "lat": 19.3888029, "lon": -99.1969778}, {"type": "node", "id": 331420434, "lat": 19.3886976, "lon": -99.1974756}, {"type": "node", "id": 331420435, "lat": 19.3886976, "lon": -99.1976473}, {"type": "node", "id": 331420436, "lat": 19.3888029, "lon": -99.197776}, {"type": "node", "id": 331420437, "lat": 19.3882442, "lon": -99.1987373}, {"type": "node", "id": 331420438, "lat": 19.3885762, "lon": -99.1990377}, {"type": "node", "id": 331420439, "lat": 19.3884709, "lon": -99.1992781}, {"type": "node", "id": 331420440, "lat": 19.3893292, "lon": -99.2000248}, {"type": "node", "id": 331420441, "lat": 19.3899364, "lon": -99.1999561}, {"type": "node", "id": 331420442, "lat": 19.3904141, "lon": -99.2003853}, {"type": "node", "id": 331420443, "lat": 19.3897502, "lon": -99.1945831}, {"type": "node", "id": 331420444, "lat": 19.389151, "lon": -99.1947205}, {"type": "node", "id": 332539867, "lat": 19.3797617, "lon": -99.1850475}, {"type": "node", "id": 332539871, "lat": 19.3796613, "lon": -99.1845259}, {"type": "node", "id": 332539873, "lat": 19.3794269, "lon": -99.1845766}, {"type": "node", "id": 332539876, "lat": 19.3795273, "lon": -99.1850982}, {"type": "node", "id": 332704523, "lat": 19.3526505, "lon": -99.19005}, {"type": "node", "id": 332704524, "lat": 19.3526181, "lon": -99.1897668}, {"type": "node", "id": 332704525, "lat": 19.3525696, "lon": -99.1897754}, {"type": "node", "id": 332704526, "lat": 19.3525453, "lon": -99.189578}, {"type": "node", "id": 332704527, "lat": 19.3526101, "lon": -99.1895694}, {"type": "node", "id": 332704528, "lat": 19.3525858, "lon": -99.1893634}, {"type": "node", "id": 332704529, "lat": 19.3523104, "lon": -99.1893891}, {"type": "node", "id": 332704530, "lat": 19.3523104, "lon": -99.189475}, {"type": "node", "id": 332704531, "lat": 19.3519379, "lon": -99.1895093}, {"type": "node", "id": 332704532, "lat": 19.3519541, "lon": -99.1897925}, {"type": "node", "id": 332704533, "lat": 19.3523671, "lon": -99.189741}, {"type": "node", "id": 332704535, "lat": 19.3523833, "lon": -99.1900844}, {"type": "node", "id": 333888616, "lat": 19.4143131, "lon": -99.2446726}, {"type": "node", "id": 473817637, "lat": 19.3893518, "lon": -99.1757718, "tags": {"amenity": "pub", "name": "Cofee West"}}, {"type": "node", "id": 473862852, "lat": 19.4103553, "lon": -99.1762765, "tags": {"amenity": "pub", "name": "St. Patricks Pub"}}, {"type": "node", "id": 729787003, "lat": 19.2882677, "lon": -99.1665803, "tags": {"amenity": "bar", "name": "La Jaliscience"}}, {"type": "node", "id": 823753766, "lat": 19.3663602, "lon": -99.2633271, "tags": {"amenity": "pub", "name": "King's Pub"}}, {"type": "node", "id": 855780980, "lat": 19.3675608, "lon": -99.1818053, "tags": {"amenity": "bar", "name": "Vor Hal"}}, {"type": "node", "id": 855784861, "lat": 19.367409, "lon": -99.1812366, "tags": {"amenity": "bar"}}, {"type": "node", "id": 994316707, "lat": 19.3788678, "lon": -99.1869912, "tags": {"amenity": "bar", "name": "WareHouse", "public_transport": "platform"}}, {"type": "node", "id": 996891324, "lat": 19.3899231, "lon": -99.1960941}, {"type": "node", "id": 1001722869, "lat": 19.3722489, "lon": -99.1630303}, {"type": "node", "id": 1001722872, "lat": 19.3721004, "lon": -99.1618914}, {"type": "node", "id": 1001722873, "lat": 19.3721936, "lon": -99.1623992}, {"type": "node", "id": 1001722877, "lat": 19.3721707, "lon": -99.1623355}, {"type": "node", "id": 1001722883, "lat": 19.3712761, "lon": -99.1620382}, {"type": "node", "id": 1001722884, "lat": 19.3714084, "lon": -99.1625373}, {"type": "node", "id": 1001722885, "lat": 19.3714149, "lon": -99.1625562}, {"type": "node", "id": 1001722887, "lat": 19.3714753, "lon": -99.1629138}, {"type": "node", "id": 1015469873, "lat": 19.3616073, "lon": -99.1858383}, {"type": "node", "id": 1015469885, "lat": 19.3615495, "lon": -99.1855745}, {"type": "node", "id": 1015469891, "lat": 19.3615418, "lon": -99.1854724}, {"type": "node", "id": 1231985646, "lat": 19.4086997, "lon": -99.0261632, "tags": {"amenity": "bar", "name": "El Cant\u00f3n del Don"}}, {"type": "node", "id": 1307096360, "lat": 19.4798778, "lon": -99.0637796, "tags": {"amenity": "bar", "name": "Charly's Bar"}}, {"type": "node", "id": 1359936894, "lat": 19.5076748, "lon": -99.2342255, "tags": {"addr:postcode": "53100", "addr:street": "Fernando Leal Novelo", "amenity": "bar", "name": "La Tradicional", "wifi": "no"}}, {"type": "node", "id": 1359941892, "lat": 19.5078492, "lon": -99.2339815, "tags": {"addr:postcode": "53100", "addr:street": "Carlos Arellano", "amenity": "bar", "name": "Bar Plaza"}}, {"type": "node", "id": 1434605448, "lat": 19.3369178, "lon": -99.1894213}, {"type": "node", "id": 1434605451, "lat": 19.3369286, "lon": -99.189305}, {"type": "node", "id": 1434605470, "lat": 19.3370536, "lon": -99.1894856}, {"type": "node", "id": 1434605472, "lat": 19.3370584, "lon": -99.1894344}, {"type": "node", "id": 1434605476, "lat": 19.3372081, "lon": -99.189331}, {"type": "node", "id": 1434605477, "lat": 19.3372174, "lon": -99.189231}, {"type": "node", "id": 1434605483, "lat": 19.3372417, "lon": -99.1897369}, {"type": "node", "id": 1434605498, "lat": 19.3372633, "lon": -99.1895051}, {"type": "node", "id": 1434605500, "lat": 19.337267, "lon": -99.1899132}, {"type": "node", "id": 1434605502, "lat": 19.337283, "lon": -99.1897408}, {"type": "node", "id": 1434605516, "lat": 19.3373811, "lon": -99.1899239}, {"type": "node", "id": 1434605534, "lat": 19.3374316, "lon": -99.1893801}, {"type": "node", "id": 1434605543, "lat": 19.337472, "lon": -99.1893839}, {"type": "node", "id": 1434605558, "lat": 19.3374839, "lon": -99.1892558}, {"type": "node", "id": 1435009048, "lat": 19.3452337, "lon": -99.1901908}, {"type": "node", "id": 1435009049, "lat": 19.3454546, "lon": -99.1901393}, {"type": "node", "id": 1435009050, "lat": 19.3455374, "lon": -99.1903471}, {"type": "node", "id": 1435027465, "lat": 19.3455916, "lon": -99.1903957}, {"type": "node", "id": 1435165162, "lat": 19.3454937, "lon": -99.1902799, "tags": {"entrance": "main"}}, {"type": "node", "id": 1446234576, "lat": 19.4547768, "lon": -99.1578529, "tags": {"amenity": "bar", "name": "Angus Bar"}}, {"type": "node", "id": 1478218065, "lat": 19.3934962, "lon": -99.0654372, "tags": {"amenity": "bar"}}, {"type": "node", "id": 1478263358, "lat": 19.40043, "lon": -99.064242, "tags": {"amenity": "bar"}}, {"type": "node", "id": 1482031193, "lat": 19.336814, "lon": -99.183615, "tags": {"amenity": "pub", "name": "Benne"}}, {"type": "node", "id": 1623347042, "lat": 19.3205739, "lon": -99.0845347}, {"type": "node", "id": 1623347068, "lat": 19.3208215, "lon": -99.0845849}, {"type": "node", "id": 1623347072, "lat": 19.3204821, "lon": -99.0846286}, {"type": "node", "id": 1623347073, "lat": 19.3204465, "lon": -99.0844703}, {"type": "node", "id": 1623347076, "lat": 19.3206433, "lon": -99.0846298}, {"type": "node", "id": 1623347077, "lat": 19.3207976, "lon": -99.0844782}, {"type": "node", "id": 1623347088, "lat": 19.3206344, "lon": -99.0845902}, {"type": "node", "id": 1623347091, "lat": 19.3205533, "lon": -99.0844433}, {"type": "node", "id": 1695410727, "lat": 19.3538908, "lon": -99.1624312, "tags": {"alt_name": "Instituto Federal Electoral", "amenity": "public_building", "name": "IFE"}}, {"type": "node", "id": 1792449299, "lat": 19.5102137, "lon": -99.1274427}, {"type": "node", "id": 1792449307, "lat": 19.5108294, "lon": -99.1268399}, {"type": "node", "id": 1792449312, "lat": 19.5099557, "lon": -99.1258355}, {"type": "node", "id": 2111503465, "lat": 19.4113021, "lon": -99.1751717, "tags": {"amenity": "bar", "name": "Guadalupe Reyes"}}, {"type": "node", "id": 2111541183, "lat": 19.4110606, "lon": -99.1745697, "tags": {"amenity": "bar", "name": "La Cerveceria"}}, {"type": "node", "id": 2112441687, "lat": 19.4120965, "lon": -99.1732183, "tags": {"amenity": "pub"}}, {"type": "node", "id": 2112441716, "lat": 19.4114223, "lon": -99.17202, "tags": {"amenity": "pub"}}, {"type": "node", "id": 2112441733, "lat": 19.4113856, "lon": -99.1736589, "tags": {"amenity": "bar", "name": "Moxie"}}, {"type": "node", "id": 2112453346, "lat": 19.4110194, "lon": -99.1647352, "tags": {"amenity": "pub"}}, {"type": "node", "id": 2125825831, "lat": 19.4579972, "lon": -99.1292126, "tags": {"alt_name": "La Tlaxcalteca", "amenity": "pub", "designation": "Pulquer\u00edas Tradicionales de la Ciudad de M\u00e9xico", "name": "Expendio de Pulque \"La Tlaxcalteca\"", "source": "Survey", "wifi": "no"}}, {"type": "node", "id": 2133330384, "lat": 19.4118164, "lon": -99.1719552, "tags": {"amenity": "pub", "name": "King's Pub", "wifi": "no"}}, {"type": "node", "id": 2141839460, "lat": 19.3485506, "lon": -99.1630122, "tags": {"amenity": "bar", "name": "Mes\u00f3n del Buen Tunar", "source": "survey"}}, {"type": "node", "id": 2261607827, "lat": 19.295299, "lon": -99.1332489, "tags": {"amenity": "bar", "name": "El Jaibol"}}, {"type": "node", "id": 2262802944, "lat": 19.4121385, "lon": -99.1731389, "tags": {"addr:city": "Ciudad de M\u00e9xico", "addr:country": "MX", "addr:housename": "\u00a1El Aserr\u00edn!", "addr:housenumber": "18", "addr:postcode": "06100", "addr:street": "Fernando Montes de Oca", "alt_name": "Pulquer\u00eda", "amenity": "bar", "int_name": "Mezcaler\u00eda", "name": "\u00a1El Aserr\u00edn!", "old_name": "Mezcaler\u00eda \u00a1El Aserr\u00edn!", "source": "Foursquare", "website": "Facebook - El Aserrin", "wifi": "yes"}}, {"type": "node", "id": 2262820148, "lat": 19.4132111, "lon": -99.1722967, "tags": {"addr:city": "Ciudad de M\u00e9xico", "addr:housename": "Plaza Condesa", "addr:housenumber": "36", "addr:postcode": "06100", "addr:street": "Tamaulipas", "amenity": "bar;restaurant;pub", "name": "Zydeco Bar", "source": "Foursquare", "wifi": "yes"}}, {"type": "node", "id": 2263351845, "lat": 19.4129688, "lon": -99.1728545, "tags": {"addr:city": "Ciudad de M\u00e9xico", "addr:housename": "Wallace", "addr:housenumber": "45", "addr:postcode": "06100", "addr:street": "Tamaulipas", "amenity": "pub", "name": "Wallace Whisky Bar", "source": "Foursquare", "website": "www.wallace.mx", "wifi": "yes"}}, {"type": "node", "id": 2263356712, "lat": 19.4123566, "lon": -99.1730154, "tags": {"addr:city": "Ciudad de M\u00e9xico", "addr:housename": "Makena", "addr:housenumber": "56", "addr:postcode": "06100", "addr:street": "Tamaulipas", "amenity": "bar", "name": "Makena", "wifi": "yes"}}, {"type": "node", "id": 2263358563, "lat": 19.4132926, "lon": -99.1721839, "tags": {"addr:city": "Ciudad de M\u00e9xico", "addr:country": "MX", "addr:housename": "Plaza Condesa", "addr:housenumber": "30", "addr:postcode": "06100", "addr:street": "Tamaulipas", "amenity": "pub", "name": "Pata Negra", "wifi": "yes"}}, {"type": "node", "id": 2263358724, "lat": 19.4130751, "lon": -99.1723771, "tags": {"addr:city": "Ciudad de M\u00e9xico", "addr:housename": "Plaza Condesa", "addr:housenumber": "30", "addr:postcode": "06100", "addr:street": "Tamaulipas", "amenity": "pub", "name": "Celtic's Pub", "wifi": "yes"}}, {"type": "node", "id": 2263374049, "lat": 19.4121644, "lon": -99.1736002, "tags": {"addr:housename": "CatWalk", "addr:housenumber": "63", "addr:postcode": "06100", "addr:street": "Tamaulipas", "amenity": "nightclub", "name": "CatWalk", "wifi": "yes"}}, {"type": "node", "id": 2263377148, "lat": 19.4104089, "lon": -99.1757031, "tags": {"addr:city": "Ciudad de M\u00e9xico", "addr:housename": "Hotel Mar\u00eda Condesa", "addr:housenumber": "32", "addr:postcode": "06100", "addr:street": "Atlixco", "amenity": "bar", "designation": "Hotel Bar", "name": "Maruka", "wifi": "yes"}}, {"type": "node", "id": 2297682823, "lat": 19.5096646, "lon": -99.235247}, {"type": "node", "id": 2297682825, "lat": 19.5109185, "lon": -99.2351719}, {"type": "node", "id": 2297682827, "lat": 19.5111309, "lon": -99.2344316}, {"type": "node", "id": 2297682828, "lat": 19.511945, "lon": -99.2330959}, {"type": "node", "id": 2297682830, "lat": 19.5109337, "lon": -99.2348823}, {"type": "node", "id": 2297682831, "lat": 19.5112523, "lon": -99.2347642}, {"type": "node", "id": 2297682833, "lat": 19.5113231, "lon": -99.2333373}, {"type": "node", "id": 2297682834, "lat": 19.5110096, "lon": -99.2351237}, {"type": "node", "id": 2297682840, "lat": 19.5122332, "lon": -99.2339864}, {"type": "node", "id": 2297682843, "lat": 19.5084358, "lon": -99.2342975}, {"type": "node", "id": 2297682846, "lat": 19.5104028, "lon": -99.2328813}, {"type": "node", "id": 2297682848, "lat": 19.510064, "lon": -99.2354509}, {"type": "node", "id": 2297682849, "lat": 19.5099477, "lon": -99.2351505}, {"type": "node", "id": 2297682851, "lat": 19.5106152, "lon": -99.2334446}, {"type": "node", "id": 2297682853, "lat": 19.5095887, "lon": -99.2350325}, {"type": "node", "id": 2297682855, "lat": 19.5087847, "lon": -99.235349}, {"type": "node", "id": 2297682859, "lat": 19.5104989, "lon": -99.2353382}, {"type": "node", "id": 2297682860, "lat": 19.5102309, "lon": -99.2354294}, {"type": "node", "id": 2297682861, "lat": 19.509169, "lon": -99.2333319}, {"type": "node", "id": 2297682863, "lat": 19.5112826, "lon": -99.2332139}, {"type": "node", "id": 2297682864, "lat": 19.5107315, "lon": -99.2352631}, {"type": "node", "id": 2297682865, "lat": 19.5093865, "lon": -99.2339167}, {"type": "node", "id": 2418219439, "lat": 19.4347251, "lon": -99.1393309, "tags": {"alt_name": "La \u00d3pera", "amenity": "pub", "name": "Cantina \"La \u00d3pera\"", "source": "Survey", "wifi": "no"}}, {"type": "node", "id": 2418219465, "lat": 19.4341765, "lon": -99.1392955, "tags": {"alt_name": "El Corona", "amenity": "pub", "cuisine": "mexican", "name": "Sal\u00f3n Corona \"Filomeno Mata\"", "source": "Survey", "wifi": "no"}}, {"type": "node", "id": 2426033191, "lat": 19.2612802, "lon": -99.1027277, "tags": {"amenity": "bar", "name": "Pulqueria Templo de Diana", "wifi": "no"}}, {"type": "node", "id": 2426033203, "lat": 19.259128, "lon": -99.1053539, "tags": {"amenity": "bar", "name": "Pulqueria La Botijona"}}, {"type": "node", "id": 2616586662, "lat": 19.4300042, "lon": -99.1260062, "tags": {"amenity": "pub", "name": "Pulquer\u00eda El Recreo de Manzanares"}}, {"type": "node", "id": 2682125649, "lat": 19.2512191, "lon": -99.1000244, "tags": {"amenity": "nightclub", "name": "Rodeo Xochimilco"}}, {"type": "node", "id": 2682370960, "lat": 19.4055457, "lon": -99.0151259, "tags": {"amenity": "nightclub", "name": "Mon Star"}}, {"type": "node", "id": 2682371285, "lat": 19.4818229, "lon": -99.0518228}, {"type": "node", "id": 2682371289, "lat": 19.4818538, "lon": -99.051808}, {"type": "node", "id": 2682371290, "lat": 19.4818804, "lon": -99.0519574}, {"type": "node", "id": 2682371351, "lat": 19.4846061, "lon": -99.0507234, "tags": {"amenity": "public_building", "name": "La Bola"}}, {"type": "node", "id": 2743776378, "lat": 19.5191907, "lon": -99.0799122, "tags": {"amenity": "bar", "name": "Bar"}}, {"type": "node", "id": 2782636326, "lat": 19.4271085, "lon": -99.1362527, "tags": {"amenity": "bar", "name": "Balagan"}}, {"type": "node", "id": 2832825466, "lat": 19.431704, "lon": -99.1858605, "tags": {"amenity": "pub", "name": "Celtics Pub Irland\u00e9s Polanco"}}, {"type": "node", "id": 2933697296, "lat": 19.2892782, "lon": -99.1663387, "tags": {"addr:city": "M\u00e9xico DF", "addr:housenumber": "16", "addr:postcode": "14000", "addr:street": "Francisco I Madero", "amenity": "bar", "name": "Pulquer\u00eda La Santa Solita"}}, {"type": "node", "id": 2970540261, "lat": 19.3953282, "lon": -99.1234691, "tags": {"addr:housenumber": "667", "addr:street": "Calzada de le Viga", "amenity": "nightclub", "name": "VD+"}}, {"type": "node", "id": 3035414619, "lat": 19.3471096, "lon": -99.1635559, "tags": {"amenity": "pub", "internet_access": "wlan", "name": "El Graffito", "website": "www.elgraffito.com"}}, {"type": "node", "id": 3110253369, "lat": 19.4566413, "lon": -99.1499409, "tags": {"amenity": "bar", "name": "Intro"}}, {"type": "node", "id": 3157944456, "lat": 19.4279026, "lon": -99.1941828, "tags": {"addr:city": "Ciudad de M\u00e9xico", "addr:country": "MX", "addr:housenumber": "223", "addr:postcode": "11560", "addr:street": "Campos El\u00edseos", "amenity": "bar", "name": "Prime & Wine", "opening_hours": "Mo 13:00-01:00; Tu 13:00-01:00; We 13:00-01:00; Th 13:00-01:00; Fr 13:00-01:00; Sa closed; Su closed"}}, {"type": "node", "id": 3164056946, "lat": 19.2892057, "lon": -99.1663598, "tags": {"amenity": "bar", "name": "Los Bigotes de Carranza"}}, {"type": "node", "id": 3536253050, "lat": 19.4186433, "lon": -99.1649501}, {"type": "node", "id": 3536253051, "lat": 19.4185009, "lon": -99.1647087}, {"type": "node", "id": 3536253053, "lat": 19.4184834, "lon": -99.1647027}, {"type": "node", "id": 3536253054, "lat": 19.4186856, "lon": -99.1648964}, {"type": "node", "id": 3536253056, "lat": 19.4186559, "lon": -99.1648871}, {"type": "node", "id": 3536253057, "lat": 19.4184402, "lon": -99.1648884}, {"type": "node", "id": 3536253058, "lat": 19.4187533, "lon": -99.1645821}, {"type": "node", "id": 3540410921, "lat": 19.2620257, "lon": -99.0269176}, {"type": "node", "id": 3540410922, "lat": 19.2606296, "lon": -99.0274159}, {"type": "node", "id": 3540410923, "lat": 19.2603534, "lon": -99.0273763}, {"type": "node", "id": 3542705375, "lat": 19.254887, "lon": -99.0205847}, {"type": "node", "id": 3542705382, "lat": 19.255524, "lon": -99.0224177}, {"type": "node", "id": 3542705388, "lat": 19.255943, "lon": -99.0201373}, {"type": "node", "id": 3542705392, "lat": 19.2565458, "lon": -99.0219807}, {"type": "node", "id": 3601558564, "lat": 19.2598568, "lon": -99.0273938}, {"type": "node", "id": 3601558565, "lat": 19.2598864, "lon": -99.0275346}, {"type": "node", "id": 3601558566, "lat": 19.2602431, "lon": -99.0272403}, {"type": "node", "id": 3601558567, "lat": 19.2606074, "lon": -99.0272171}, {"type": "node", "id": 3601558568, "lat": 19.2619638, "lon": -99.0267195}, {"type": "node", "id": 3601558569, "lat": 19.2620121, "lon": -99.0265847}, {"type": "node", "id": 3601558570, "lat": 19.2620991, "lon": -99.0268986}, {"type": "node", "id": 3601558571, "lat": 19.2622228, "lon": -99.0254455}, {"type": "node", "id": 3601558572, "lat": 19.2624146, "lon": -99.02839}, {"type": "node", "id": 3601558573, "lat": 19.2625256, "lon": -99.0254083}, {"type": "node", "id": 3601558574, "lat": 19.2627671, "lon": -99.0257245}, {"type": "node", "id": 3601558575, "lat": 19.2650913, "lon": -99.0250337}, {"type": "node", "id": 3601558576, "lat": 19.2652577, "lon": -99.0255295}, {"type": "node", "id": 3601558577, "lat": 19.2654811, "lon": -99.0257071}, {"type": "node", "id": 3601558578, "lat": 19.2658536, "lon": -99.0268447}, {"type": "node", "id": 3608275646, "lat": 19.4612516, "lon": -99.1096499}, {"type": "node", "id": 3608275672, "lat": 19.4614544, "lon": -99.1095765}, {"type": "node", "id": 3608275688, "lat": 19.4615976, "lon": -99.1107156}, {"type": "node", "id": 3608275710, "lat": 19.4617627, "lon": -99.1105754}, {"type": "node", "id": 3657102537, "lat": 19.4367881, "lon": -99.1513221, "tags": {"addr:city": "Mexcio DF", "addr:housenumber": "35", "addr:postcode": "06030", "addr:street": "Calle Tomas Alva Edison", "amenity": "pub", "name": "B&B Brew and Botana", "website": "http://brewandbotana.com/"}}, {"type": "node", "id": 3740821038, "lat": 19.4315021, "lon": -99.1833341, "tags": {"amenity": "pub", "name": "La Chilanguita", "source": "local knowledge"}}, {"type": "node", "id": 3754914116, "lat": 19.2953191, "lon": -99.1323699, "tags": {"amenity": "bar", "name": "Kiev"}}, {"type": "node", "id": 3754914120, "lat": 19.2960178, "lon": -99.1327575, "tags": {"amenity": "bar", "name": "La Canija"}}, {"type": "node", "id": 3769867827, "lat": 19.4009087, "lon": -99.1472163, "tags": {"amenity": "bar", "name": "Oaxaca"}}, {"type": "node", "id": 3769867850, "lat": 19.4013738, "lon": -99.1471758, "tags": {"amenity": "bar", "name": "La Narvarte"}}, {"type": "node", "id": 3775079771, "lat": 19.4148231, "lon": -99.0193245, "tags": {"amenity": "bar", "name": "La Terrasa"}}, {"type": "node", "id": 3775079779, "lat": 19.4164684, "lon": -99.0189635, "tags": {"amenity": "bar", "name": "La union"}}, {"type": "node", "id": 3776008584, "lat": 19.3945344, "lon": -99.1429403, "tags": {"amenity": "bar"}}, {"type": "node", "id": 3777143496, "lat": 19.3269071, "lon": -99.1565354, "tags": {"amenity": "bar"}}, {"type": "node", "id": 3779151838, "lat": 19.3891569, "lon": -99.176593, "tags": {"amenity": "bar"}}, {"type": "node", "id": 3779387448, "lat": 19.4003485, "lon": -99.1481204, "tags": {"amenity": "bar"}}, {"type": "node", "id": 3779689203, "lat": 19.3117415, "lon": -99.1623942, "tags": {"amenity": "bar"}}, {"type": "node", "id": 3779760017, "lat": 19.3101473, "lon": -99.1576048, "tags": {"amenity": "bar"}}, {"type": "node", "id": 3789508645, "lat": 19.3962377, "lon": -99.1480446, "tags": {"amenity": "bar"}}, {"type": "node", "id": 3789659762, "lat": 19.3991802, "lon": -99.1509799, "tags": {"amenity": "bar"}}, {"type": "node", "id": 3789659763, "lat": 19.3975688, "lon": -99.1515085, "tags": {"amenity": "bar"}}, {"type": "node", "id": 3789659765, "lat": 19.3968822, "lon": -99.1515646, "tags": {"amenity": "pub"}}, {"type": "node", "id": 3789659766, "lat": 19.3993176, "lon": -99.1509716, "tags": {"amenity": "nightclub"}}, {"type": "node", "id": 3803114483, "lat": 19.4172536, "lon": -99.1151598, "tags": {"addr:city": "Venustiano Carranza", "addr:country": "MX", "addr:housenumber": "292", "addr:postcode": "15900", "addr:street": "Lic. Lazaro Pavia", "amenity": "bar", "contact:phone": "+52 55 5764 0372", "level": "4", "name": "Sociales Rose Mary", "website": "salondefiestasrosemary.com"}}, {"type": "node", "id": 3803114484, "lat": 19.4171011, "lon": -99.1127296, "tags": {"addr:city": "Venustiano Carranza", "addr:housenumber": "22", "addr:postcode": "15900", "addr:street": "Luis Lara Pardo", "amenity": "bar", "name": "Woaxaca Wings"}}, {"type": "node", "id": 3803163300, "lat": 19.4468969, "lon": -99.1579499, "tags": {"addr:city": "Ciudad de M\u00e9xico", "addr:housenumber": "92", "addr:postcode": "06400", "addr:street": "Eje 1 Nte.", "amenity": "bar", "name": "Pulqueria La Malquerida"}}, {"type": "node", "id": 3803224957, "lat": 19.4497074, "lon": -99.1635187, "tags": {"amenity": "bar", "name": "Cervecer\u00eda Zacatecas"}}, {"type": "node", "id": 3815873194, "lat": 19.4146924, "lon": -99.1559032, "tags": {"amenity": "bar", "name": "Bar San Luis"}}, {"type": "node", "id": 3984803120, "lat": 19.4086423, "lon": -99.1309795, "tags": {"addr:city": "M\u00e9xico", "addr:housenumber": "87", "addr:street": "Calz. Chabacano", "amenity": "bar", "name": "Bacanal", "smoking": "no"}}, {"type": "node", "id": 4011753328, "lat": 19.4180764, "lon": -99.1136479}, {"type": "node", "id": 4011753329, "lat": 19.4173509, "lon": -99.1137365}, {"type": "node", "id": 4011776354, "lat": 19.4189366, "lon": -99.112704, "tags": {"amenity": "public_bookcase"}}, {"type": "node", "id": 4022966548, "lat": 19.4594717, "lon": -99.1320304, "tags": {"addr:city": "Cuauht\u00e9moc", "addr:housenumber": "2", "addr:postcode": "06220", "addr:street": "Melesio Morales", "amenity": "pub", "name": "La Reforma", "smoking": "outside"}}, {"type": "node", "id": 4040557294, "lat": 19.4081528, "lon": -99.14434, "tags": {"amenity": "pub", "internet_access": "no", "name": "Cantina La Pompa", "smoking": "outside", "takeaway": "no", "wheelchair": "no"}}, {"type": "node", "id": 4067931784, "lat": 19.3715384, "lon": -99.1631473}, {"type": "node", "id": 4077171911, "lat": 19.361914, "lon": -99.1511163, "tags": {"addr:city": "Ciudad de M\u00e9xico", "addr:housenumber": "909", "addr:postcode": "03300", "addr:street": "L\u00e1zaro C\u00e1rdenas", "amenity": "bar", "name": "C\u00edrculo 99", "opening_hours": "Tu-Th 13:00-23:00; Fr,Sa 13:00-01:00"}}, {"type": "node", "id": 4089247221, "lat": 19.3607726, "lon": -99.1643625}, {"type": "node", "id": 4089247222, "lat": 19.3606607, "lon": -99.1643931}, {"type": "node", "id": 4089247223, "lat": 19.3605526, "lon": -99.1639481}, {"type": "node", "id": 4089247224, "lat": 19.3606645, "lon": -99.1639176}, {"type": "node", "id": 4102445295, "lat": 19.3611595, "lon": -99.1515795, "tags": {"addr:city": "Ciudad de M\u00e9xico", "addr:housenumber": "154 D", "addr:street": "Avenida Popocat\u00e9petl", "amenity": "bar", "name": "La Paloma Azul", "opening_hours": "Mo-Sa 12:00-21:00"}}, {"type": "node", "id": 4141440291, "lat": 19.2987779, "lon": -99.1515679}, {"type": "node", "id": 4141440292, "lat": 19.2985931, "lon": -99.1513679}, {"type": "node", "id": 4141475711, "lat": 19.2987057, "lon": -99.1512048}, {"type": "node", "id": 4141475712, "lat": 19.298969, "lon": -99.1515401}, {"type": "node", "id": 4141475713, "lat": 19.2988829, "lon": -99.1516581}, {"type": "node", "id": 4141475735, "lat": 19.2988338, "lon": -99.1516159}, {"type": "node", "id": 4142769112, "lat": 19.2941084, "lon": -99.2415502, "tags": {"amenity": "bar", "name": "El Paraiso", "opening_hours": "Sa,Su", "smoking": "separated"}}, {"type": "node", "id": 4145036785, "lat": 19.3563148, "lon": -99.1691403, "tags": {"amenity": "public_bath", "name": "Ba\u00f1os p\u00fablicos", "opening_hours": "Mo-Su 06:00-18:00"}}, {"type": "node", "id": 4154618989, "lat": 19.4181617, "lon": -99.1705645, "tags": {"addr:city": "Ciudad de M\u00e9xico", "addr:country": "MX", "addr:housenumber": "60", "addr:postcode": "06700", "addr:street": "Cozumel", "amenity": "bar", "cuisine": "mexican", "name": "Dulce Maguey", "opening_hours": "We-Sa 18:00-02:00", "phone": "+01 55 65860402", "smoking": "outside", "website": "http://www.dulcemaguey.com/"}}, {"type": "node", "id": 4156409208, "lat": 19.3560003, "lon": -99.1633352, "tags": {"addr:housenumber": "107", "addr:street": "Centenario", "amenity": "bar", "name": "Centenario 107", "website": "www.centenario107.com"}}, {"type": "node", "id": 4160316090, "lat": 19.4372791, "lon": -99.1376782, "tags": {"amenity": "bar", "name": "R\u00edo de la Plata", "opening_hours": "Mo-Su 08:00-18:00; Apr 10-Apr 15,Aug,Dec 25: off; Jun: 08:00-14:00", "operator": "R\u00edo de la Plata", "smoking": "no", "wheelchair": "no"}}, {"type": "node", "id": 4162397591, "lat": 19.4021222, "lon": -99.1530021, "tags": {"amenity": "bar", "name": "Arracheras"}}, {"type": "node", "id": 4164135890, "lat": 19.4195688, "lon": -99.1640195, "tags": {"amenity": "pub", "name": "Montenegro"}}, {"type": "node", "id": 4164172189, "lat": 19.4117113, "lon": -99.1759308, "tags": {"amenity": "bar", "name": "Barra de Mar"}}, {"type": "node", "id": 4166704689, "lat": 19.4877592, "lon": -99.1249886, "tags": {"amenity": "pub", "name": "Memela's Pub"}}, {"type": "node", "id": 4168566789, "lat": 19.4144724, "lon": -99.1638395, "tags": {"amenity": "pub", "name": "McCarthy's Irish Pub"}}, {"type": "node", "id": 4170719894, "lat": 19.43685, "lon": -99.1562917, "tags": {"addr:housenumber": "51", "addr:street": "Plaza de la Rep\u00fablica", "amenity": "pub", "name": "Crisanta Cervecer\u00eda Garage"}}, {"type": "node", "id": 4173294389, "lat": 19.4378398, "lon": -99.1499459, "tags": {"amenity": "nightclub", "name": "Sal\u00f3n Candela"}}, {"type": "node", "id": 4173294590, "lat": 19.4378521, "lon": -99.135497, "tags": {"amenity": "pub", "name": "La Dominica"}}, {"type": "node", "id": 4173294889, "lat": 19.4369964, "lon": -99.1402429, "tags": {"amenity": "pub", "name": "Cervecer\u00eda de Banda"}}, {"type": "node", "id": 4181864725, "lat": 19.4363153, "lon": -99.1355556, "tags": {"addr:city": "Ciudad de M\u00e9xico", "addr:housenumber": "58", "addr:street": "Doncelles", "amenity": "bar", "name": "UTA", "opening_hours": "21:00-03:00", "smoking": "isolated"}}, {"type": "node", "id": 4188756924, "lat": 19.4379556, "lon": -99.1478559}, {"type": "node", "id": 4188756925, "lat": 19.4383955, "lon": -99.1477619}, {"type": "node", "id": 4188756926, "lat": 19.4383485, "lon": -99.1475147}, {"type": "node", "id": 4188756927, "lat": 19.4379086, "lon": -99.1476087}, {"type": "node", "id": 4190993594, "lat": 19.4381714, "lon": -99.1498419, "tags": {"addr:city": "Ciudad de M\u00e9xico", "addr:housenumber": "17", "addr:neighbourhood": "Buenavista", "addr:postcode": "06300", "addr:street": "Hidalgo", "amenity": "nightclub", "name": "Foro Cultural Hilvana", "smoking": "no"}}, {"type": "node", "id": 4218059719, "lat": 19.384136, "lon": -99.1201381, "tags": {"addr:city": "CDMX", "addr:housenumber": "53", "addr:postcode": "08930", "addr:street": "Miguel Lerdo de Tejada", "amenity": "bar", "description": "Magnifico lugar para pasarla bien viendo eventos deportivos y tomando una deliciosa michelada", "name": "Micheladas Chabenos", "note": "En Cervecentro Chabenos nos esmeramos con los sabores de las micheladas mas ricas del rumbo:-Tamarindo-Mora azul-Fresa-Uva-Mango-Chamoy-Cubana-Maracuya (ocasionalmente) LAS ESPECIALES-Fresissima-Maguisimo-Semen de pitufo. TRAGOS DE A 1 L:", "opening_hours": "Mo-Th 17:00-02:00; Fr-Sa 17:00-03:00", "smoking": "yes", "website": "https://cervecentrochabenos.wordpress.com/"}}, {"type": "node", "id": 4253493989, "lat": 19.4191334, "lon": -99.1566497, "tags": {"addr:housenumber": "39", "amenity": "bar", "name": "El Palenquito"}}, {"type": "node", "id": 4311739535, "lat": 19.4158962, "lon": -99.1412026, "tags": {"addr:housenumber": "291", "addr:postcode": "06800", "addr:street": "Bol\u00edvar", "amenity": "bar", "name": "Barba Azul"}}, {"type": "node", "id": 4316264592, "lat": 19.2494819, "lon": -99.117114, "tags": {"addr:housenumber": "18", "addr:postcode": "16200", "addr:street": "Emiliano Zapata", "amenity": "bar", "cuisine": "burger", "internet_access": "wlan", "name": "Jard\u00edn de Rousse", "opening_hours": "Mo-Fr"}}, {"type": "node", "id": 4318959376, "lat": 19.4285774, "lon": -99.1973859, "tags": {"addr:city": "Ciudad de M\u00e9xico", "addr:country": "MX", "addr:housenumber": "42", "addr:postcode": "11560", "addr:street": "Julio Verne", "amenity": "nightclub", "name": "Cigar and Wine Club"}}, {"type": "node", "id": 4333043790, "lat": 19.3576566, "lon": -99.1184761, "tags": {"amenity": "bar", "name": "Black Code", "name:es": "chillord"}}, {"type": "node", "id": 4335488093, "lat": 19.3139745, "lon": -99.1534706, "tags": {"amenity": "bar", "name": "Micheladas Estaci\u00f3n 19"}}, {"type": "node", "id": 4337116289, "lat": 19.4814596, "lon": -99.250474, "tags": {"amenity": "bar", "cuisine": "steak_house;burger;sandwich;mexican", "name": "Perros & Burros"}}, {"type": "node", "id": 4338183695, "lat": 19.4230669, "lon": -99.1716533, "tags": {"addr:city": "Ciudad de M\u00e9xico", "addr:housenumber": "281", "addr:street": "Hamburgo", "amenity": "bar", "name": "La Texcocana"}}, {"type": "node", "id": 4341826509, "lat": 19.4892428, "lon": -99.2442167, "tags": {"amenity": "bar", "cuisine": "burger;american;steak_house;friture", "name": "Stars and Legends", "toilets:wheelchair": "no", "wheelchair": "no"}}, {"type": "node", "id": 4341828610, "lat": 19.4862847, "lon": -99.2436469, "tags": {"amenity": "bar", "cuisine": "seafood", "name": "Moby Dick"}}, {"type": "node", "id": 4345106690, "lat": 19.4237886, "lon": -99.1540341, "tags": {"amenity": "nightclub", "name": "Dada X"}}, {"type": "node", "id": 4349778989, "lat": 19.3275465, "lon": -99.0537976, "tags": {"addr:postcode": "09760", "addr:street": "Jos\u00e9 L\u00f3pez Portillo #3", "amenity": "bar", "name": "casa"}}, {"type": "node", "id": 4374839291, "lat": 19.5256053, "lon": -99.2275319, "tags": {"amenity": "bar", "name": "Beer Factory", "name:es": "Beer Factory"}}, {"type": "node", "id": 4375605205, "lat": 19.43791, "lon": -99.141822, "tags": {"amenity": "bar", "cuisine": "mexican", "name": "La Pelusa", "opening_hours": "Mo-Su 23:00-11:00"}}, {"type": "node", "id": 4375606016, "lat": 19.4373975, "lon": -99.1385915, "tags": {"amenity": "bar", "name": "Las Pecosas"}}, {"type": "node", "id": 4375606017, "lat": 19.4394447, "lon": -99.1373568, "tags": {"amenity": "bar", "name": "La Esperanza"}}, {"type": "node", "id": 4393649413, "lat": 19.4548331, "lon": -99.058288}, {"type": "node", "id": 4393649414, "lat": 19.4544075, "lon": -99.0581069}, {"type": "node", "id": 4393649415, "lat": 19.4545755, "lon": -99.0576629}, {"type": "node", "id": 4393649416, "lat": 19.4550011, "lon": -99.0578439}, {"type": "node", "id": 4393660611, "lat": 19.2875537, "lon": -99.0597478}, {"type": "node", "id": 4393660612, "lat": 19.2875053, "lon": -99.0596804}, {"type": "node", "id": 4393660613, "lat": 19.2874504, "lon": -99.0597247}, {"type": "node", "id": 4393660614, "lat": 19.2874988, "lon": -99.0597921}, {"type": "node", "id": 4411931191, "lat": 19.5265534, "lon": -99.2263801, "tags": {"amenity": "pub", "name": "Plaza Paseo Santa M\u00f3nica", "name:es": "Plaza Paseo Santa M\u00f3nica"}}, {"type": "node", "id": 4417075790, "lat": 19.4056886, "lon": -99.1763705, "tags": {"addr:housenumber": "375", "addr:street": "Avenida Baja California", "amenity": "bar", "name": "El Dep\u00f3sito", "name:es": "El Dep\u00f3sito"}}, {"type": "node", "id": 4417075791, "lat": 19.40569, "lon": -99.1763813, "tags": {"addr:housenumber": "375", "addr:street": "Avenida Baja California", "amenity": "bar", "name": "El Dep\u00f3sito", "name:es": "El Dep\u00f3sito"}}, {"type": "node", "id": 4419704390, "lat": 19.4149921, "lon": -99.1588559, "tags": {"addr:housenumber": "161", "addr:street": "Orizaba", "amenity": "bar", "name": "Graciela (craft beer/ restaurant)", "name:es": "Graciela (craft beer/ restaurant)"}}, {"type": "node", "id": 4430078893, "lat": 19.4178991, "lon": -99.2678053, "tags": {"amenity": "bar", "name": "Shupp", "name:es": "Shupp"}}, {"type": "node", "id": 4430886246, "lat": 19.3763125, "lon": -99.1585692, "tags": {"amenity": "bar", "name": "El faisan dorado"}}, {"type": "node", "id": 4458634593, "lat": 19.416197, "lon": -99.1637262, "tags": {"amenity": "bar", "name": "Centro de salud", "name:es": "Centro de salud"}}, {"type": "node", "id": 4465914795, "lat": 19.416269, "lon": -99.169187, "tags": {"addr:housenumber": "298", "addr:street": "\u00c1lvaro Obreg\u00f3n", "amenity": "bar", "name": "La Clandestina", "website": "http://www.milagrito.com"}}, {"type": "node", "id": 4465962689, "lat": 19.4090667, "lon": -99.1772753, "tags": {"addr:city": "Ciudad de M\u00e9xico", "addr:country": "MX", "addr:housenumber": "120", "addr:street": "Alfonso Reyes", "amenity": "bar", "name": "La Botica", "website": "http://www.labotica.com.mx"}}, {"type": "node", "id": 4466530892, "lat": 19.4973724, "lon": -99.2376846, "tags": {"addr:city": "Sat\u00e9lite , Naucalpan de Ju\u00e1rez", "addr:postcode": "3228", "addr:street": "Blvd.Manuel \u00c1vila Camacho", "amenity": "bar", "name": "Beer Factory Sat\u00e9lite", "website": "http://beerfactory.com", "wheelchair": "yes", "wheelchair:description": "Restaurante-Bar con estacionamiento y rampas para entrar y ba\u00f1os no ,muy accesibles para sillas de ruedas."}}, {"type": "node", "id": 4466580889, "lat": 19.4973724, "lon": -99.2376846, "tags": {"addr:city": "Sat\u00e9lite , Naucalpan de Ju\u00e1rez", "addr:postcode": "3228", "addr:street": "Blvd.Manuel \u00c1vila Camacho", "amenity": "bar", "name": "Beer Factory Sat\u00e9lite", "toilets:wheelchair": "no", "website": "http://beerfactory.com", "wheelchair": "yes", "wheelchair:description": "Restaurante-Bar con estacionamiento y rampas para entrar y ba\u00f1os no ,muy accesibles para sillas de ruedas."}}, {"type": "node", "id": 4470120160, "lat": 19.4159413, "lon": -99.1648289, "tags": {"amenity": "bar", "name": "Lvsitano"}}, {"type": "node", "id": 4470120163, "lat": 19.4186793, "lon": -99.1672828, "tags": {"addr:city": "Ciudad de M\u00e9xico", "addr:housenumber": "90", "addr:postcode": "06700", "addr:street": "Oaxaca", "alt_name": "Ba\u00f1os Roma", "amenity": "nightclub", "name": "Main Room", "opening_hours": "Th-Sa 23:00 05:00"}}, {"type": "node", "id": 4470120164, "lat": 19.4190665, "lon": -99.1674107, "tags": {"amenity": "bar", "name": "Gin Gin", "opening_hours": "Tu-Sa 18:00 02:00"}}, {"type": "node", "id": 4489404733, "lat": 19.4829367, "lon": -99.1850062}, {"type": "node", "id": 4489404734, "lat": 19.4828432, "lon": -99.1845353}, {"type": "node", "id": 4489404735, "lat": 19.4823945, "lon": -99.1846396}, {"type": "node", "id": 4489404736, "lat": 19.4824887, "lon": -99.1851153}, {"type": "node", "id": 4510642490, "lat": 19.4115144, "lon": -99.1552704, "tags": {"amenity": "bar", "name": "Wing's Army", "name:es": "Wing's Army"}}, {"type": "node", "id": 4518454687, "lat": 19.4295831, "lon": -99.1694647, "tags": {"addr:city": "Ciudad de M\u00e9xico", "addr:housenumber": "130", "addr:postcode": "06500", "addr:street": "R\u00edo P\u00e1nuco", "amenity": "bar", "name": "Le Tachinomi Desu", "opening_hours": "Mo-Sa 19:00-01:00", "website": "http://www.edokobayashi.com/"}}, {"type": "node", "id": 4523918827, "lat": 19.4033251, "lon": -99.1702658, "tags": {"addr:housenumber": "280", "addr:postcode": "06100", "addr:street": "Tehuantepec", "amenity": "bar", "name": "Santa Leyenda", "website": "http://santaleyendabar.com/"}}, {"type": "node", "id": 4527219351, "lat": 19.3811165, "lon": -99.0819609}, {"type": "node", "id": 4527219352, "lat": 19.3814521, "lon": -99.0819541}, {"type": "node", "id": 4527219353, "lat": 19.3814501, "lon": -99.081841}, {"type": "node", "id": 4527219354, "lat": 19.3811203, "lon": -99.081842}, {"type": "node", "id": 4532835863, "lat": 19.4375982, "lon": -99.1894433, "tags": {"amenity": "bar", "name": "El Deposito"}}, {"type": "node", "id": 4533020291, "lat": 19.437954, "lon": -99.1534427, "tags": {"addr:postcode": "06030", "addr:street": "Ponciano Arriaga", "amenity": "pub", "name": "La Taberna", "name:es": "La Taberna"}}, {"type": "node", "id": 4533079189, "lat": 19.4289238, "lon": -99.1389325, "tags": {"addr:housenumber": "20", "addr:street": "Bolivar", "amenity": "bar", "name": "Cantina La Mascota"}}, {"type": "node", "id": 4536236201, "lat": 19.5071562, "lon": -99.2370277, "tags": {"amenity": "bar", "name": "Hooters", "name:es": "Hooters"}}, {"type": "node", "id": 4556364808, "lat": 19.4131305, "lon": -99.1720233, "tags": {"amenity": "nightclub", "name": "El Plaza Condesa", "name:es": "El Plaza Condesa"}}, {"type": "node", "id": 4564177401, "lat": 19.4367668, "lon": -99.1379254, "tags": {"addr:city": "Ciudad de M\u00e9xico", "addr:housenumber": "32", "addr:postcode": "57210", "addr:street": "Allende", "amenity": "bar", "cuisine": "regional", "internet_access": "wlan", "name": "Los Jarritos", "name:es": "Los Jarritos", "opening_hours": "Tu-Sa 12:00-02:00"}}, {"type": "node", "id": 4564304454, "lat": 19.3966262, "lon": -99.0945684, "tags": {"amenity": "public_hall", "name": "Auditorio de Graduados"}}, {"type": "node", "id": 4565463480, "lat": 19.3959655, "lon": -99.0914451, "tags": {"amenity": "public_hall", "name": "Auditorio \"A\""}}, {"type": "node", "id": 4565463793, "lat": 19.3959048, "lon": -99.0914505, "tags": {"amenity": "public_hall", "name": "Auditorio \"B\""}}, {"type": "node", "id": 4576622594, "lat": 19.4037466, "lon": -99.1528911, "tags": {"amenity": "bar", "name": "Cervecer\u00eda de Barrio", "name:es": "Cervecer\u00eda de Barrio"}}, {"type": "node", "id": 4580006953, "lat": 19.4132512, "lon": -99.1725601, "tags": {"addr:city": "Ciudad de M\u00e9xico", "addr:country": "MX", "addr:housenumber": "37 A", "addr:street": "Avenida Taumalipas", "amenity": "nightclub", "name": "Don Quint\u00edn Condesa"}}, {"type": "node", "id": 4582036103, "lat": 19.4238223, "lon": -99.1588424, "tags": {"amenity": "bar", "name:en": "Patrick Miller"}}, {"type": "node", "id": 4591422893, "lat": 19.4282703, "lon": -99.1359493, "tags": {"amenity": "bar", "cuisine": "mexican", "name": "La Surianita", "name:es": "La Surianita"}}, {"type": "node", "id": 4593385889, "lat": 19.4143656, "lon": -99.1627268, "tags": {"addr:housenumber": "182", "addr:street": "Queretaro", "amenity": "bar", "internet_access": "wlan", "name": "Cervecer\u00eda Escollo"}}, {"type": "node", "id": 4596044590, "lat": 19.4191994, "lon": -99.1561743, "tags": {"addr:housenumber": "39", "addr:street": "Alvaro Obreg\u00f3n", "amenity": "bar", "name": "El Palenquito"}}, {"type": "node", "id": 4596049994, "lat": 19.4303521, "lon": -99.1970055, "tags": {"addr:housenumber": "9", "addr:street": "Oscar Wilde", "amenity": "bar", "name": "Limantour"}}, {"type": "node", "id": 4596049996, "lat": 19.414855, "lon": -99.1590846, "tags": {"addr:housenumber": "161", "addr:street": "Orizaba", "amenity": "bar", "name": "La Nacional"}}, {"type": "node", "id": 4596050796, "lat": 19.4184925, "lon": -99.1576341, "tags": {"addr:housenumber": "64", "addr:street": "Alvaro Obreg\u00f3n", "amenity": "bar", "name": "Felix"}}, {"type": "node", "id": 4596050797, "lat": 19.4190978, "lon": -99.1568854, "tags": {"addr:housenumber": "49", "addr:street": "Alvaro Obreg\u00f3n", "amenity": "bar", "name": "Romita Comedor"}}, {"type": "node", "id": 4596053989, "lat": 19.4181496, "lon": -99.1595255, "tags": {"addr:housenumber": "106", "addr:street": "Alvaro Obreg\u00f3n", "amenity": "bar", "name": "Licoreria Limantour"}}, {"type": "node", "id": 4597277989, "lat": 19.4308303, "lon": -99.1564787, "tags": {"addr:city": "Ciudad de M\u00e9xico", "addr:housenumber": "14", "addr:street": "Mil\u00e1n", "amenity": "bar", "name": "Parker & Lennox"}}, {"type": "node", "id": 4613175049, "lat": 19.2953782, "lon": -99.1324941, "tags": {"amenity": "bar", "name": "Dallas"}}, {"type": "node", "id": 4618702045, "lat": 19.2952456, "lon": -99.133357, "tags": {"amenity": "bar", "name": "La del Estribo"}}, {"type": "node", "id": 4618713059, "lat": 19.2952792, "lon": -99.1322558, "tags": {"amenity": "bar", "name": "Cantina La Lupita"}}, {"type": "node", "id": 4618713060, "lat": 19.2954286, "lon": -99.1326393, "tags": {"amenity": "nightclub"}}, {"type": "node", "id": 4618714307, "lat": 19.2961374, "lon": -99.1331114, "tags": {"amenity": "bar", "name": "Tercer Milenio"}}, {"type": "node", "id": 4618714310, "lat": 19.2963602, "lon": -99.1335392, "tags": {"amenity": "bar", "name": "El Villamel\u00f3n"}}, {"type": "node", "id": 4621310279, "lat": 19.2958202, "lon": -99.1319086, "tags": {"amenity": "bar", "name": "Pop Shot"}}, {"type": "node", "id": 4621310288, "lat": 19.2957734, "lon": -99.1322318, "tags": {"amenity": "bar", "name": "Naked City"}}, {"type": "node", "id": 4621311089, "lat": 19.2958544, "lon": -99.1324356, "tags": {"amenity": "bar", "name": "Vauresh"}}, {"type": "node", "id": 4636373803, "lat": 19.2960141, "lon": -99.1340292, "tags": {"amenity": "bar", "name": "Las Acoxpas"}}, {"type": "node", "id": 4636373805, "lat": 19.2962496, "lon": -99.1346086, "tags": {"amenity": "bar", "name": "Cheloc"}}, {"type": "node", "id": 4645790505, "lat": 19.2941546, "lon": -99.1300451, "tags": {"amenity": "bar", "name": "Escaparate"}}, {"type": "node", "id": 4645807760, "lat": 19.2910914, "lon": -99.130886, "tags": {"amenity": "bar", "name": "Vittorius"}}, {"type": "node", "id": 4666017491, "lat": 19.4176015, "lon": -99.1410752, "tags": {"addr:housenumber": "42", "addr:street": "Alfredo Chavero", "amenity": "bar", "internet_access": "wlan", "name": "La Quebrada", "name:es": "La Quebrada"}}, {"type": "node", "id": 4712607389, "lat": 19.4221184, "lon": -99.1636882, "tags": {"amenity": "bar", "name": "Gato Calavera", "name:es": "Gato Calavera"}}, {"type": "node", "id": 4712607489, "lat": 19.4191653, "lon": -99.1645425, "tags": {"amenity": "bar", "name": "El Real Underground", "name:es": "El Real Underground"}}, {"type": "node", "id": 4728172826, "lat": 19.3873907, "lon": -99.1539587, "tags": {"amenity": "pub", "name": "El Dep\u00f3sito", "outdoor_seating": "yes", "smoking": "isolated"}}, {"type": "node", "id": 4758061464, "lat": 19.4595948, "lon": -99.1723202, "tags": {"addr:housenumber": "2792", "addr:postcode": "02870", "addr:street": "Poniente 44", "amenity": "bar", "name": "Pepe's", "outdoor_seating": "no", "smoking": "no"}}, {"type": "node", "id": 4774266555, "lat": 19.4117799, "lon": -99.1645967, "tags": {"addr:street": "Medell\u00edn", "amenity": "bar", "name": "La Buena Chela"}}, {"type": "node", "id": 4817261424, "lat": 19.4451516, "lon": -99.1575743, "tags": {"addr:city": "Ciudad de M\u00e9xico", "addr:housenumber": "59", "addr:postcode": "06400", "addr:street": "Santa Mar\u00eda Ribera", "amenity": "bar", "name": "El Tim\u00f3n de Cortez"}}, {"type": "node", "id": 4829550074, "lat": 19.4489573, "lon": -99.1578502, "tags": {"addr:city": "Ciudad de M\u00e9xico", "addr:housenumber": "152", "addr:postcode": "06400", "addr:street": "Jaime Torres Bodet", "amenity": "bar", "name": "Cantina Sal\u00f3n Paris"}}, {"type": "node", "id": 4831645110, "lat": 19.4429288, "lon": -99.1548671, "tags": {"addr:city": "Ciudad de M\u00e9xico", "addr:housenumber": "32", "addr:postcode": "06400", "addr:street": "Avenida Insurgentes Centro", "amenity": "bar", "name": "El Abad"}}, {"type": "node", "id": 4831648430, "lat": 19.4424887, "lon": -99.1549367, "tags": {"addr:city": "Ciudad de M\u00e9xico", "addr:housenumber": "70", "addr:postcode": "06400", "addr:street": "Avenida Insurgentes Centro", "amenity": "bar", "name": "Sanborns", "website": "sanborns.com.mx"}}, {"type": "node", "id": 4835786690, "lat": 19.4479672, "lon": -99.1639039}, {"type": "node", "id": 4835786691, "lat": 19.4476696, "lon": -99.1639615}, {"type": "node", "id": 4835786707, "lat": 19.4478344, "lon": -99.1631332}, {"type": "node", "id": 4835786712, "lat": 19.4475368, "lon": -99.1631909}, {"type": "node", "id": 4851489721, "lat": 19.4289859, "lon": -99.1550651, "tags": {"addr:city": "Ciudad de M\u00e9xico", "addr:housenumber": "64", "addr:street": "Versalles", "amenity": "bar", "name": "Mono", "name:es": "Mono"}}, {"type": "node", "id": 4866665721, "lat": 19.4142531, "lon": -99.1630965, "tags": {"addr:street": "Queretaro", "amenity": "bar", "name": "Casa Q"}}, {"type": "node", "id": 4878727209, "lat": 19.4434436, "lon": -99.1649983, "tags": {"amenity": "bar", "name": "La Veracruzana"}}, {"type": "node", "id": 4878858890, "lat": 19.4523413, "lon": -99.1567506, "tags": {"amenity": "bar", "name": "Pulquer\u00eda La Xochitl"}}, {"type": "node", "id": 4882412021, "lat": 19.5494249, "lon": -99.2375777, "tags": {"amenity": "bar", "name": "La Chilanguita (Mundo E)", "wheelchair": "limited"}}, {"type": "node", "id": 4919778322, "lat": 19.4917456, "lon": -99.227813, "tags": {"amenity": "bar", "name": "Freedom", "name:es": "Freedom"}}, {"type": "node", "id": 4950056622, "lat": 19.4104118, "lon": -99.1747847, "tags": {"amenity": "bar", "name": "Botell\u00f3n", "name:es": "Botell\u00f3n"}}, {"type": "node", "id": 4985432685, "lat": 19.4173682, "lon": -99.1137351}, {"type": "node", "id": 4985432688, "lat": 19.4173861, "lon": -99.1141285}, {"type": "node", "id": 4985432690, "lat": 19.4174125, "lon": -99.1144012}, {"type": "node", "id": 4985432693, "lat": 19.4174294, "lon": -99.1145788}, {"type": "node", "id": 4985432696, "lat": 19.4174474, "lon": -99.1147704}, {"type": "node", "id": 4985432699, "lat": 19.4174595, "lon": -99.1148988}, {"type": "node", "id": 4985432703, "lat": 19.417485, "lon": -99.1151699}, {"type": "node", "id": 4985432722, "lat": 19.4175831, "lon": -99.113709}, {"type": "node", "id": 4985432739, "lat": 19.4176759, "lon": -99.1143668}, {"type": "node", "id": 4985432754, "lat": 19.4177556, "lon": -99.1136898}, {"type": "node", "id": 4985432778, "lat": 19.4178398, "lon": -99.1140704}, {"type": "node", "id": 4985432782, "lat": 19.4178642, "lon": -99.1140673}, {"type": "node", "id": 4985432783, "lat": 19.4178699, "lon": -99.1141278}, {"type": "node", "id": 4985432784, "lat": 19.4178725, "lon": -99.1141497}, {"type": "node", "id": 4985432786, "lat": 19.4178833, "lon": -99.1142383}, {"type": "node", "id": 4985432787, "lat": 19.4178864, "lon": -99.1142641}, {"type": "node", "id": 4985432788, "lat": 19.4178919, "lon": -99.1143091}, {"type": "node", "id": 4985432789, "lat": 19.4178954, "lon": -99.1143382}, {"type": "node", "id": 4985432790, "lat": 19.4179166, "lon": -99.1145127}, {"type": "node", "id": 4985432799, "lat": 19.4179793, "lon": -99.1136637}, {"type": "node", "id": 4985432800, "lat": 19.4179871, "lon": -99.1150934}, {"type": "node", "id": 4985432807, "lat": 19.4181181, "lon": -99.1140364}, {"type": "node", "id": 4985433579, "lat": 19.4222212, "lon": -99.1127769}, {"type": "node", "id": 4985433580, "lat": 19.4222352, "lon": -99.112929}, {"type": "node", "id": 4985433581, "lat": 19.4222372, "lon": -99.1129501}, {"type": "node", "id": 4985433624, "lat": 19.4224923, "lon": -99.1127487}, {"type": "node", "id": 4985433645, "lat": 19.4226367, "lon": -99.1127337}, {"type": "node", "id": 4985433651, "lat": 19.4226527, "lon": -99.1129069}, {"type": "node", "id": 5003877421, "lat": 19.3739488, "lon": -99.1412791, "tags": {"addr:city": "Ciudad de M\u00e9xico", "addr:housenumber": "1189", "addr:postcode": "03660", "addr:street": "Calzada de Tlalpan", "amenity": "nightclub", "dance:style": "salsa", "dance:teaching": "yes", "name": "California Dancing Club", "opening_hours": "Mo-Su 17:00-02:00"}}, {"type": "node", "id": 5010258209, "lat": 19.3430162, "lon": -99.1894781, "tags": {"addr:housenumber": "2351", "addr:street": "Av. Insurgentes Sur", "amenity": "nightclub", "name": "Maxine", "opening_hours": "13:30-3:00", "website": "http://maxineshowcenter.com"}}, {"type": "node", "id": 5015283180, "lat": 19.3439818, "lon": -99.1914039, "tags": {"amenity": "bar", "name": "La invencible", "wheelchair": "no"}}, {"type": "node", "id": 5017262622, "lat": 19.4331613, "lon": -99.1421979, "tags": {"amenity": "nightclub", "name": "Normandie", "name:es": "Normandie"}}, {"type": "node", "id": 5017262623, "lat": 19.4294373, "lon": -99.1552013, "tags": {"amenity": "nightclub", "name": "Americana Club Social", "name:es": "Americana Club Social"}}, {"type": "node", "id": 5017277721, "lat": 19.4334358, "lon": -99.1507735, "tags": {"amenity": "bar", "name": "Bucardon", "name:es": "Bucardon"}}, {"type": "node", "id": 5018456921, "lat": 19.4281285, "lon": -99.1359729, "tags": {"amenity": "bar", "name": "La Cueva", "name:en": "La Cueva"}}, {"type": "node", "id": 5018992082, "lat": 19.3476205, "lon": -99.1622461, "tags": {"amenity": "pub", "name": "El Recreo", "sport": "billiards"}}, {"type": "node", "id": 5022545721, "lat": 19.4278066, "lon": -99.1372336, "tags": {"amenity": "bar", "name:en": "100 montaditos"}}, {"type": "node", "id": 5062519822, "lat": 19.4279818, "lon": -99.1696894, "tags": {"amenity": "bar", "name": "Papa Bills Bar & Restaurant", "name:es": "Papa Bills Bar & Restaurant"}}, {"type": "node", "id": 5073024042, "lat": 19.4269037, "lon": -99.1392483, "tags": {"addr:city": "Ciudad de M\u00e9xico", "addr:country": "MX", "addr:housenumber": "104", "addr:postcode": "06080", "addr:street": "Bol\u00edvar", "amenity": "bar", "name": "Noi Soto Bar"}}, {"type": "node", "id": 5076482287, "lat": 19.4358238, "lon": -99.1381014, "tags": {"addr:housenumber": "2", "addr:street": "Ignacio Allende", "amenity": "pub", "name": "Terraza Tacuba Brewery"}}, {"type": "node", "id": 5087557421, "lat": 19.4129883, "lon": -99.1664805, "tags": {"amenity": "bar", "name:en": "Sixties Bar & Rock"}}, {"type": "node", "id": 5087557425, "lat": 19.4156491, "lon": -99.1635524, "tags": {"amenity": "bar"}}, {"type": "node", "id": 5093027521, "lat": 19.4319987, "lon": -99.1680304, "tags": {"amenity": "bar", "name": "Tandem", "name:en": "Tandem", "name:es": "Tandem"}}, {"type": "node", "id": 5100869824, "lat": 19.4183854, "lon": -99.1507429, "tags": {"amenity": "bar"}}, {"type": "node", "id": 5100870026, "lat": 19.4176431, "lon": -99.1503649, "tags": {"amenity": "bar"}}, {"type": "node", "id": 5109680521, "lat": 19.420154, "lon": -99.1653304, "tags": {"amenity": "bar", "name": "club social Rhodesia", "name:es": "club social Rhodesia"}}, {"type": "node", "id": 5117892554, "lat": 19.3689164, "lon": -99.1633339}, {"type": "node", "id": 5117892555, "lat": 19.3687139, "lon": -99.16335}, {"type": "node", "id": 5117892556, "lat": 19.3686583, "lon": -99.1629691}, {"type": "node", "id": 5117892557, "lat": 19.3688348, "lon": -99.1629245}, {"type": "node", "id": 5117899105, "lat": 19.3688024, "lon": -99.1629127}, {"type": "node", "id": 5117899106, "lat": 19.3688763, "lon": -99.1629395}, {"type": "node", "id": 5135448995, "lat": 19.3903786, "lon": -99.2599401}, {"type": "node", "id": 5135448996, "lat": 19.3903571, "lon": -99.2598851}, {"type": "node", "id": 5135448997, "lat": 19.3902976, "lon": -99.259924}, {"type": "node", "id": 5135448998, "lat": 19.390309, "lon": -99.2599683}, {"type": "node", "id": 5147403823, "lat": 19.3713544, "lon": -99.1622275}, {"type": "node", "id": 5157897621, "lat": 19.3475095, "lon": -99.1630112, "tags": {"addr:housenumber": "95", "addr:street": "Venustiano Carranza", "amenity": "bar", "name": "Quetacoatl"}}, {"type": "node", "id": 5160702982, "lat": 19.4185161, "lon": -99.1646408}, {"type": "node", "id": 5168259421, "lat": 19.4333168, "lon": -99.1451097, "tags": {"amenity": "bar", "name": "B\u00f3sforo"}}, {"type": "node", "id": 5172329023, "lat": 19.423496, "lon": -99.1518626, "tags": {"amenity": "bar", "name": "Pulqueria La Hija de los Apaches", "name:es": "Pulqueria la Hija de los Apaches"}}, {"type": "node", "id": 5207473621, "lat": 19.4293458, "lon": -99.1547615, "tags": {"amenity": "bar", "name": "Luciferina"}}, {"type": "node", "id": 5218646322, "lat": 19.422494, "lon": -99.1679292, "tags": {"amenity": "bar", "description": "sports bar"}}, {"type": "node", "id": 5220615021, "lat": 19.3486963, "lon": -99.1618119, "tags": {"amenity": "bar", "name": "La Celestina"}}, {"type": "node", "id": 5220615022, "lat": 19.3486121, "lon": -99.1618284, "tags": {"amenity": "bar", "name": "Mezcalero"}}, {"type": "node", "id": 5240466661, "lat": 19.4342783, "lon": -99.1392823, "tags": {"amenity": "bar", "name": "La Gioconda"}}, {"type": "node", "id": 5259976223, "lat": 19.4531314, "lon": -99.1231229, "tags": {"amenity": "bar", "name:en": "Cantina"}}, {"type": "node", "id": 5260013122, "lat": 19.4446208, "lon": -99.1436531, "tags": {"amenity": "bar", "name": "Pulqueria Mi Hermosa Guerrero", "name:en": "Bar"}}, {"type": "node", "id": 5262937122, "lat": 19.4207455, "lon": -99.1634584, "tags": {"addr:city": "Ciudad de M\u00e9xico", "addr:housenumber": "23", "addr:street": "Tonal\u00e1", "amenity": "bar", "name": "Maison Artemisia"}}, {"type": "node", "id": 5262937124, "lat": 19.4278165, "lon": -99.1639622, "tags": {"addr:city": "Ciudad de M\u00e9xico", "addr:housenumber": "6", "addr:street": "Copenhague", "amenity": "bar", "name": "Xaman"}}, {"type": "node", "id": 5264926321, "lat": 19.4327968, "lon": -99.137483, "tags": {"amenity": "bar", "name": "Nonsolo", "opening_hours": "Mo-Su 09:00-22:00"}}, {"type": "node", "id": 5296550232, "lat": 19.4124588, "lon": -99.1721415, "tags": {"addr:housenumber": "81", "addr:postcode": "06140", "addr:street": "Avenida Nuevo Le\u00f3n", "amenity": "nightclub", "name": "Mojito Room", "opening_hours": "Th-Su 20:00-03:00"}}, {"type": "node", "id": 5325167505, "lat": 19.4170004, "lon": -99.0857214}, {"type": "node", "id": 5325167506, "lat": 19.4168915, "lon": -99.0855382}, {"type": "node", "id": 5325167507, "lat": 19.4169643, "lon": -99.0854918}, {"type": "node", "id": 5325167508, "lat": 19.4170711, "lon": -99.0856749}, {"type": "node", "id": 5325167519, "lat": 19.4181454, "lon": -99.0848711}, {"type": "node", "id": 5325167522, "lat": 19.4180814, "lon": -99.0847599}, {"type": "node", "id": 5329404822, "lat": 19.4121509, "lon": -99.1640584, "tags": {"addr:housenumber": "173", "addr:postcode": "06700", "addr:street": "Chiapas", "amenity": "bar", "name": "Tasting Room", "phone": "5571598388"}}, {"type": "node", "id": 5329453821, "lat": 19.4332544, "lon": -99.1356127, "tags": {"addr:housenumber": "57", "addr:street": "Francisco I. Madero", "amenity": "bar", "name": "Hilaria Gastrobar", "phone": "5555121559"}}, {"type": "node", "id": 5343164221, "lat": 19.4101729, "lon": -99.1349353, "tags": {"amenity": "bar", "name:en": "Neuroticos"}}, {"type": "node", "id": 5348429046, "lat": 19.4217961, "lon": -99.087167}, {"type": "node", "id": 5348429047, "lat": 19.421763, "lon": -99.0871084}, {"type": "node", "id": 5348429048, "lat": 19.4217725, "lon": -99.0870983}, {"type": "node", "id": 5348429049, "lat": 19.4217174, "lon": -99.0869875}, {"type": "node", "id": 5348429050, "lat": 19.4216823, "lon": -99.0869749}, {"type": "node", "id": 5348429051, "lat": 19.4216677, "lon": -99.0869904}, {"type": "node", "id": 5348429052, "lat": 19.4216429, "lon": -99.0869965}, {"type": "node", "id": 5348429053, "lat": 19.4216254, "lon": -99.0870213}, {"type": "node", "id": 5348429054, "lat": 19.4216021, "lon": -99.0870228}, {"type": "node", "id": 5348429055, "lat": 19.4215985, "lon": -99.0870321}, {"type": "node", "id": 5348429056, "lat": 19.4216079, "lon": -99.0870429}, {"type": "node", "id": 5355876702, "lat": 19.4163931, "lon": -99.0855051}, {"type": "node", "id": 5355876703, "lat": 19.4163497, "lon": -99.0854254}, {"type": "node", "id": 5355876704, "lat": 19.4164387, "lon": -99.0853681}, {"type": "node", "id": 5355876705, "lat": 19.4164852, "lon": -99.0854464}, {"type": "node", "id": 5372132577, "lat": 19.4192467, "lon": -99.0971976}, {"type": "node", "id": 5372132578, "lat": 19.41914, "lon": -99.0969997}, {"type": "node", "id": 5372132579, "lat": 19.419299, "lon": -99.0969033}, {"type": "node", "id": 5372132580, "lat": 19.4194057, "lon": -99.0971012}, {"type": "node", "id": 5381831722, "lat": 19.4258595, "lon": -99.1444152, "tags": {"amenity": "bar"}}, {"type": "node", "id": 5397751996, "lat": 19.4141777, "lon": -99.1718045}, {"type": "node", "id": 5397751997, "lat": 19.4142549, "lon": -99.1718245}, {"type": "node", "id": 5397751998, "lat": 19.4142888, "lon": -99.1718984}, {"type": "node", "id": 5397751999, "lat": 19.4142304, "lon": -99.1718984}, {"type": "node", "id": 5398030748, "lat": 19.3629838, "lon": -99.009696}, {"type": "node", "id": 5398030749, "lat": 19.3629709, "lon": -99.0096198}, {"type": "node", "id": 5398030750, "lat": 19.3629183, "lon": -99.0096299}, {"type": "node", "id": 5398030751, "lat": 19.3629313, "lon": -99.009706}, {"type": "node", "id": 5406276371, "lat": 19.4602951, "lon": -99.1753653}, {"type": "node", "id": 5406276372, "lat": 19.4602099, "lon": -99.1748068}, {"type": "node", "id": 5406276373, "lat": 19.4604583, "lon": -99.1751106}, {"type": "node", "id": 5406276374, "lat": 19.4608645, "lon": -99.1752676}, {"type": "node", "id": 5406281401, "lat": 19.4608308, "lon": -99.1750467}, {"type": "node", "id": 5406281402, "lat": 19.4604069, "lon": -99.174773}, {"type": "node", "id": 5423352421, "lat": 19.4272749, "lon": -99.160462, "tags": {"amenity": "bar", "name": "Red City", "name:es": "Red City"}}, {"type": "node", "id": 5436616921, "lat": 19.4070421, "lon": -99.1789179, "tags": {"amenity": "bar", "internet_access": "wlan", "name": "Aduana Cucap\u00e1"}}, {"type": "node", "id": 5436617021, "lat": 19.4071304, "lon": -99.1781464, "tags": {"amenity": "bar", "name": "Barra Gavia"}}, {"type": "node", "id": 5441377369, "lat": 19.4156954, "lon": -99.1607627, "tags": {"addr:city": "Ciudad de M\u00e9xico", "addr:housenumber": "139", "addr:postcode": "06700", "addr:street": "Zacatecas", "amenity": "bar", "name": "Balmori Roofbar", "smoking": "no"}}, {"type": "node", "id": 5497806618, "lat": 19.3425971, "lon": -99.1810662}, {"type": "node", "id": 5497806619, "lat": 19.3426446, "lon": -99.1813459}, {"type": "node", "id": 5497806620, "lat": 19.342476, "lon": -99.1810924}, {"type": "node", "id": 5497806821, "lat": 19.3425246, "lon": -99.1813677}, {"type": "node", "id": 5504256654, "lat": 19.421707, "lon": -99.0872201}, {"type": "node", "id": 5504256656, "lat": 19.4216121, "lon": -99.0870591}, {"type": "node", "id": 5504256663, "lat": 19.4216401, "lon": -99.0871064}, {"type": "node", "id": 5504256664, "lat": 19.4216441, "lon": -99.087113}, {"type": "node", "id": 5507519286, "lat": 19.4224063, "lon": -99.0863241}, {"type": "node", "id": 5507519287, "lat": 19.4223092, "lon": -99.0861546}, {"type": "node", "id": 5507519294, "lat": 19.422397, "lon": -99.0860984}, {"type": "node", "id": 5507519295, "lat": 19.422495, "lon": -99.0862675}, {"type": "node", "id": 5509017055, "lat": 19.4277162, "lon": -99.1364776, "tags": {"amenity": "bar", "name": "Mexicano Bar"}}, {"type": "node", "id": 5509017079, "lat": 19.427457, "lon": -99.134309, "tags": {"amenity": "bar", "name": "Plaza 20"}}, {"type": "node", "id": 5509017082, "lat": 19.4275106, "lon": -99.133279, "tags": {"amenity": "bar", "name": "Barra Blanca Pulqueria"}}, {"type": "node", "id": 5509017100, "lat": 19.4272756, "lon": -99.1314485, "tags": {"amenity": "bar", "name": "La Internacional"}}, {"type": "node", "id": 5509017107, "lat": 19.4276697, "lon": -99.1360884, "tags": {"amenity": "bar"}}, {"type": "node", "id": 5509017237, "lat": 19.427705, "lon": -99.1363839, "tags": {"amenity": "bar", "name": "Bar"}}, {"type": "node", "id": 5509017240, "lat": 19.4280997, "lon": -99.1378673, "tags": {"amenity": "bar", "name": "The Gallerie"}}, {"type": "node", "id": 5509017250, "lat": 19.4279063, "lon": -99.1363609, "tags": {"amenity": "bar"}}, {"type": "node", "id": 5509017278, "lat": 19.4277011, "lon": -99.1363508, "tags": {"amenity": "bar", "name": "Beerlyn"}}, {"type": "node", "id": 5509017289, "lat": 19.4278978, "lon": -99.1362945, "tags": {"amenity": "bar"}}, {"type": "node", "id": 5509017426, "lat": 19.4278656, "lon": -99.136044, "tags": {"amenity": "bar"}}, {"type": "node", "id": 5519533821, "lat": 19.4146315, "lon": -99.1587889, "tags": {"amenity": "bar", "name": "la chicha"}}, {"type": "node", "id": 5531631048, "lat": 19.3364388, "lon": -99.1926714, "tags": {"amenity": "bar", "name": "UVM SAN ANGEL"}}, {"type": "node", "id": 5539206222, "lat": 19.4138369, "lon": -99.1649618, "tags": {"amenity": "bar", "name:en": "mama rumba", "name:ko": "mama rumba"}}, {"type": "node", "id": 5539207021, "lat": 19.4138414, "lon": -99.1653416, "tags": {"amenity": "bar", "name:en": "mama rumba"}}, {"type": "node", "id": 5539207121, "lat": 19.3954916, "lon": -99.1717324, "tags": {"amenity": "bar", "name:en": "mambocafe"}}, {"type": "node", "id": 5547896126, "lat": 19.4127482, "lon": -99.1584658, "tags": {"addr:housenumber": "203", "addr:postcode": "06700", "addr:street": "Orizaba", "amenity": "bar", "name": "Helado Obscuro", "opening_hours": "Mo-Su 11:00-20:00"}}, {"type": "node", "id": 5547896131, "lat": 19.4184861, "lon": -99.1380083, "tags": {"amenity": "bar", "name": "La Catedral Del Pulque", "name:es": "La Catedral Del Pulque"}}, {"type": "node", "id": 5547896222, "lat": 19.427872, "lon": -99.1633628, "tags": {"addr:city": "Ciudad de M\u00e9xico", "addr:housenumber": "3", "addr:postcode": "06600", "addr:street": "Oslo", "amenity": "bar", "name": "El Scary Witches"}}, {"type": "node", "id": 5547896223, "lat": 19.392426, "lon": -99.1658646, "tags": {"amenity": "bar", "name": "cerveceria la curva", "name:es": "cerveceria la curva"}}, {"type": "node", "id": 5616349523, "lat": 19.4270521, "lon": -99.1642782, "tags": {"addr:city": "Ciudad de M\u00e9xico", "addr:housenumber": "30", "addr:postcode": "06600", "addr:street": "Genova", "amenity": "bar", "name": "Cueva de Lobos"}}, {"type": "node", "id": 5616508221, "lat": 19.4214564, "lon": -99.1404711, "tags": {"addr:housenumber": "44bis", "addr:postcode": "06800", "addr:street": "Lucas Alam\u00e1n", "amenity": "bar", "name": "El Botanero"}}, {"type": "node", "id": 5618495713, "lat": 19.3421537, "lon": -99.1818156, "tags": {"amenity": "pub", "cuisine": "pizza", "name": "Yardas"}}, {"type": "node", "id": 5618803121, "lat": 19.4340038, "lon": -99.1355046, "tags": {"addr:city": "Ciudad de M\u00e9xico", "addr:housenumber": "49", "addr:postcode": "06000", "addr:street": "5 de Mayo", "amenity": "bar", "name": "Pata Negra"}}, {"type": "node", "id": 5619913625, "lat": 19.4329753, "lon": -99.1428568, "tags": {"addr:housenumber": "56", "addr:postcode": "06050", "addr:street": "Independencia", "amenity": "bar", "name": "Cantina El Tio Pepe"}}, {"type": "node", "id": 5620868121, "lat": 19.3771263, "lon": -99.1777453, "tags": {"addr:housenumber": "1194", "addr:postcode": "03100", "addr:street": "Avenida Insurgentes Sur", "amenity": "bar", "name": "La Comandancia Metal"}}, {"type": "node", "id": 5620913122, "lat": 19.4126697, "lon": -99.1720401, "tags": {"addr:housenumber": "73", "addr:postcode": "06700", "addr:street": "Avenida Nuevo Le\u00f3n", "amenity": "bar", "name": "Caradura"}}, {"type": "node", "id": 5620913123, "lat": 19.4140794, "lon": -99.1653945, "tags": {"addr:housenumber": "143", "addr:postcode": "06700", "addr:street": "Medell\u00edn", "amenity": "bar", "name": "Starwings La Roma"}}, {"type": "node", "id": 5620926021, "lat": 19.4214478, "lon": -99.1542019, "tags": {"addr:city": "Ciudad de M\u00e9xico", "addr:housenumber": "5 A", "addr:postcode": "06700", "addr:street": "Colima", "amenity": "bar", "name": "Tlachiquero"}}, {"type": "node", "id": 5620928823, "lat": 19.3989403, "lon": -99.17096, "tags": {"addr:housenumber": "573", "addr:postcode": "03810", "addr:street": "Avenida Insurgentes Sur", "amenity": "bar", "name": "McCarthy's Irish Pub"}}, {"type": "node", "id": 5620928824, "lat": 19.4155718, "lon": -99.1618643, "tags": {"addr:housenumber": "132", "addr:postcode": "06700", "addr:street": "Tonal\u00e1", "amenity": "bar", "name": "Barrio Tonala"}}, {"type": "node", "id": 5620940721, "lat": 19.5269987, "lon": -99.2086106, "tags": {"addr:housenumber": "229", "addr:postcode": "53580", "addr:street": "Via Gustavo Baz", "amenity": "bar", "name": "Rock 2000"}}, {"type": "node", "id": 5621000622, "lat": 19.5311303, "lon": -99.2244429, "tags": {"addr:housenumber": "37", "addr:postcode": "54050", "addr:street": "Convento de Santa Monica", "amenity": "bar", "name": "Pool Garage"}}, {"type": "node", "id": 5622801825, "lat": 19.4366304, "lon": -99.1315107, "tags": {"amenity": "pub", "name": "Cantina Salon Espa\u00f1a"}}, {"type": "node", "id": 5630903423, "lat": 19.3942208, "lon": -99.1601005, "tags": {"amenity": "bar", "name": "bi\u00e8re artisanal"}}, {"type": "node", "id": 5631519822, "lat": 19.428267, "lon": -99.1691197, "tags": {"amenity": "bar", "name": "Fiebre de Malta"}}, {"type": "node", "id": 5686317021, "lat": 19.386821, "lon": -99.13572, "tags": {"amenity": "bar", "name": "Waterfalls"}}, {"type": "node", "id": 5711927322, "lat": 19.4175545, "lon": -99.1618346, "tags": {"amenity": "bar", "name": "Departamento"}}, {"type": "node", "id": 5718556537, "lat": 19.4273206, "lon": -99.1954723, "tags": {"amenity": "bar", "name": "Living Room Bar", "name:en": "Living Room Bar", "opening_hours": "Mo-Su 16:00-01:00", "phone": "+52 55 9138 1800", "website": "http://www.wmexicocity.com"}}, {"type": "node", "id": 5721562721, "lat": 19.3459756, "lon": -99.1878241, "tags": {"amenity": "bar", "name": "El Dep\u00f3sito"}}, {"type": "node", "id": 5731184721, "lat": 19.3475636, "lon": -99.1905105, "tags": {"amenity": "pub", "name": "New Orleans"}}, {"type": "node", "id": 5796649873, "lat": 19.421345, "lon": -99.0907836, "tags": {"addr:city": "Ciudad de M\u00e9xico", "addr:postcode": "15730", "addr:street": "Educaci\u00f3n P\u00fablica", "amenity": "bar", "name": "Chocolatte", "outdoor_seating": "yes", "smoking": "isolated"}}, {"type": "node", "id": 5796772678, "lat": 19.4096584, "lon": -99.0898872}, {"type": "node", "id": 5796772679, "lat": 19.4095999, "lon": -99.0897736}, {"type": "node", "id": 5796772680, "lat": 19.4096713, "lon": -99.0897322}, {"type": "node", "id": 5796772681, "lat": 19.4097299, "lon": -99.0898458}, {"type": "node", "id": 5842139802, "lat": 19.4313007, "lon": -99.1377003, "tags": {"amenity": "pub", "name": "La Faena"}}, {"type": "node", "id": 5844395605, "lat": 19.4592388, "lon": -99.1275156, "tags": {"addr:housenumber": "134", "addr:street": "Calzada de Guadalupe", "amenity": "bar", "name": "Gambrinus", "phone": "+5215557590676"}}, {"type": "node", "id": 5851418036, "lat": 19.3492484, "lon": -99.1616501, "tags": {"amenity": "pub", "name": "La Guadalupana"}}, {"type": "node", "id": 5851418037, "lat": 19.3493458, "lon": -99.1616246, "tags": {"amenity": "pub", "name": "La Puerta del Sol de Coyoac\u00e1n"}}, {"type": "node", "id": 5851418040, "lat": 19.3491193, "lon": -99.1613497, "tags": {"addr:city": "Ciudad de M\u00e9xico", "addr:housenumber": "14", "addr:street": "Higuera", "amenity": "pub", "name": "La Coyoacana"}}, {"type": "node", "id": 5857617081, "lat": 19.4819113, "lon": -99.0519426}, {"type": "node", "id": 5858588365, "lat": 19.4163867, "lon": -99.0854938}, {"type": "node", "id": 5858588367, "lat": 19.4163839, "lon": -99.0854889}, {"type": "node", "id": 5858588368, "lat": 19.416367, "lon": -99.0854587}, {"type": "node", "id": 5858588369, "lat": 19.41648, "lon": -99.0854346}, {"type": "node", "id": 5859751986, "lat": 19.4183384, "lon": -99.0847463}, {"type": "node", "id": 5859751987, "lat": 19.4182744, "lon": -99.084635}, {"type": "node", "id": 5859752199, "lat": 19.4183265, "lon": -99.0855409}, {"type": "node", "id": 5859752200, "lat": 19.4182416, "lon": -99.0853907}, {"type": "node", "id": 5859752201, "lat": 19.4180507, "lon": -99.0855074}, {"type": "node", "id": 5859752202, "lat": 19.4181367, "lon": -99.085664}, {"type": "node", "id": 5859752386, "lat": 19.4169089, "lon": -99.0855675}, {"type": "node", "id": 5864574985, "lat": 19.3869554, "lon": -99.1568032, "tags": {"amenity": "bar", "name": "Hop The Beer Experience"}}, {"type": "node", "id": 5872963585, "lat": 19.4227948, "lon": -99.0865584, "tags": {"addr:city": "Ciudad de M\u00e9xico", "addr:postcode": "15700", "addr:street": "Trabajo y Previsi\u00f3n Social", "amenity": "bar", "description": "Bar Patys", "name": "Patys", "outdoor_seating": "no"}}, {"type": "node", "id": 5876784420, "lat": 19.3582849, "lon": -99.2990529}, {"type": "node", "id": 5876784421, "lat": 19.3580817, "lon": -99.2991279}, {"type": "node", "id": 5876784422, "lat": 19.3579347, "lon": -99.298662}, {"type": "node", "id": 5876784423, "lat": 19.3581464, "lon": -99.2985843}, {"type": "node", "id": 5876784424, "lat": 19.3582735, "lon": -99.2990446}, {"type": "node", "id": 5876784425, "lat": 19.3582851, "lon": -99.2990427}, {"type": "node", "id": 5876784426, "lat": 19.3582845, "lon": -99.2990496}, {"type": "node", "id": 5889786485, "lat": 19.4271949, "lon": -99.1645778, "tags": {"amenity": "bar", "name": "A Dios Le Pido"}}, {"type": "node", "id": 5891977885, "lat": 19.416984, "lon": -99.1596085, "tags": {"amenity": "bar", "name": "Vino Premier"}}, {"type": "node", "id": 5908768212, "lat": 19.4556225, "lon": -99.2193869, "tags": {"amenity": "bar", "name": "La Cervecer\u00cda de Barrio"}}, {"type": "node", "id": 5917125685, "lat": 19.419249, "lon": -99.1555852, "tags": {"amenity": "bar", "name": "El deposito"}}, {"type": "node", "id": 5921939685, "lat": 19.412531, "lon": -99.1728154, "tags": {"amenity": "bar", "name": "Peralta"}}, {"type": "node", "id": 5922008285, "lat": 19.4125272, "lon": -99.1727205, "tags": {"amenity": "bar", "name": "Phoenix"}}, {"type": "node", "id": 5924965985, "lat": 19.4256668, "lon": -99.163324, "tags": {"amenity": "bar", "name": "London Blue"}}, {"type": "node", "id": 6006346085, "lat": 19.4613539, "lon": -99.1406025, "tags": {"amenity": "bar", "name": "jidlo"}}, {"type": "node", "id": 6011381446, "lat": 19.5127927, "lon": -99.2320185, "tags": {"amenity": "bar", "name": "Hookah"}}, {"type": "node", "id": 6030460186, "lat": 19.4373612, "lon": -99.1379675, "tags": {"amenity": "bar", "name": "La Nueva Excelencia"}}, {"type": "node", "id": 6033482886, "lat": 19.4199408, "lon": -99.1589249, "tags": {"amenity": "bar", "name": "Fancy madting bar"}}, {"type": "node", "id": 6053046381, "lat": 19.5859431, "lon": -99.0212135, "tags": {"amenity": "bar", "name": "Cerveceria de Barrio"}}, {"type": "node", "id": 6081141101, "lat": 19.4301446, "lon": -99.1427198, "tags": {"amenity": "bar", "name": "Pulqueria \"Las Duelistas\""}}, {"type": "node", "id": 6177366688, "lat": 19.5134428, "lon": -99.2318856, "tags": {"amenity": "pub", "name": "McCarthy's Irish Pub"}}, {"type": "node", "id": 6182569685, "lat": 19.4264735, "lon": -99.1619992, "tags": {"amenity": "bar", "name": "Baby"}}, {"type": "node", "id": 6182570885, "lat": 19.4112435, "lon": -99.1669838, "tags": {"amenity": "bar", "name": "Tom's Leather Bar"}}, {"type": "node", "id": 6182614885, "lat": 19.4117596, "lon": -99.1597544, "tags": {"amenity": "nightclub", "name": "Dance Floor"}}, {"type": "node", "id": 6185288385, "lat": 19.4270274, "lon": -99.1556903, "tags": {"amenity": "bar", "name:en": "Hanky Panky Bar (Comida A-langa-langa)"}}, {"type": "way", "id": 28932125, "nodes": [318074764, 1435027465, 1435009050, 1435165162, 30384160, 1435009049, 1435009048, 318074764], "tags": {"amenity": "public_building", "building": "yes", "name": "Casa de la Cultura Alvaro Obregon", "postal_code": "01000"}}, {"type": "way", "id": 29019968, "nodes": [319144424, 319144425, 319144426, 319144427, 1015469891, 1015469885, 319144428, 1015469873, 319144429, 319144431, 319144432, 319144433, 319144424], "tags": {"amenity": "public_building", "building": "yes", "name": "INFONAVIT"}}, {"type": "way", "id": 30038538, "nodes": [330798834, 330798835, 330798836, 330798837, 330798834], "tags": {"amenity": "public_building", "building": "yes", "created_by": "Potlatch 0.10f"}}, {"type": "way", "id": 30064083, "nodes": [331139124, 331139134, 331139149, 331139165, 333888616, 331139169, 331139172, 331139173, 331139174, 331139175, 331139124], "tags": {"amenity": "public_building", "created_by": "Potlatch 0.10f", "name": "Tesorer\u00eda"}}, {"type": "way", "id": 30089830, "nodes": [331420424, 331420425, 331420426, 331420427, 331420428, 331420429, 331420430, 331420431, 331420432, 331420433, 331420434, 331420435, 331420436, 331420437, 331420438, 331420439, 331420440, 331420441, 331420442, 996891324, 331420443, 331420444, 331420424], "tags": {"amenity": "public_building", "name": "Delegaci\u00f3n A. Obreg\u00f3n"}}, {"type": "way", "id": 30178920, "nodes": [332539867, 332539871, 332539873, 332539876, 332539867], "tags": {"amenity": "public_building", "building": "yes", "created_by": "Merkaartor 0.11", "name": "INEGI"}}, {"type": "way", "id": 30194742, "nodes": [332704523, 332704524, 332704525, 332704526, 332704527, 332704528, 332704529, 332704530, 332704531, 332704532, 332704533, 332704535, 332704523], "tags": {"amenity": "public_building", "building": "yes", "name": "Poder Judicial de la Federaci\u00f3n"}}, {"type": "way", "id": 86294363, "nodes": [1001722877, 1001722872, 1001722883, 5147403823, 1001722884, 1001722877], "tags": {"amenity": "publisher", "building": "yes", "name": "Periodico Reforma"}}, {"type": "way", "id": 86294365, "nodes": [1001722887, 4067931784, 1001722869, 1001722873, 1001722885, 1001722887], "tags": {"amenity": "publisher", "building": "yes", "name": "Periodico Reforma"}}, {"type": "way", "id": 130165339, "nodes": [1434605516, 1434605534, 1434605543, 1434605558, 1434605477, 1434605476, 1434605451, 1434605448, 1434605472, 1434605470, 1434605498, 1434605483, 1434605502, 1434605500, 1434605516], "tags": {"amenity": "public_building", "building": "yes", "height": "40", "name": "Comisi\u00f3n Nacional del Agua"}}, {"type": "way", "id": 149337879, "nodes": [1623347072, 1623347073, 1623347091, 1623347042, 1623347077, 1623347068, 1623347076, 1623347088, 1623347072], "tags": {"amenity": "public_building", "building": "yes"}}, {"type": "way", "id": 167907866, "nodes": [1792449307, 1792449299, 297275710, 1792449312, 1792449307], "tags": {"amenity": "public_building", "building": "yes"}}, {"type": "way", "id": 220679375, "nodes": [2297682834, 2297682830, 2297682831, 2297682827, 2297682840, 2297682828, 2297682833, 2297682863, 2297682851, 2297682846, 2297682861, 2297682865, 2297682843, 2297682855, 2297682853, 2297682823, 2297682849, 2297682848, 2297682860, 2297682859, 2297682864, 2297682825, 2297682834], "tags": {"amenity": "public_building", "building": "yes", "name": "Plaza Sat\u00e9lite"}}, {"type": "way", "id": 262581191, "nodes": [2682371289, 2682371285, 2682371290, 5857617081, 2682371289], "tags": {"amenity": "nightclub", "building": "yes"}}, {"type": "way", "id": 347278136, "nodes": [3536253053, 3536253057, 3536253050, 3536253056, 3536253054, 3536253058, 5160702982, 3536253051, 3536253053], "tags": {"addr:housenumber": "235", "addr:postcode": "06700", "addr:street": "Insurgentes Sur", "alt_name": "Unidad Especializada en Investigaci\u00f3n de Delitos contra los Derechos de Autor y la Propiedad Industrial", "amenity": "public_building", "building": "yes", "name": "UEIDDAPI , PGR"}}, {"type": "way", "id": 348037760, "nodes": [3542705375, 3542705388, 3542705392, 3542705382, 3542705375], "tags": {"amenity": "public_building", "name": "Pante\u00f3n de Santiago Tulyehualco"}}, {"type": "way", "id": 354423660, "nodes": [3601558572, 3601558578, 3601558577, 3601558576, 3601558575, 3601558574, 3601558573, 3601558571, 3601558569, 3601558568, 3601558567, 3601558566, 3601558564, 3601558565, 3540410923, 3540410922, 3540410921, 3601558570, 3601558572], "tags": {"amenity": "public_building", "name": "CORENA"}}, {"type": "way", "id": 355215536, "nodes": [3608275710, 3608275672, 3608275646, 3608275688, 3608275710], "tags": {"amenity": "public_building", "name": "Subdelegaci\u00f3n Secc. 5"}}, {"type": "way", "id": 406874354, "nodes": [4089247221, 4089247222, 4089247223, 4089247224, 4089247221], "tags": {"amenity": "public_bookcase", "name": "Biblioteca de la Cineteca Nacional"}}, {"type": "way", "id": 412818767, "nodes": [4141440292, 4141475711, 4141475712, 4141475713, 4141475735, 4141440291, 4141440292], "tags": {"amenity": "public_bath", "building": "yes", "name": "Ba\u00f1os Estadio"}}, {"type": "way", "id": 418453633, "nodes": [4188756924, 4188756925, 4188756926, 4188756927, 4188756924], "tags": {"addr:city": "Ciudad de M\u00e9xico", "addr:housenumber": "115", "addr:postcode": "06300", "addr:street": "Hidalgo", "amenity": "nightclub", "building": "yes", "name": "Sal\u00f3n Hidalgo", "smoking": "no"}}, {"type": "way", "id": 441632309, "nodes": [4393649413, 4393649414, 4393649415, 4393649416, 4393649413], "tags": {"amenity": "public_bookcase", "name": "Biblioteca Narciso Bassols"}}, {"type": "way", "id": 441634336, "nodes": [4393660611, 4393660612, 4393660613, 4393660614, 4393660611], "tags": {"amenity": "public_bookcase", "name": "Biblioteca"}}, {"type": "way", "id": 452136597, "nodes": [4489404733, 4489404734, 4489404735, 4489404736, 4489404733], "tags": {"addr:housenumber": "10", "addr:postcode": "02000", "addr:street": "Ahuacatitla Sur", "amenity": "public_bookcase", "name": "Biblioteca P\u00fablica Jos\u00e9 Mar\u00eda Morelos y Pav\u00f3n", "operator": "Secretar\u00eda de Educaci\u00f3n P\u00fablica", "phone": "53521566", "source": "survey", "website": "http://sic.gob.mx/ficha.php?table=biblioteca&table_id=6755"}}, {"type": "way", "id": 456466331, "nodes": [4527219352, 4527219353, 4527219354, 4527219351, 4527219352], "tags": {"amenity": "bar", "building": "yes", "name": "Olimpo"}}, {"type": "way", "id": 491477068, "nodes": [4835786690, 4835786707, 4835786712, 4835786691, 4835786690], "tags": {"amenity": "public_building", "building": "yes"}}, {"type": "way", "id": 509294530, "nodes": [4985432693, 4985432696, 4985432699, 4985432703, 4985432800, 4985432790, 4985432693], "tags": {"amenity": "public_building"}}, {"type": "way", "id": 509294590, "nodes": [4985432688, 4985432690, 4985432739, 4985432789, 4985432788, 4985432787, 4985432786, 4985432784, 4985432783, 4985432782, 4985432778, 4985432688], "tags": {"amenity": "public_building", "name": "Arcelia Nuto de Villamichel"}}, {"type": "way", "id": 509294595, "nodes": [4011753329, 4985432685, 4985432722, 4985432754, 4985432799, 4011753328, 4985432807, 4985432782, 4985432778, 4985432688, 4011753329], "tags": {"amenity": "public_building", "name": "Jefatura de Unidad Departamental Almacenes"}}, {"type": "way", "id": 509294596, "nodes": [4985433651, 4985433645, 4985433624, 4985433579, 4985433580, 4985433581, 4985433651], "tags": {"amenity": "public_building", "name": "Jurisdicci\u00f3n Sanitaria Venustiano Carranza", "operator": "Secretar\u00eda de Salud"}}, {"type": "way", "id": 526243614, "nodes": [5117892554, 5117892555, 5117892556, 5117899105, 5117892557, 5117899106, 5117892554], "tags": {"amenity": "nightclub", "building": "yes", "name": "Coronado"}}, {"type": "way", "id": 528454535, "nodes": [5135448995, 5135448996, 5135448997, 5135448998, 5135448995], "tags": {"amenity": "bar", "building": "yes", "name": "Frankfurt"}}, {"type": "way", "id": 551399695, "nodes": [5325167505, 5859752386, 5325167506, 5325167507, 5325167508, 5325167505], "tags": {"addr:city": "Ciudad de M\u00e9xico", "amenity": "bar", "building": "yes", "name": "Restaurante Bar", "outdoor_seating": "no", "smoking": "isolated"}}, {"type": "way", "id": 551399697, "nodes": [5325167519, 5859751986, 5859751987, 5325167522, 5325167519], "tags": {"addr:city": "Ciudad de M\u00e9xico", "addr:housenumber": "98", "addr:street": "Economia", "amenity": "bar", "building": "yes", "description": "Buen lugar con m\u00fasica en vivo y micheladas de sabor", "name": "Big Corner", "opening_hours": "Mo-Sa 16:00-23:00", "outdoor_seating": "yes", "smoking": "no"}}, {"type": "way", "id": 554181556, "nodes": [5348429046, 5348429047, 5348429048, 5348429049, 5348429050, 5348429051, 5348429052, 5348429053, 5348429054, 5348429055, 5348429056, 5504256656, 5504256663, 5504256664, 5504256654, 5348429046], "tags": {"addr:city": "Ciudad de M\u00e9xico", "addr:housenumber": "40", "addr:postcode": "15700", "addr:street": "Comunicaciones y Obras P\u00fablicas", "amenity": "bar", "building": "yes", "leisure": "yes", "name": "Restaurante Bar Santoro Grill", "opening_hours": "Mo-Sa 08:00-20:00", "outdoor_seating": "no", "smoking": "isolated"}}, {"type": "way", "id": 555030633, "nodes": [5355876702, 5858588365, 5858588367, 5858588368, 5355876703, 5355876704, 5858588369, 5355876705, 5355876702], "tags": {"addr:city": "Ciudad de M\u00e9xico", "addr:postcode": "15730", "addr:street": "Economia", "amenity": "bar", "brewery": "yes", "building": "yes", "name": "Bar-Salon", "smoking": "outside"}}, {"type": "way", "id": 556965677, "nodes": [5372132577, 5372132578, 5372132579, 5372132580, 5372132577], "tags": {"addr:city": "Ciudad de M\u00e9xico", "addr:street": "Circuito Interior", "amenity": "bar", "building": "yes", "name": "ANTRAX", "smoking": "separated"}}, {"type": "way", "id": 559665554, "nodes": [5397751996, 5397751997, 5397751998, 5397751999, 5397751996], "tags": {"amenity": "public_bookcase", "name": "Carlos Fuentes"}}, {"type": "way", "id": 559706641, "nodes": [5398030748, 5398030749, 5398030750, 5398030751, 5398030748], "tags": {"amenity": "public_bookcase"}}, {"type": "way", "id": 560595306, "nodes": [5406276371, 5406276372, 5406281402, 5406276373, 5406281401, 5406276374, 5406276371], "tags": {"amenity": "bar", "brewery": "various;Poseidon", "building": "yes", "name": "Julio's", "operator": "Julio", "outdoor_seating": "no", "payment:cash": "yes", "smoking": "separated"}}, {"type": "way", "id": 572217159, "nodes": [5497806618, 5497806620, 5497806821, 5497806619, 5497806618], "tags": {"amenity": "bar", "building": "yes", "name": "La Victoria del Indio"}}, {"type": "way", "id": 573445875, "nodes": [5507519287, 5507519294, 5507519295, 5507519286, 5507519287], "tags": {"addr:housenumber": "364", "addr:street": "Trabajo y Previsi\u00f3n Social", "amenity": "bar", "building": "yes"}}, {"type": "way", "id": 612372748, "nodes": [5796772678, 5796772679, 5796772680, 5796772681, 5796772678], "tags": {"addr:street": "Calle 47", "amenity": "bar", "brewery": "yes", "building": "yes", "name": "Cerveceria la Michelada", "outdoor_seating": "yes", "product": "beer", "smoking": "no"}}, {"type": "way", "id": 620182012, "nodes": [5859752199, 5859752200, 5859752201, 5859752202, 5859752199], "tags": {"addr:city": "Ciudad de M\u00e9xico", "addr:postcode": "15730", "addr:street": "Trabajo y Previsi\u00f3n Social", "amenity": "bar", "brewery": "various", "building": "yes", "description": "Bar de Mojitos", "name": "Barsito del Barrio", "outdoor_seating": "yes", "smoking": "no"}}, {"type": "way", "id": 622116490, "nodes": [5876784420, 5876784421, 5876784422, 5876784423, 5876784424, 5876784425, 5876784426, 5876784420], "tags": {"amenity": "public_bookcase"}}]}