{"version": 0.6, "generator": "Overpass API 0.7.55.5 2ca3f387", "osm3s": {"timestamp_osm_base": "2019-01-18T17:00:02Z", "copyright": "The data included in this document is from www.openstreetmap.org. The data is made available under ODbL."}, "elements": [{"type": "node", "id": 24958713, "lat": 55.6892934, "lon": 12.5578332, "tags": {"amenity": "pub", "name": "\u00d8lbaren", "opening_hours": "Mo 21:00-01:00, Tu-We 16:00-01:00, Th 16:00-02:00, Fr 15:00-02:00, Sa 13:00-02:00, Su 13:00-23:00", "phone": "+45 35354534", "smoking": "no", "website": "http://oelbaren.dk/"}}, {"type": "node", "id": 25440922, "lat": 55.6834082, "lon": 12.5651843, "tags": {"amenity": "pub", "fvst:navnelbnr": "112711", "name": "Banker\u00e5t", "opening_hours": "Mo-Fr 09:30-24:00;Sa-Su 10:30-24:00", "opening_hours:url": "https://www.facebook.com/bankeraat/info", "phone": "+45 33 93 69 88", "smoking": "no", "website": "http://www.bankeraat.dk"}}, {"type": "node", "id": 25869217, "lat": 55.6864894, "lon": 12.5874331, "tags": {"amenity": "bar", "fvst:navnelbnr": "501959", "name": "Black Swan", "note": "Beer bar, 14 taps.", "opening_hours": "Mo-We 15:00-01:00, Th-Sa 15:00-02:00, Su 15:00-23:00", "smoking": "outside", "toilets:wheelchair": "no", "website": "http://www.blackswanbar.dk/", "wheelchair": "no"}}, {"type": "node", "id": 25904721, "lat": 55.6996104, "lon": 12.5467101, "tags": {"amenity": "pub", "fvst:navnelbnr": "109922", "name": "Caf\u00e9 Viking", "opening_hours": "Mo-Sa 09:00-02:00; Su 09:00-20:00", "phone": "+45 35831493", "website": "http://www.cafeviking.dk"}}, {"type": "node", "id": 26053041, "lat": 55.6736632, "lon": 12.5921433, "tags": {"amenity": "pub", "fvst:navnelbnr": "113481", "name": "Caf\u00e9 St\u00e6rkodder", "wheelchair": "limited", "wikidata": "Q21710338"}}, {"type": "node", "id": 124400770, "lat": 55.68523, "lon": 12.5288042, "tags": {"amenity": "pub", "fvst:navnelbnr": "713000", "name": "Hyggestuen"}}, {"type": "node", "id": 250354071, "lat": 55.6727304, "lon": 12.5616092, "tags": {"amenity": "nightclub", "created_by": "Potlatch 0.10b", "name": "Kakadu Bar", "note": "adult_entertainment"}}, {"type": "node", "id": 277694702, "lat": 55.6771958, "lon": 12.5322352, "tags": {"amenity": "pub", "fvst:navnelbnr": "115321", "name": "Cafe Intime", "opening_hours": "Mo-Su 16:00 - 02:00", "phone": "+45 38 34 19 58", "website": "http://www.cafeintime.dk/", "wikidata": "Q12305023", "wikipedia": "da:Cafe Intime"}}, {"type": "node", "id": 277703258, "lat": 55.6752681, "lon": 12.5328906, "tags": {"alt_name": "Psykopaten", "amenity": "pub", "fvst:navnelbnr": "111210", "name": "All\u00e9enberg", "opening_hours": "Tu-Sa 22:00-05:00", "phone": "+45 33254442", "website": "http://www.alleenberg.dk/"}}, {"type": "node", "id": 278380921, "lat": 55.6789275, "lon": 12.5274752, "tags": {"amenity": "pub", "fvst:navnelbnr": "112421", "name": "Cafe Svejk", "opening_hours": "Su-Mo 12:00-24:00;Tu-Sa 12:00-02:00", "phone": "+45 38862560"}}, {"type": "node", "id": 278389273, "lat": 55.6742295, "lon": 12.5399431, "tags": {"amenity": "pub", "fvst:navnelbnr": "738934", "name": "Promenaden"}}, {"type": "node", "id": 279143817, "lat": 55.6836628, "lon": 12.5245604, "tags": {"amenity": "pub", "fvst:navnelbnr": "111869", "name": "Bartof Caf\u00e9", "outdoor_seating": "yes", "phone": "+45 38 86 90 67", "smoking": "no", "website": "http://bartofcafe.dk", "wheelchair": "no"}}, {"type": "node", "id": 279144098, "lat": 55.6854951, "lon": 12.5383052, "tags": {"amenity": "pub", "fvst:navnelbnr": "112209", "name": "London Pub", "wheelchair": "no"}}, {"type": "node", "id": 279330501, "lat": 55.6819644, "lon": 12.558893}, {"type": "node", "id": 279330502, "lat": 55.6817564, "lon": 12.5593902}, {"type": "node", "id": 279330503, "lat": 55.6818953, "lon": 12.5595464}, {"type": "node", "id": 279330504, "lat": 55.6820757, "lon": 12.5590125}, {"type": "node", "id": 279471686, "lat": 55.6786451, "lon": 12.5789419, "tags": {"amenity": "pub", "fvst:navnelbnr": "114286", "name": "The Dubliner Copenhagen", "payment:bitcoin": "yes", "wheelchair": "limited"}}, {"type": "node", "id": 279472194, "lat": 55.6763998, "lon": 12.5733293, "tags": {"amenity": "pub", "name": "Drop Inn", "website": "http://drop-inn.dk"}}, {"type": "node", "id": 279475693, "lat": 55.679714, "lon": 12.5830136, "tags": {"amenity": "pub", "name": "Sam's Bar"}}, {"type": "node", "id": 279690426, "lat": 55.6782222, "lon": 12.5667804, "tags": {"amenity": "pub", "fvst:navnelbnr": "112682", "name": "Pub & Sport", "opening_hours": "Mo-Th 16:00-01:00; Fr 15:00-03:00; Sa 13:00-03:00; Su 14:00-23:00", "wheelchair": "limited"}}, {"type": "node", "id": 279901270, "lat": 55.6786652, "lon": 12.5326194, "tags": {"amenity": "bar", "name": "The Old Irish Pub, Frederiksberg"}}, {"type": "node", "id": 280464811, "lat": 55.6751214, "lon": 12.5721336, "tags": {"amenity": "bar", "fvst:navnelbnr": "118742", "name": "Club Mambo", "phone": "+45 33119766", "website": "http://www.clubmambo.dk/"}}, {"type": "node", "id": 280530603, "lat": 55.671961, "lon": 12.5555508, "tags": {"amenity": "pub", "fvst:navnelbnr": "114082", "name": "Buddha Bar", "wheelchair": "limited"}}, {"type": "node", "id": 280530612, "lat": 55.671781, "lon": 12.5548963, "tags": {"amenity": "pub", "fvst:name": "Caf\u00e9 BarBar Bar", "fvst:navnelbnr": "672161", "name": "Barbar Bar", "wheelchair": "no"}}, {"type": "node", "id": 280679974, "lat": 55.6777413, "lon": 12.5785538, "tags": {"amenity": "bar", "cuisine": "seafood", "fvst:navnelbnr": "573483", "name": "Krog's Fiskerestaurant", "opening_hours": "\"lunch and dinner\"", "phone": "+45 33158915", "website": "http://krogs.dk/"}}, {"type": "node", "id": 280790084, "lat": 55.677942, "lon": 12.5768752, "tags": {"addr:housenumber": "9", "addr:postcode": "1207", "addr:street": "Hyskenstr\u00e6de", "amenity": "pub", "fvst:navnelbnr": "114203", "name": "Lord Nelson", "name:es": "Lord Nelson Bar", "opening_hours": "Mo 15:30-00:00; Tu-We 15:30-02:00; Th 15:30-03:00; Fr 15:00-05:00; Sa 14:00-05:00", "phone": "33 93 93 94", "website": "http://www.lordnelson.dk"}}, {"type": "node", "id": 280790473, "lat": 55.6786922, "lon": 12.5732662, "tags": {"amenity": "pub", "fvst:navnelbnr": "117090", "name": "Charlie Scotts"}}, {"type": "node", "id": 280809193, "lat": 55.6691735, "lon": 12.5802893, "tags": {"addr:housenumber": "1 B", "addr:postcode": "2300", "addr:street": "Islands Brygge", "amenity": "pub", "fvst:navnelbnr": "721054", "name": "Cafe Langebro", "opening_hours": "Mo-Th 11:00-02:00, Fr-Sa 11:00-03:00, Su 11:00-20:00", "phone": "+45 32 95 85 91", "website": "http://cafelangebro.dk"}}, {"type": "node", "id": 281062886, "lat": 55.681009, "lon": 12.5806605, "tags": {"amenity": "pub", "fvst:navnelbnr": "555264", "name": "Zoo Bar", "wheelchair": "limited"}}, {"type": "node", "id": 281063017, "lat": 55.6806132, "lon": 12.5802876, "tags": {"amenity": "pub", "name": "Charlie's Bar", "smoking": "no", "wheelchair": "no"}}, {"type": "node", "id": 281063934, "lat": 55.680579, "lon": 12.588872, "tags": {"amenity": "bar", "fvst:navnelbnr": "112601", "name": "Klods Hans", "phone": "+45 33339091"}}, {"type": "node", "id": 281253528, "lat": 55.682988, "lon": 12.5729162, "tags": {"amenity": "bar", "fvst:navnelbnr": "112166", "name": "Out Of Juice"}}, {"type": "node", "id": 281539863, "lat": 55.6759526, "lon": 12.567219, "tags": {"amenity": "pub", "fvst:navnelbnr": "115440", "name": "The Scottish Pub"}}, {"type": "node", "id": 281540159, "lat": 55.6757244, "lon": 12.5669495, "tags": {"amenity": "pub", "cuisine": "mexican;burger", "fvst:name": "ROSIE MCGEE K/S", "fvst:navnelbnr": "115215", "name": "Rosie McGees"}}, {"type": "node", "id": 281542340, "lat": 55.6760729, "lon": 12.5318436, "tags": {"amenity": "bar", "name": "Grock", "phone": "+45 38199026", "website": "http://www.grock.dk/"}}, {"type": "node", "id": 281766708, "lat": 55.6657639, "lon": 12.5434218, "tags": {"amenity": "pub", "name": "Beni's Bar", "opening_hours": "Mo-We 10:00-22:00, Th 10:00-24:00, Fr-Sa 10:00-02:00, Su 10:00-22:00", "phone": "+45 26434226", "wheelchair": "no"}}, {"type": "node", "id": 281787637, "lat": 55.6771072, "lon": 12.5694984, "tags": {"amenity": "pub", "fvst:name": "Brew Pub K\u00f8benhavn, Bryggeri", "fvst:navnelbnr": "116483", "microbrewery": "yes", "name": "Brew Pub", "smoking": "no", "website": "http://brewpub.dk/"}}, {"type": "node", "id": 281998525, "lat": 55.6864339, "lon": 12.5580332, "tags": {"amenity": "pub", "fvst:navnelbnr": "567872", "internet_access": "wlan", "name": "Bl\u00e5g\u00e5rds Apotek", "opening_hours": "Mo-Th 14:00-02:00, Fr-Su 12:00-02:00", "website": "http://kroteket.dk/"}}, {"type": "node", "id": 297309582, "lat": 55.6360681, "lon": 12.6431341, "tags": {"amenity": "pub", "fvst:navnelbnr": "115369", "name": "Joe's"}}, {"type": "node", "id": 297318736, "lat": 55.6378802, "lon": 12.6353398, "tags": {"amenity": "pub", "name": "Scott-Inn"}}, {"type": "node", "id": 300410990, "lat": 55.6810855, "lon": 12.5804647, "tags": {"amenity": "pub", "fvst:navnelbnr": "113153", "name": "The Moose"}}, {"type": "node", "id": 313730277, "lat": 55.6740554, "lon": 12.5916958, "tags": {"amenity": "pub", "fvst:navnelbnr": "111916", "name": "Eiffel Bar", "smoking": "yes", "wheelchair": "no"}}, {"type": "node", "id": 313733387, "lat": 55.6876174, "lon": 12.5597763, "tags": {"amenity": "pub", "fvst:name": "Props Coffe Shop", "fvst:navnelbnr": "112236", "name": "Props", "opening_hours": "Mo-We 11:00-00:00, Th-Sa 11:00-02:00, Su 12:00-23:00"}}, {"type": "node", "id": 316122207, "lat": 55.6814563, "lon": 12.5495147, "tags": {"amenity": "pub", "fvst:navnelbnr": "117575", "name": "Bodega 48"}}, {"type": "node", "id": 330023011, "lat": 55.6905757, "lon": 12.5599645, "tags": {"amenity": "nightclub", "name": "Mexibar"}}, {"type": "node", "id": 330739963, "lat": 55.6906627, "lon": 12.5582375, "tags": {"amenity": "bar", "name": "Oak Room", "website": "http://www.oakroom.dk"}}, {"type": "node", "id": 332573745, "lat": 55.7127889, "lon": 12.5593462, "tags": {"amenity": "pub", "fvst:navnelbnr": "112634", "name": "Polar Bodega"}}, {"type": "node", "id": 335962972, "lat": 55.6953457, "lon": 12.543356, "tags": {"amenity": "pub", "fvst:navnelbnr": "720885", "internet_access": "wlan", "internet_access:fee": "no", "name": "Caf\u00e9 Stefanshus", "opening_hours": "Mo-We 08:00-01:00,Th-Sa 08:00-01:00,Su 11:00-23:00", "website": "http://www.acedesign.dk/stefanshus/"}}, {"type": "node", "id": 413370338, "lat": 55.6811388, "lon": 12.5798465, "tags": {"amenity": "pub", "name": "Sjus"}}, {"type": "node", "id": 413727333, "lat": 55.661446, "lon": 12.5157009, "tags": {"amenity": "pub", "fvst:navnelbnr": "112267", "name": "Caf\u00e9 HP", "opening_hours": "Mo-Th 11:00-23:00; Fr-Sa 11:00-24:00; Su 11:00-23:00"}}, {"type": "node", "id": 417138238, "lat": 55.6503992, "lon": 12.5274396, "tags": {"amenity": "pub", "fvst:navnelbnr": "112612", "name": "Caf\u00e9 Ellebo"}}, {"type": "node", "id": 417144153, "lat": 55.6497547, "lon": 12.5287561, "tags": {"amenity": "pub", "fvst:navnelbnr": "128108", "name": "Sj\u00e6l\u00f8r Bodega"}}, {"type": "node", "id": 417180523, "lat": 55.6481432, "lon": 12.5293861, "tags": {"amenity": "pub", "fvst:navnelbnr": "527448", "name": "Mozarts Bodega"}}, {"type": "node", "id": 427561448, "lat": 55.7019604, "lon": 12.5583462}, {"type": "node", "id": 427561450, "lat": 55.7019469, "lon": 12.5588374}, {"type": "node", "id": 427561453, "lat": 55.702077, "lon": 12.5584797}, {"type": "node", "id": 428734579, "lat": 55.6809434, "lon": 12.5739275, "tags": {"amenity": "pub", "fvst:navnelbnr": "111501", "name": "Caf\u00e9 Halvvejen", "smoking": "yes", "website": "http://www.cafehalvvejen.dk/", "wheelchair": "no"}}, {"type": "node", "id": 428820273, "lat": 55.6993504, "lon": 12.558842}, {"type": "node", "id": 428820274, "lat": 55.6992521, "lon": 12.5587319}, {"type": "node", "id": 428820275, "lat": 55.6991904, "lon": 12.5589054}, {"type": "node", "id": 428820276, "lat": 55.6992887, "lon": 12.5590155}, {"type": "node", "id": 442948295, "lat": 55.6631946, "lon": 12.5420418, "tags": {"amenity": "bar", "email": "info@flisenbarandburgers.dk", "facebook": "https://www.facebook.com/flisenbarandburgers", "fvst:navnelbnr": "553571", "name": "Flisen bar & burgers", "opening_hours": "Tu-We 15:00-23:00; Th 15:00-02:00; Fr 13:00-05:00; Sa 11:00-05:00; Su 11:00-21:00", "phone": "+45 70880604", "smoking": "outside", "sport": "table_soccer", "table_soccer": "french", "toilets": "yes", "website": "http://flisenbarandburgers.dk", "wheelchair": "yes"}}, {"type": "node", "id": 448276155, "lat": 55.6696051, "lon": 12.4918721, "tags": {"amenity": "pub", "fvst:navnelbnr": "115750", "name": "Bodega Teglsk\u00e6gget"}}, {"type": "node", "id": 461099831, "lat": 55.6679441, "lon": 12.5442682, "tags": {"amenity": "nightclub", "name": "Vega"}}, {"type": "node", "id": 467779255, "lat": 55.6920557, "lon": 12.5672552, "tags": {"amenity": "bar", "name": "Underwood Ink. II Bar", "opening_hours": "We-Sa 15:00-02:00", "phone": "+45 35355553", "website": "http://underwood-ink.dk/", "wheelchair": "yes"}}, {"type": "node", "id": 477438366, "lat": 55.690316, "lon": 12.5543688, "tags": {"amenity": "pub", "fvst:navnelbnr": "118969", "name": "BO DE GA"}}, {"type": "node", "id": 496287667, "lat": 55.6653765, "lon": 12.5171005, "tags": {"amenity": "pub", "fvst:navnelbnr": "714464", "name": "M\u00f8lle Cafeen"}}, {"type": "node", "id": 496327668, "lat": 55.6665546, "lon": 12.5168177, "tags": {"amenity": "pub", "name": "Areena Bar", "opening_hours": "Mo-We 10:00-20:00, Th 10:00-24:00, Fr 11:00-05:00, Sa 11:00-02:00"}}, {"type": "node", "id": 496327697, "lat": 55.6652831, "lon": 12.5164963, "tags": {"amenity": "pub", "fvst:navnelbnr": "554771", "man_made": "surveillance", "name": "Tofteg\u00e5rds Bodega", "opening_hours": "Mo-Su 10:00-02:00"}}, {"type": "node", "id": 496331430, "lat": 55.663277, "lon": 12.514473, "tags": {"amenity": "pub", "fvst:navnelbnr": "113831", "name": "Valby Borger Kro", "opening_hours": "Mo-We 14:00-20:00; Th-Fr 14:00-24:00"}}, {"type": "node", "id": 515718720, "lat": 55.6821362, "lon": 12.574042, "tags": {"amenity": "pub", "fvst:fixme": "fvst:no_pos", "fvst:navnelbnr": "763173", "name": "Hvide Lam", "opening_hours": "Mo 10:00-24:00, Tu-We 10:00-01:00, Th-Sa 10:00-02:00, Su 12:00-01:00", "outdoor_seating": "yes", "smoking": "yes"}}, {"type": "node", "id": 523740081, "lat": 55.6772927, "lon": 12.5640489}, {"type": "node", "id": 523740085, "lat": 55.6773394, "lon": 12.5642234}, {"type": "node", "id": 523740088, "lat": 55.6773932, "lon": 12.5641782}, {"type": "node", "id": 523740090, "lat": 55.67746, "lon": 12.5644283}, {"type": "node", "id": 523740092, "lat": 55.6774232, "lon": 12.5644592}, {"type": "node", "id": 523740097, "lat": 55.6774728, "lon": 12.5646448}, {"type": "node", "id": 523740108, "lat": 55.6770767, "lon": 12.5644494}, {"type": "node", "id": 523740112, "lat": 55.6772375, "lon": 12.5643142}, {"type": "node", "id": 523740116, "lat": 55.6771898, "lon": 12.5641354}, {"type": "node", "id": 532495495, "lat": 55.6615985, "lon": 12.6074977, "tags": {"amenity": "bar", "name": "Cafe Josefine"}}, {"type": "node", "id": 552383262, "lat": 55.70499, "lon": 12.4940637, "tags": {"amenity": "pub", "fvst:fixme": "fvst:no_pos", "fvst:navnelbnr": "555266", "name": "Br\u00f8nsh\u00f8j bodega"}}, {"type": "node", "id": 552383377, "lat": 55.7048633, "lon": 12.4974172, "tags": {"amenity": "pub", "fvst:navnelbnr": "764198", "name": "Gerts vinstue"}}, {"type": "node", "id": 552383384, "lat": 55.7049562, "lon": 12.4969562, "tags": {"amenity": "pub", "fvst:navnelbnr": "116796", "name": "Vi ses hos Berg", "phone": "+45 38281108"}}, {"type": "node", "id": 567867798, "lat": 55.6740214, "lon": 12.5973242, "tags": {"amenity": "nightclub", "name": "Loppen", "website": "http://www.loppen.dk/", "wikidata": "Q12324876", "wikipedia": "da:Loppen"}}, {"type": "node", "id": 571267064, "lat": 55.6826112, "lon": 12.4914551, "tags": {"amenity": "pub", "fvst:navnelbnr": "736025", "name": "Snoopy Bodega"}}, {"type": "node", "id": 664252429, "lat": 55.698001, "lon": 12.544946, "tags": {"amenity": "pub", "name": "Karrusellen", "opening_hours": "9:00-2:00"}}, {"type": "node", "id": 664252430, "lat": 55.69858, "lon": 12.545621, "tags": {"amenity": "pub", "fvst:navnelbnr": "662868", "name": "Caf\u00e9 \u00c6gir", "opening_hours": "Su-Tu 10:00-24:00; We-Sa 10:00-02:00"}}, {"type": "node", "id": 664252431, "lat": 55.6999384, "lon": 12.5467477, "tags": {"amenity": "pub", "fvst:navnelbnr": "734612", "name": "Det Gamle Sted"}}, {"type": "node", "id": 664252432, "lat": 55.6957911, "lon": 12.5439692, "tags": {"amenity": "pub", "fvst:navnelbnr": "552520", "name": "Caf\u00e9 Lille Peter", "opening_hours": "08:00-24:00", "phone": "+45 35851019"}}, {"type": "node", "id": 672118748, "lat": 55.6867811, "lon": 12.5879754, "tags": {"amenity": "pub", "cuisine": "african", "name": "Edelweiss", "wheelchair": "limited"}}, {"type": "node", "id": 672726761, "lat": 55.6692072, "lon": 12.5530621, "tags": {"amenity": "bar", "fvst:navnelbnr": "112458", "name": "Zakabona", "phone": "+45 33 23 28 35", "website": "http://www.zakabona.dk/", "wheelchair": "no"}}, {"type": "node", "id": 674047419, "lat": 55.6679616, "lon": 12.5563311, "tags": {"addr:housenumber": "29C", "addr:postcode": "1700", "addr:street": "Halmtorvet", "amenity": "bar", "internet_access": "wlan", "name": "Fermentoren", "opening_hours": "Mo-We 15:00-00:00; Th 14:00-01:00; Fr-Sa 14:00-02:00; Su 14:00-00:00", "outdoor_seating": "yes", "payment:credit_cards": "yes", "phone": "+45 23908677", "website": "http://www.fermentoren.com"}}, {"type": "node", "id": 674777891, "lat": 55.6660465, "lon": 12.5535148, "tags": {"amenity": "bar", "brewery": "Tuborg;Carlsberg", "facebook": "https://www.facebook.com/cafe33b/", "fvst:fixme": "fvst:no_pos", "fvst:navnelbnr": "712621", "name": "Cafe 33 test 10", "phone": "1345678", "website": "cafe33.dk"}}, {"type": "node", "id": 674787360, "lat": 55.6671045, "lon": 12.5480362, "tags": {"amenity": "pub", "brewery": "guinness", "fvst:navnelbnr": "113622", "name": "Caf\u00e9 Snork", "opening_hours": "Mo-Su 14:00-02:00", "phone": "+45 33315314", "website": "http://cafesnork.dk/", "wheelchair": "no"}}, {"type": "node", "id": 674792906, "lat": 55.6675905, "lon": 12.5471175, "tags": {"amenity": "bar", "name": "Boutique Lize", "opening_hours": "We 20:00-24:00, Th 20:00-02:00, Fr-Sa 20:00-04:00", "phone": "+45 33311560", "wheelchair": "no"}}, {"type": "node", "id": 674801748, "lat": 55.6677986, "lon": 12.5441914, "tags": {"amenity": "nightclub", "name": "Ideal bar"}}, {"type": "node", "id": 674852970, "lat": 55.6671981, "lon": 12.553451, "tags": {"amenity": "pub", "fvst:navnelbnr": "111535", "name": "Caf\u00e9 42", "phone": "+45 33316066"}}, {"type": "node", "id": 676009938, "lat": 55.6683619, "lon": 12.5501454, "tags": {"amenity": "pub", "fvst:navnelbnr": "118681", "name": "Mc Kluud", "opening_hours": "Mo-Su 14:00-02:00", "phone": "+45 33316383", "smoking": "isolated", "website": "http://www.mckluud.dk/", "wheelchair": "no"}}, {"type": "node", "id": 676010255, "lat": 55.668228, "lon": 12.5497201, "tags": {"amenity": "bar", "fvst:navnelbnr": "112695", "name": "Vesterbro Vinstue", "phone": "+45 33251080", "source": "own survey", "website": "http://vesterbrovinstue.dk/"}}, {"type": "node", "id": 676016139, "lat": 55.6690298, "lon": 12.5532606, "tags": {"amenity": "bar", "fvst:navnelbnr": "119507", "name": "Malbeck", "opening_hours": "Mo-Th 16:00-24:00; Fr-Sa 16:00-02:00", "phone": "+45 33311970", "website": "http://www.malbeck.dk/", "wheelchair": "no"}}, {"type": "node", "id": 679304500, "lat": 55.6906927, "lon": 12.554622, "tags": {"amenity": "pub", "fvst:navnelbnr": "113223", "name": "Det Rene Glas"}}, {"type": "node", "id": 679306027, "lat": 55.6908003, "lon": 12.5614037, "tags": {"amenity": "pub", "fvst:navnelbnr": "111852", "name": "Cafeen Funke", "wheelchair": "no", "wheelchair:description": "[noParking noEntry 3-4 steps and no outdoor chairs/tables 2012/tbasen.dk]"}}, {"type": "node", "id": 683138023, "lat": 55.6668622, "lon": 12.5466941, "tags": {"amenity": "bar", "name": "Darling"}}, {"type": "node", "id": 683139428, "lat": 55.6676111, "lon": 12.5484584, "tags": {"amenity": "pub", "fvst:navnelbnr": "114369", "name": "Caf\u00e8 Blomsten", "phone": "+45 33213502"}}, {"type": "node", "id": 683141422, "lat": 55.6692729, "lon": 12.5496981, "tags": {"amenity": "bar", "name": "Riesen", "wheelchair": "no"}}, {"type": "node", "id": 683192044, "lat": 55.6675503, "lon": 12.5553934, "tags": {"amenity": "pub", "email": "kontakt@cafegrotten.dk", "fvst:navnelbnr": "111552", "name": "Caf\u00e9 Grotten", "opening_hours": "Mo-We 10:00-02:00, Th-Sa 10:00-05:00", "phone": "+45 33218551", "website": "http://www.cafegrotten.dk/"}}, {"type": "node", "id": 687245923, "lat": 55.6740349, "lon": 12.5724154, "tags": {"amenity": "pub", "fvst:navnelbnr": "114983", "name": "Her Er Ro Pub"}}, {"type": "node", "id": 687312669, "lat": 55.6771501, "lon": 12.5691017, "tags": {"amenity": "bar", "fvst:navnelbnr": "118492", "name": "Caf\u00e8 Guldhornene", "payment:bitcoin": "yes"}}, {"type": "node", "id": 687313455, "lat": 55.6773855, "lon": 12.5694568, "tags": {"amenity": "bar", "fvst:navnelbnr": "115897", "name": "Heidi's Bier Bar", "payment:bitcoin": "yes", "website": "www.heidisbierbar.dk"}}, {"type": "node", "id": 687314560, "lat": 55.6779133, "lon": 12.5705635, "tags": {"amenity": "bar", "name": "The Australien Bar", "name:en": "Australian Bar"}}, {"type": "node", "id": 687314916, "lat": 55.6779717, "lon": 12.5707085, "tags": {"amenity": "bar", "name": "Caf\u00e9 Kras"}}, {"type": "node", "id": 687319610, "lat": 55.67857, "lon": 12.5720323, "tags": {"amenity": "nightclub", "name": "Penthouse"}}, {"type": "node", "id": 687458594, "lat": 55.6782778, "lon": 12.581946, "tags": {"amenity": "nightclub", "name": "Dakota"}}, {"type": "node", "id": 687796690, "lat": 55.6822933, "lon": 12.5804369, "tags": {"amenity": "bar", "fvst:navnelbnr": "735352", "name": "Trykbar"}}, {"type": "node", "id": 698514092, "lat": 55.6730196, "lon": 12.5597708, "tags": {"amenity": "pub", "fvst:navnelbnr": "118919", "name": "City Pub"}}, {"type": "node", "id": 698794774, "lat": 55.6674606, "lon": 12.5550093, "tags": {"amenity": "pub", "fvst:navnelbnr": "113809", "name": "Caf\u00e9 Sommersted", "opening_hours": "Mo-Su 16:00-05:00", "phone": "+45 33210160"}}, {"type": "node", "id": 698796999, "lat": 55.668674, "lon": 12.5565742, "tags": {"amenity": "bar", "fvst:navnelbnr": "112222", "name": "Bodega 54", "phone": "+45 33316527"}}, {"type": "node", "id": 698800833, "lat": 55.6696351, "lon": 12.5582526, "tags": {"amenity": "bar", "fvst:navnelbnr": "662590", "name": "Freddys Bar", "phone": "+45 33227095", "wheelchair": "no"}}, {"type": "node", "id": 698800864, "lat": 55.6698539, "lon": 12.5584065, "tags": {"amenity": "bar", "name": "Lones Kro", "phone": "+45 33314101", "wheelchair": "no"}}, {"type": "node", "id": 698800945, "lat": 55.6697425, "lon": 12.5581224, "tags": {"amenity": "bar", "name": "Caf\u00e9 Centralen", "phone": "+45 33 316416", "wheelchair": "no"}}, {"type": "node", "id": 698801245, "lat": 55.6702253, "lon": 12.5580263, "tags": {"amenity": "bar", "fvst:navnelbnr": "112271", "name": "Hos Tove", "phone": "+45 33243782", "wheelchair": "no"}}, {"type": "node", "id": 704974846, "lat": 55.6864665, "lon": 12.5500587, "tags": {"amenity": "bar", "fvst:navnelbnr": "577983", "name": "Tjili Pop 2", "opening_hours": "Su-Tu 10:00-00:00,We 10:00-01:00,Th 10:00-02:00,Fr-Sa 10:00-03:00", "website": "http://www.tjili.dk/", "wheelchair": "no"}}, {"type": "node", "id": 704974847, "lat": 55.6870129, "lon": 12.5479826, "tags": {"amenity": "bar", "fvst:navnelbnr": "761368", "name": "gilt"}}, {"type": "node", "id": 705920309, "lat": 55.6888822, "lon": 12.5598039, "tags": {"amenity": "bar", "fvst:navnelbnr": "114630", "name": "Gef\u00e4hrlich", "wheelchair": "no"}}, {"type": "node", "id": 705920323, "lat": 55.6898476, "lon": 12.5603109, "tags": {"amenity": "bar", "fvst:navnelbnr": "715346", "name": "Barcelona", "wheelchair": "no"}}, {"type": "node", "id": 705923959, "lat": 55.691216, "lon": 12.5592453, "tags": {"amenity": "nightclub", "name": "Rust", "website": "http://rust.dk/"}}, {"type": "node", "id": 724002862, "lat": 55.6758158, "lon": 12.6000522, "tags": {"amenity": "pub", "name": "Cafe H\u00f8vlen", "wheelchair": "no"}}, {"type": "node", "id": 724350527, "lat": 55.6723347, "lon": 12.5498081, "tags": {"amenity": "pub", "fvst:fixme": "fvst:no_pos", "fvst:navnelbnr": "23438", "name": "Caf\u00e9 Guldregn", "website": "http://www.cafe-guldregn.dk/"}}, {"type": "node", "id": 727411650, "lat": 55.6717009, "lon": 12.5458395, "tags": {"amenity": "pub", "fvst:navnelbnr": "116648", "name": "M\u00e4rkbar", "wheelchair": "no"}}, {"type": "node", "id": 727436488, "lat": 55.6721637, "lon": 12.5636709, "tags": {"amenity": "pub", "contact:phone": "+45 33216090", "fvst:navnelbnr": "113401", "name": "Jernbanecafeen", "website": "http://www.jernbanecafeen.dk/"}}, {"type": "node", "id": 727630351, "lat": 55.6736355, "lon": 12.5906539, "tags": {"amenity": "pub", "name": "Fingerb\u00f8llet", "website": "http://www.fingerboellet.dk", "wheelchair": "yes"}}, {"type": "node", "id": 727708821, "lat": 55.6719928, "lon": 12.5905788, "tags": {"amenity": "pub", "fvst:navnelbnr": "670165", "name": "Kanal Bodega", "wheelchair": "no"}}, {"type": "node", "id": 727708837, "lat": 55.6711746, "lon": 12.5924079, "tags": {"amenity": "pub", "fvst:navnelbnr": "114984", "name": "Kafe Falken"}}, {"type": "node", "id": 734870384, "lat": 55.6708296, "lon": 12.5462526, "tags": {"amenity": "pub", "fvst:navnelbnr": "697716", "name": "Grusgraven", "wheelchair": "no"}}, {"type": "node", "id": 734882638, "lat": 55.6656274, "lon": 12.5495946, "tags": {"amenity": "bar", "fvst:navnelbnr": "110785018", "name": "Dyrehaven", "website": "http://www.dyrehavenkbh.dk/", "wheelchair": "limited"}}, {"type": "node", "id": 735030034, "lat": 55.6740877, "lon": 12.5513488, "tags": {"amenity": "pub", "fvst:navnelbnr": "114373", "name": "Larsen's Plaz", "wheelchair": "no"}}, {"type": "node", "id": 736442048, "lat": 55.6897298, "lon": 12.5602698, "tags": {"amenity": "pub", "fvst:navnelbnr": "111261", "name": "Kattens k\u00e6lder", "wheelchair": "no"}}, {"type": "node", "id": 736564703, "lat": 55.6695589, "lon": 12.5543475, "tags": {"amenity": "pub", "contact:phone": "+45 33318476", "name": "Skipper Bodega", "wheelchair": "no"}}, {"type": "node", "id": 737887225, "lat": 55.6688571, "lon": 12.5487739, "tags": {"amenity": "pub", "fvst:navnelbnr": "574833", "name": "Caf\u00e9 Erik"}}, {"type": "node", "id": 738164312, "lat": 55.6987309, "lon": 12.5812029, "tags": {"amenity": "bar", "fvst:navnelbnr": "112611", "name": "Holstein Bodega", "opening_hours": "08:00-02:00", "outdoor_seating": "yes", "phone": "+45 35265321", "smoking": "yes", "website": "http://www.holstein-bodega.dk/"}}, {"type": "node", "id": 738821344, "lat": 55.6695045, "lon": 12.540046, "tags": {"amenity": "pub", "name": "Bob's Hytte"}}, {"type": "node", "id": 738821350, "lat": 55.6709507, "lon": 12.5436884, "tags": {"amenity": "pub", "fvst:navnelbnr": "699132", "name": "Ludwigsen", "opening_hours": "Mo-We 14:00-02:00,Th-Sa 14:00-05:00,Su 14:00-02:00", "phone": "+45 33237720", "website": "http://www.cafeludwigsen.dk/", "wheelchair": "no"}}, {"type": "node", "id": 745576449, "lat": 55.6654352, "lon": 12.5387692, "tags": {"amenity": "pub", "name": "Cafe Bryggeriet", "wheelchair": "no"}}, {"type": "node", "id": 746251105, "lat": 55.6675771, "lon": 12.5780731, "tags": {"addr:housenumber": "15", "addr:postcode": "2300", "addr:street": "Islands Brygge", "amenity": "bar", "fvst:navnelbnr": "112526", "name": "Caf\u00e9 Haraldsborg", "opening_hours": "Mo-Su 10:00-02:00", "phone": "+45 32 54 69 02"}}, {"type": "node", "id": 746251544, "lat": 55.6678361, "lon": 12.5785286, "tags": {"amenity": "bar", "fvst:navnelbnr": "113152", "name": "Isbj\u00f8rnen", "phone": "+45 32 96 96 40"}}, {"type": "node", "id": 746302702, "lat": 55.6691143, "lon": 12.5500506, "tags": {"amenity": "pub", "name": "Det Lille \u00d8resund", "wheelchair": "no"}}, {"type": "node", "id": 818683303, "lat": 55.6812668, "lon": 12.5645148, "tags": {"amenity": "pub", "fvst:navnelbnr": "658921", "name": "\u00d8rsted \u00d8lbar & Cafe", "website": "http://www.oerstedoelbar.dk"}}, {"type": "node", "id": 818898743, "lat": 55.6719575, "lon": 12.5575483, "tags": {"addr:housenumber": "8C", "addr:postcode": "1655", "addr:street": "Viktoriagade", "amenity": "bar", "fvst:fixme": "fvst position missing, fixed from overpassturbo/osak", "fvst:navnelbnr": "576202", "name": "Mikkeller Bar Viktoriagade", "opening_hours": "Su-We 13:00-01:00, Th-Fr 13:00-02:00, Sa 12:00-02:00", "phone": "+45 33310415", "website": "http://mikkeller.dk/mikkeller-bar/", "wheelchair": "no"}}, {"type": "node", "id": 823266193, "lat": 55.6787761, "lon": 12.5313663, "tags": {"amenity": "pub", "name": "Western Saloon / H.H. Ranch"}}, {"type": "node", "id": 861271148, "lat": 55.6632312, "lon": 12.5419883, "tags": {"amenity": "pub", "name": "Cafe Hytten", "opening_hours": "Mo-Sa 06:00-01:00, Su 10:00-01:00", "phone": "+45 33 79 70 70", "wheelchair": "no"}}, {"type": "node", "id": 870440497, "lat": 55.6737036, "lon": 12.5560265, "tags": {"amenity": "pub", "name": "Kennedys Irish Bar", "opening_hours": "Mo-Su 12:00-02:00", "phone": "+45 33315249"}}, {"type": "node", "id": 870504155, "lat": 55.6724995, "lon": 12.5571585, "tags": {"amenity": "pub", "name": "Caf\u00e9 Touch\u00e9", "phone": "+45"}}, {"type": "node", "id": 888302160, "lat": 55.6708238, "lon": 12.5583466, "tags": {"amenity": "bar", "fvst:navnelbnr": "523573", "name": "Club 34"}}, {"type": "node", "id": 888340138, "lat": 55.673194, "lon": 12.5612145, "tags": {"amenity": "bar", "name": "Cube", "operator": "Scandic Webers", "phone": "+45 33311432"}}, {"type": "node", "id": 893929266, "lat": 55.6674366, "lon": 12.5477176, "tags": {"amenity": "bar", "name": "Stempel Bar & Kitchen"}}, {"type": "node", "id": 893950255, "lat": 55.672966, "lon": 12.5569385, "tags": {"amenity": "bar", "name": "H\u00f8llmers Bar"}}, {"type": "node", "id": 893960540, "lat": 55.677182, "lon": 12.5648891}, {"type": "node", "id": 893968817, "lat": 55.6764896, "lon": 12.5713457, "tags": {"amenity": "bar", "fvst:navnelbnr": "114140", "name": "Villa Vino"}}, {"type": "node", "id": 893993391, "lat": 55.6779554, "lon": 12.5807439, "tags": {"amenity": "bar", "fvst:name": "Kirstens Cocktail - og Vinbar", "fvst:navnelbnr": "113255", "name": "K Cocktailbar", "opening_hours": "16:00-02:00; Su off", "wheelchair": "no"}}, {"type": "node", "id": 894227347, "lat": 55.6789803, "lon": 12.5910318, "tags": {"amenity": "bar", "fvst:navnelbnr": "665473", "name": "Caf\u00e9 M\u00f8nten", "opening_hours": "Mo-Sa 10:00-24:00", "phone": "+45 33152000"}}, {"type": "node", "id": 894365205, "lat": 55.6863474, "lon": 12.5839688, "tags": {"amenity": "nightclub"}}, {"type": "node", "id": 894417533, "lat": 55.6775965, "lon": 12.5720388, "tags": {"amenity": "pub", "fvst:name": "Streckers Pub & Brasserie", "fvst:navnelbnr": "113414", "name": "Streckers"}}, {"type": "node", "id": 894840887, "lat": 55.6656209, "lon": 12.5945051, "tags": {"amenity": "pub", "name": "V\u00e6rkstedet", "opening_hours": "Mo-Th 12:00-02:00, Fr-Sa 12:00-04:00, Su 12:00-23:00"}}, {"type": "node", "id": 895775324, "lat": 55.675622, "lon": 12.5666185, "tags": {"amenity": "bar", "name": "Streckers", "wheelchair": "no"}}, {"type": "node", "id": 895776321, "lat": 55.6754915, "lon": 12.5662488, "tags": {"amenity": "bar", "name": "Streckers"}}, {"type": "node", "id": 895777978, "lat": 55.6754933, "lon": 12.5663732, "tags": {"amenity": "pub", "fvst:navnelbnr": "111291", "name": "The Old English Pub", "source": "Kaart Ground Survey 2017", "wheelchair": "limited"}}, {"type": "node", "id": 895874662, "lat": 55.6723732, "lon": 12.4883649, "tags": {"amenity": "pub", "fvst:navnelbnr": "113112", "name": "Cafe Aalholm Bodega", "opening_hours": "Mo-Su 09:00-22:00"}}, {"type": "node", "id": 898917987, "lat": 55.6822504, "lon": 12.5853881, "tags": {"amenity": "nightclub", "name": "Den R\u00f8de Baron", "wheelchair": "no"}}, {"type": "node", "id": 898918478, "lat": 55.6821264, "lon": 12.5847075, "tags": {"amenity": "bar", "fvst:navnelbnr": "114708", "name": "Ocak Caf\u00e9", "wheelchair": "no"}}, {"type": "node", "id": 898920410, "lat": 55.6815566, "lon": 12.5842922, "tags": {"amenity": "bar", "name": "Natcafeen"}}, {"type": "node", "id": 898920753, "lat": 55.6816072, "lon": 12.5841215, "tags": {"amenity": "nightclub", "name": "Duke"}}, {"type": "node", "id": 898926090, "lat": 55.6817227, "lon": 12.5836617, "tags": {"amenity": "bar", "fvst:navnelbnr": "115035", "name": "M\u00e6lk"}}, {"type": "node", "id": 898930008, "lat": 55.6821086, "lon": 12.5823968, "tags": {"amenity": "bar", "name": "Koster"}}, {"type": "node", "id": 898930207, "lat": 55.6821592, "lon": 12.5822351, "tags": {"amenity": "bar", "fvst:navnelbnr": "114335", "name": "Andy's Bar"}}, {"type": "node", "id": 898933924, "lat": 55.6823061, "lon": 12.5816691, "tags": {"amenity": "bar", "fvst:navnelbnr": "114647", "name": "Cucaracha Bar"}}, {"type": "node", "id": 898939487, "lat": 55.6818655, "lon": 12.5825764, "tags": {"amenity": "bar", "name": "Basement", "wheelchair": "no"}}, {"type": "node", "id": 898939685, "lat": 55.6818706, "lon": 12.582289, "tags": {"amenity": "bar", "name": "Jazz Caf\u00e9"}}, {"type": "node", "id": 898941047, "lat": 55.6812694, "lon": 12.5810346, "tags": {"amenity": "bar", "name": "LaBar", "wheelchair": "no"}}, {"type": "node", "id": 898941926, "lat": 55.6810501, "lon": 12.5816422, "tags": {"amenity": "bar", "name": "Vinbar"}}, {"type": "node", "id": 898950333, "lat": 55.6812502, "lon": 12.5794331, "tags": {"amenity": "bar", "fvst:navnelbnr": "113304", "name": "Cafe Rex", "opening_hours": "We 21:00-24:00; Th 00:00-03:00,21:00-24:00; Fr 00:00-03:00,18:00-24:00; Sa 00:00-05:00,22:00-24:00; Su 00:00-05:00", "phone": "+45 33 93 18 18", "shop": "alcohol", "website": "http://www.caferex.dk/"}}, {"type": "node", "id": 898951399, "lat": 55.6810096, "lon": 12.5786867, "tags": {"amenity": "bar", "fvst:navnelbnr": "113043", "name": "BoBi Bar"}}, {"type": "node", "id": 898953156, "lat": 55.6805487, "lon": 12.5771236, "tags": {"amenity": "bar", "name": "Hornsleth"}}, {"type": "node", "id": 898964645, "lat": 55.6800283, "lon": 12.5745981, "tags": {"amenity": "bar", "fvst:navnelbnr": "117912", "name": "Den glade Gris"}}, {"type": "node", "id": 899019395, "lat": 55.6716843, "lon": 12.5546478, "tags": {"amenity": "bar", "name": "Lundgren V.I.P"}}, {"type": "node", "id": 899199394, "lat": 55.664482, "lon": 12.5839106, "tags": {"amenity": "pub", "fvst:navnelbnr": "710025", "name": "Artillericafeen"}}, {"type": "node", "id": 899246045, "lat": 55.6682928, "lon": 12.5959519, "tags": {"amenity": "pub", "name": "Louies Vinstue", "smoking": "yes"}}, {"type": "node", "id": 923662035, "lat": 55.6989276, "lon": 12.5408315, "tags": {"amenity": "pub", "fvst:navnelbnr": "556716", "name": "Esrom Kroen"}}, {"type": "node", "id": 976747659, "lat": 55.7104835, "lon": 12.5610308, "tags": {"amenity": "pub", "fvst:navnelbnr": "116590", "name": "B\u00f8rges Bodega", "source": "Kaart Ground Survey 2017"}}, {"type": "node", "id": 1025333517, "lat": 55.6663247, "lon": 12.6121518, "tags": {"amenity": "pub"}}, {"type": "node", "id": 1042510414, "lat": 55.6824933, "lon": 12.5876994, "tags": {"amenity": "publisher", "name": "Dagbladet Information", "office": "publisher", "phone": "+45 33696000", "publishing": "newspaper", "start_date": "1945-05-05", "website": "http://www.information.dk/", "wikidata": "Q761660", "wikipedia": "da:Dagbladet Information"}}, {"type": "node", "id": 1042550104, "lat": 55.6769494, "lon": 12.5684879, "tags": {"amenity": "publisher", "name": "Ekstra Bladet", "office": "publisher", "operator": "JP/Politikens Hus A/S", "phone": "+45 33111313", "publishing": "newspaper", "start_date": "1904-02-12", "website": "http://ekstrabladet.dk/"}}, {"type": "node", "id": 1042763457, "lat": 55.680968, "lon": 12.5782205, "tags": {"amenity": "publisher", "name": "Gyldendal", "office": "publisher", "phone": "+45 33755555", "start_date": "1770", "type": "books", "website": "http://gyldendal.dk/"}}, {"type": "node", "id": 1109570885, "lat": 55.6950589, "lon": 12.5479618, "tags": {"amenity": "pub", "fvst:navnelbnr": "111781", "name": "N\u00f8rre Bodega"}}, {"type": "node", "id": 1118919064, "lat": 55.6942552, "lon": 12.5482944, "tags": {"amenity": "pub", "fvst:navnelbnr": "117859", "name": "Cafe Runddelen", "outdoor_seating": "yes"}}, {"type": "node", "id": 1121970704, "lat": 55.6979994, "lon": 12.5358935, "tags": {"amenity": "pub", "fvst:navnelbnr": "113491", "name": "Caf\u00e9 Under Hylden", "phone": "+45 38117477", "website": "http://underhylden.dk/"}}, {"type": "node", "id": 1136433325, "lat": 55.689562, "lon": 12.556587, "tags": {"amenity": "pub", "fvst:navnelbnr": "111924", "name": "Temple Bar", "wheelchair": "no"}}, {"type": "node", "id": 1141451331, "lat": 55.705922, "lon": 12.5789519, "tags": {"amenity": "bar", "drink:cocktail": "served", "name": "Bubbles", "note": "Champagne and Cocktails", "old_name": "Kitjn", "opening_hours": "18:00-03:00, We-Th 16:00-24:00, Su-Tu off", "phone": "+45 31250099", "smoking": "no", "website": "http://www.bubblesbar.dk/"}}, {"type": "node", "id": 1164115044, "lat": 55.6876316, "lon": 12.527984, "tags": {"amenity": "pub", "fvst:navnelbnr": "669956", "name": "Vint\u00f8nden", "wheelchair": "no"}}, {"type": "node", "id": 1191241468, "lat": 55.6882409, "lon": 12.5557658}, {"type": "node", "id": 1191241470, "lat": 55.6881846, "lon": 12.5554205}, {"type": "node", "id": 1191241471, "lat": 55.6883176, "lon": 12.5555432}, {"type": "node", "id": 1191241486, "lat": 55.6881513, "lon": 12.5556672}, {"type": "node", "id": 1200013170, "lat": 55.6936967, "lon": 12.5321763, "tags": {"amenity": "pub", "fvst:navnelbnr": "115688", "name": "Det Gamle Posthus"}}, {"type": "node", "id": 1200013182, "lat": 55.692947, "lon": 12.5347136, "tags": {"amenity": "pub", "fvst:navnelbnr": "113256", "name": "Indskudspubben"}}, {"type": "node", "id": 1200013193, "lat": 55.6958705, "lon": 12.5444608, "tags": {"amenity": "bar", "name": "VinBaren", "toilets:wheelchair": "no", "wheelchair": "no"}}, {"type": "node", "id": 1200105789, "lat": 55.6880152, "lon": 12.5606456, "tags": {"addr:housenumber": "18B", "addr:postcode": "2200", "addr:street": "N\u00f8rrebrogade", "amenity": "bar", "email": "cocktail@kassen.dk", "fvst:navnelbnr": "115544", "name": "Kassen", "opening_hours": "We 20:00-02:00; Th 20:00-03:00; Fr 16:00-04:00; Sa 20:00-04:00", "phone": "+4542572200", "website": "http://kassen.dk", "wheelchair": "limited"}}, {"type": "node", "id": 1200114179, "lat": 55.6960958, "lon": 12.5475371, "tags": {"amenity": "pub", "fvst:navnelbnr": "128874", "name": "Mucki Bar"}}, {"type": "node", "id": 1200114180, "lat": 55.7002208, "lon": 12.5210158, "tags": {"amenity": "pub", "fvst:name": "233 Sportsbar og Restaurant", "fvst:navnelbnr": "575367", "name": "Martini"}}, {"type": "node", "id": 1216104391, "lat": 55.6659616, "lon": 12.5589181, "tags": {"amenity": "nightclub", "name": "K\u00f8dboderne 18", "website": "http://kb18.net/"}}, {"type": "node", "id": 1228018873, "lat": 55.6933312, "lon": 12.5475557, "tags": {"amenity": "pub", "name": "Monkey Bar"}}, {"type": "node", "id": 1277377886, "lat": 55.7149538, "lon": 12.5701255, "tags": {"amenity": "bar", "fvst:navnelbnr": "526731", "name": "Bellmann's Cafe", "phone": "+45 39290551"}}, {"type": "node", "id": 1278093389, "lat": 55.7141075, "lon": 12.5717426, "tags": {"amenity": "bar", "fvst:name": "Perickles", "fvst:navnelbnr": "112280", "name": "Perikles Bodega", "outdoor_seating": "yes"}}, {"type": "node", "id": 1305262264, "lat": 55.6876448, "lon": 12.5594632, "tags": {"amenity": "bar", "cuisine": "vegan;vegetarian", "name": "Harbo Bar", "opening_hours": "Mo-Th 08:30-00:00, Fr 08:30-02:00, Sa 09:30-02:00, Su 09:30-23:00"}}, {"type": "node", "id": 1311537207, "lat": 55.6954525, "lon": 12.6095487, "tags": {"amenity": "bar", "fvst:navnelbnr": "644522", "name": "Halvandet"}}, {"type": "node", "id": 1324781959, "lat": 55.6787751, "lon": 12.5803397, "tags": {"amenity": "bar", "fvst:navnelbnr": "116955", "internet_access": "wlan", "name": "Toga Vinstue", "opening_hours": "Mo-We 12:00-03:00, Th-Sa 12:00-05:00", "payment:bitcoin": "yes", "phone": "+45 33122126 \u200e", "website": "http://www.toga.dk/", "wikidata": "Q16324763", "wikipedia": "da:Toga Vinstue"}}, {"type": "node", "id": 1343165509, "lat": 55.7080699, "lon": 12.570917, "tags": {"amenity": "pub", "name": "Hubertus Vinstue"}}, {"type": "node", "id": 1358980017, "lat": 55.664331, "lon": 12.603224, "tags": {"amenity": "pub", "name": "Jaguaren"}}, {"type": "node", "id": 1358983535, "lat": 55.664579, "lon": 12.604527, "tags": {"amenity": "pub", "fvst:navnelbnr": "525601", "name": "Amager \u00d8lhus | Mads Bonde", "opening_hours": "Tu-Th 16:00-22:00; Fr 14:00-24:00; Sa 14:00-22:00", "smoking": "outside"}}, {"type": "node", "id": 1359003216, "lat": 55.666984, "lon": 12.616356, "tags": {"amenity": "pub", "fvst:navnelbnr": "559955", "name": "John's Kro", "wheelchair": "no"}}, {"type": "node", "id": 1369021923, "lat": 55.7007012, "lon": 12.5418456, "tags": {"amenity": "pub", "name": "Cafe Heimdal", "wheelchair": "no"}}, {"type": "node", "id": 1412519838, "lat": 55.6694704, "lon": 12.5451652, "tags": {"amenity": "bar", "name": "Pistoler & Coke", "opening_hours": "We-Fr 19:00-01:00, Sa 19:00-03:00", "website": "http://pistolerogcoke.dk"}}, {"type": "node", "id": 1439744394, "lat": 55.6738595, "lon": 12.5646995, "tags": {"amenity": "bar", "fvst:navnelbnr": "126382", "name": "Library Bar", "wheelchair": "yes"}}, {"type": "node", "id": 1443471679, "lat": 55.686467, "lon": 12.5876904, "tags": {"amenity": "pub", "fvst:navnelbnr": "721942", "name": "Borgerkroen", "smoking": "yes", "wheelchair": "no"}}, {"type": "node", "id": 1446941356, "lat": 55.681885, "lon": 12.5589877}, {"type": "node", "id": 1446941360, "lat": 55.6818052, "lon": 12.559271}, {"type": "node", "id": 1446941362, "lat": 55.6817829, "lon": 12.5592341}, {"type": "node", "id": 1446941374, "lat": 55.6819152, "lon": 12.5590231}, {"type": "node", "id": 1451717775, "lat": 55.6782404, "lon": 12.5732318}, {"type": "node", "id": 1451717781, "lat": 55.6784345, "lon": 12.5731826}, {"type": "node", "id": 1451717784, "lat": 55.6783691, "lon": 12.5728969}, {"type": "node", "id": 1451717796, "lat": 55.6784237, "lon": 12.573175}, {"type": "node", "id": 1451717800, "lat": 55.6783848, "lon": 12.5736214}, {"type": "node", "id": 1451717804, "lat": 55.6784032, "lon": 12.5729817}, {"type": "node", "id": 1451717805, "lat": 55.6784271, "lon": 12.573439}, {"type": "node", "id": 1451717827, "lat": 55.6784607, "lon": 12.5735275}, {"type": "node", "id": 1451717832, "lat": 55.6785014, "lon": 12.5728971}, {"type": "node", "id": 1451717842, "lat": 55.678612, "lon": 12.5732471}, {"type": "node", "id": 1451717860, "lat": 55.6787059, "lon": 12.573156}, {"type": "node", "id": 1457214168, "lat": 55.6628322, "lon": 12.6155794, "tags": {"amenity": "pub", "fvst:navnelbnr": "114071", "name": "Cafe Parkg\u00e5rden"}}, {"type": "node", "id": 1462189989, "lat": 55.6844903, "lon": 12.5674015, "tags": {"amenity": "pub", "name": "Funchs Vinstue", "smoking": "yes"}}, {"type": "node", "id": 1462221515, "lat": 55.683868, "lon": 12.568527, "tags": {"amenity": "pub", "fvst:navnelbnr": "117768", "name": "Jagtstuen", "smoking": "yes", "wheelchair": "no"}}, {"type": "node", "id": 1463848266, "lat": 55.684931, "lon": 12.558795, "tags": {"amenity": "pub", "fvst:navnelbnr": "110838", "name": "Diligencen", "opening_hours": "Mo-Fr 08:00-24:00; Sa-Su 10:00-24:00"}}, {"type": "node", "id": 1468105698, "lat": 55.6705967, "lon": 12.5576296, "tags": {"amenity": "bar", "fvst:navnelbnr": "113893", "layer": "-1", "name": "Thai-Corner"}}, {"type": "node", "id": 1473047867, "lat": 55.6991498, "lon": 12.5539607, "tags": {"amenity": "bar", "name": "Tagensborg", "wheelchair": "no"}}, {"type": "node", "id": 1473374585, "lat": 55.6462515, "lon": 12.5244533, "tags": {"amenity": "pub", "name": "Bettys Bodega", "source": "local knowledge"}}, {"type": "node", "id": 1473380726, "lat": 55.6524141, "lon": 12.5355053, "tags": {"amenity": "pub", "name": "Syd Vest"}}, {"type": "node", "id": 1478802918, "lat": 55.6819408, "lon": 12.5634756, "tags": {"amenity": "pub", "fvst:navnelbnr": "117246", "name": "Caf\u00e9 Stjernen"}}, {"type": "node", "id": 1481429241, "lat": 55.678645, "lon": 12.5739838, "tags": {"amenity": "pub", "fvst:navnelbnr": "717176", "name": "The Irish Rover"}}, {"type": "node", "id": 1497198145, "lat": 55.681091, "lon": 12.583869, "tags": {"amenity": "bar", "name": "Fat Tuesday Bar"}}, {"type": "node", "id": 1497198641, "lat": 55.6812131, "lon": 12.5837207, "tags": {"amenity": "bar", "fvst:navnelbnr": "526791", "name": "Pal\u00e6 Bar"}}, {"type": "node", "id": 1497201304, "lat": 55.6817658, "lon": 12.5837032, "tags": {"amenity": "bar", "fvst:navnelbnr": "119026", "name": "Da Vinci"}}, {"type": "node", "id": 1570894012, "lat": 55.6665986, "lon": 12.552071, "tags": {"amenity": "pub", "fvst:name": "High Q Caf\u00e9 & Bar", "fvst:navnelbnr": "115507", "name": "High Q", "note": "High Q har ikke faste \u00e5bningstider, men er \u00e5ben alle ugens dage. P\u00e5 High Q kan du betale med MobilePay (+45 26 20 05 57)", "phone": "+45 33 31 40 80", "website": "http://www.highq.dk/"}}, {"type": "node", "id": 1584391960, "lat": 55.6972417, "lon": 12.5446162, "tags": {"amenity": "bar", "name": "Dispensary", "source": "https://www.openstreetmap.org/note/1474593"}}, {"type": "node", "id": 1590786486, "lat": 55.6780616, "lon": 12.5824889, "tags": {"amenity": "pub", "fvst:navnelbnr": "111238", "name": "Cafe Nick"}}, {"type": "node", "id": 1590836108, "lat": 55.6776068, "lon": 12.5812287, "tags": {"amenity": "nightclub", "name": "Copenhagen Coyote Club"}}, {"type": "node", "id": 1591124412, "lat": 55.682421, "lon": 12.571505, "tags": {"amenity": "pub", "fvst:navnelbnr": "551146", "name": "N\u00f8rreport Bodega"}}, {"type": "node", "id": 1595066426, "lat": 55.6644556, "lon": 12.598079, "tags": {"amenity": "pub", "fvst:navnelbnr": "733896", "name": "Lassie Bar"}}, {"type": "node", "id": 1596728869, "lat": 55.678048, "lon": 12.568277, "tags": {"amenity": "pub", "fvst:navnelbnr": "119380", "name": "Kr\u00f8lben", "wheelchair": "no"}}, {"type": "node", "id": 1596733408, "lat": 55.6781756, "lon": 12.5686176, "tags": {"amenity": "bar", "fvst:navnelbnr": "671045", "name": "Masken Bar"}}, {"type": "node", "id": 1596735570, "lat": 55.6783036, "lon": 12.568967, "tags": {"amenity": "bar", "fvst:navnelbnr": "501284", "name": "The Log Lady", "wheelchair": "no"}}, {"type": "node", "id": 1596792063, "lat": 55.6779345, "lon": 12.5711036, "tags": {"amenity": "bar", "fvst:navnelbnr": "119439", "name": "Retro Disco"}}, {"type": "node", "id": 1596798602, "lat": 55.6782643, "lon": 12.5715889, "tags": {"amenity": "bar", "fvst:navnelbnr": "125267", "name": "Miami"}}, {"type": "node", "id": 1596800559, "lat": 55.6779148, "lon": 12.5717929, "tags": {"amenity": "pub", "name": "Victoria"}}, {"type": "node", "id": 1596926620, "lat": 55.6819404, "lon": 12.5589229}, {"type": "node", "id": 1596926623, "lat": 55.6820651, "lon": 12.5592297}, {"type": "node", "id": 1596926625, "lat": 55.6819494, "lon": 12.558929}, {"type": "node", "id": 1596926627, "lat": 55.6819132, "lon": 12.5589868}, {"type": "node", "id": 1596926629, "lat": 55.6820846, "lon": 12.5591108}, {"type": "node", "id": 1596926634, "lat": 55.6818048, "lon": 12.5594749}, {"type": "node", "id": 1596926641, "lat": 55.6820871, "lon": 12.5590707}, {"type": "node", "id": 1596926642, "lat": 55.6817906, "lon": 12.5592783}, {"type": "node", "id": 1596926652, "lat": 55.6817978, "lon": 12.5592897}, {"type": "node", "id": 1596926654, "lat": 55.6820368, "lon": 12.5589599}, {"type": "node", "id": 1596926655, "lat": 55.6819164, "lon": 12.5595098}, {"type": "node", "id": 1596926658, "lat": 55.6820192, "lon": 12.5589581}, {"type": "node", "id": 1596926659, "lat": 55.6819335, "lon": 12.5595376}, {"type": "node", "id": 1596926661, "lat": 55.6820737, "lon": 12.5591584}, {"type": "node", "id": 1596926662, "lat": 55.68187, "lon": 12.559553}, {"type": "node", "id": 1596926675, "lat": 55.6820538, "lon": 12.5592123}, {"type": "node", "id": 1596926677, "lat": 55.6820842, "lon": 12.559041}, {"type": "node", "id": 1596926682, "lat": 55.6818009, "lon": 12.5594542}, {"type": "node", "id": 1596926684, "lat": 55.6817679, "lon": 12.5593603}, {"type": "node", "id": 1596926690, "lat": 55.6820036, "lon": 12.5589422}, {"type": "node", "id": 1596926694, "lat": 55.6819994, "lon": 12.55896}, {"type": "node", "id": 1596926702, "lat": 55.6820526, "lon": 12.5589693}, {"type": "node", "id": 1596926707, "lat": 55.6819226, "lon": 12.5590057}, {"type": "node", "id": 1596926718, "lat": 55.6820623, "lon": 12.5589865}, {"type": "node", "id": 1596926726, "lat": 55.6818291, "lon": 12.5595346}, {"type": "node", "id": 1596926728, "lat": 55.6818467, "lon": 12.5595525}, {"type": "node", "id": 1596926732, "lat": 55.6817632, "lon": 12.5593467}, {"type": "node", "id": 1596926734, "lat": 55.6818161, "lon": 12.5595114}, {"type": "node", "id": 1596952604, "lat": 55.681803, "lon": 12.5594084}, {"type": "node", "id": 1596952636, "lat": 55.6817886, "lon": 12.5594371}, {"type": "node", "id": 1608081601, "lat": 55.6784852, "lon": 12.573105}, {"type": "node", "id": 1608081603, "lat": 55.6785306, "lon": 12.5733308}, {"type": "node", "id": 1608081604, "lat": 55.6783977, "lon": 12.5732362}, {"type": "node", "id": 1608081608, "lat": 55.6784672, "lon": 12.5732982}, {"type": "node", "id": 1608081609, "lat": 55.6785878, "lon": 12.573163}, {"type": "node", "id": 1608081611, "lat": 55.6785254, "lon": 12.5732329}, {"type": "node", "id": 1608081614, "lat": 55.6785281, "lon": 12.5726901}, {"type": "node", "id": 1608081618, "lat": 55.6784287, "lon": 12.5733391}, {"type": "node", "id": 1608081620, "lat": 55.6783866, "lon": 12.573069}, {"type": "node", "id": 1608081622, "lat": 55.6784362, "lon": 12.5728125}, {"type": "node", "id": 1608081626, "lat": 55.6784258, "lon": 12.5729599}, {"type": "node", "id": 1608081627, "lat": 55.678339, "lon": 12.573122}, {"type": "node", "id": 1608081632, "lat": 55.6784506, "lon": 12.5734979}, {"type": "node", "id": 1608081633, "lat": 55.6784622, "lon": 12.5731333}, {"type": "node", "id": 1608092826, "lat": 55.6924625, "lon": 12.5875083, "tags": {"amenity": "pub", "fvst:navnelbnr": "111225", "name": "Cykelstalden"}}, {"type": "node", "id": 1608797133, "lat": 55.6797778, "lon": 12.584715, "tags": {"amenity": "pub", "contact:email": "hviids@mail.tele.dk", "fvst:navnelbnr": "114330", "name": "Hviids Vinstue", "opening_hours": "Mo-Th 10:00-01:00, Fr-Sa 10:00-02:00, Su 10:00-20:00", "phone": "+45 33151064", "smoking": "isolated", "website": "http://www.hviidsvinstue.dk/"}}, {"type": "node", "id": 1608797729, "lat": 55.6798736, "lon": 12.584785, "tags": {"amenity": "nightclub", "name": "Beverly Hills"}}, {"type": "node", "id": 1608830245, "lat": 55.6795446, "lon": 12.583315, "tags": {"amenity": "nightclub", "name": "Karel van Mander", "wikidata": "Q12321297", "wikipedia": "da:Karel van Mander (natklub)"}}, {"type": "node", "id": 1608833081, "lat": 55.6797103, "lon": 12.5842835, "tags": {"amenity": "bar", "fvst:navnelbnr": "112724", "name": "Kongens Bar"}}, {"type": "node", "id": 1612952523, "lat": 55.6751773, "lon": 12.572308, "tags": {"amenity": "bar", "name": "Foster's"}}, {"type": "node", "id": 1612953780, "lat": 55.6754919, "lon": 12.5731153, "tags": {"amenity": "bar", "name": "Icebar Copenhagen"}}, {"type": "node", "id": 1612954850, "lat": 55.6756583, "lon": 12.5735337, "tags": {"amenity": "bar", "name": "Mojo Blues Bar", "smoking": "yes", "wheelchair": "yes"}}, {"type": "node", "id": 1613007542, "lat": 55.6766459, "lon": 12.5745289, "tags": {"amenity": "pub", "fvst:navnelbnr": "646121", "name": "Galathea Kroen"}}, {"type": "node", "id": 1613037537, "lat": 55.676387, "lon": 12.571508, "tags": {"amenity": "pub", "name": "Never Mind", "opening_hours": "Mo-Su 14:00-02:00"}}, {"type": "node", "id": 1613051108, "lat": 55.6767102, "lon": 12.5721156, "tags": {"amenity": "pub", "fvst:navnelbnr": "114019", "name": "Centralhj\u00f8rnet", "source": "survey", "website": "http://centralhjornet.dk/", "wheelchair": "no"}}, {"type": "node", "id": 1616786814, "lat": 55.6813135, "lon": 12.5642273, "tags": {"amenity": "pub", "fvst:navnelbnr": "113995", "internet_access": "wlan", "internet_access:fee": "no", "name": "Cafe Globen", "website": "http://www.cafegloben.dk"}}, {"type": "node", "id": 1619265824, "lat": 55.6668132, "lon": 12.5048845, "tags": {"amenity": "pub", "name": "Nanok Bar", "phone": "+45 36305846", "source": "Kaart Ground Survey 2017"}}, {"type": "node", "id": 1628406934, "lat": 55.681166, "lon": 12.580734, "tags": {"amenity": "bar", "fvst:navnelbnr": "112508", "name": "Wessels Kro", "smoking": "separated"}}, {"type": "node", "id": 1628427956, "lat": 55.6819319, "lon": 12.5801525, "tags": {"amenity": "bar", "fvst:navnelbnr": "119817", "name": "R Vinbar"}}, {"type": "node", "id": 1628470253, "lat": 55.6816239, "lon": 12.5793588, "tags": {"amenity": "pub", "fvst:navnelbnr": "112691", "name": "Byens Kro"}}, {"type": "node", "id": 1628838243, "lat": 55.6799727, "lon": 12.5746625, "tags": {"amenity": "bar", "name": "Surf Bar"}}, {"type": "node", "id": 1629984199, "lat": 55.6806961, "lon": 12.5884807, "tags": {"amenity": "bar", "fvst:navnelbnr": "110444", "name": "Hong Kong"}}, {"type": "node", "id": 1629986053, "lat": 55.6806992, "lon": 12.5885806, "tags": {"amenity": "nightclub", "name": "Copenhagen Redlight"}}, {"type": "node", "id": 1629995901, "lat": 55.6803457, "lon": 12.5897588, "tags": {"amenity": "pub", "fvst:navnelbnr": "114345", "name": "Hyttefadet", "outdoor_seating": "yes"}}, {"type": "node", "id": 1629996639, "lat": 55.6803121, "lon": 12.5898879, "tags": {"amenity": "pub", "fvst:navnelbnr": "111868", "name": "Skipperkroen"}}, {"type": "node", "id": 1629999347, "lat": 55.6802753, "lon": 12.5900424, "tags": {"amenity": "pub", "fvst:navnelbnr": "114540", "name": "Fisken"}}, {"type": "node", "id": 1630010986, "lat": 55.679965, "lon": 12.591233, "tags": {"amenity": "pub", "fvst:navnelbnr": "112889", "name": "McJoys"}}, {"type": "node", "id": 1630068073, "lat": 55.677019, "lon": 12.589749, "tags": {"amenity": "pub", "fvst:navnelbnr": "530670", "name": "Cafe Malm\u00f8"}}, {"type": "node", "id": 1631113182, "lat": 55.7072451, "lon": 12.5539256}, {"type": "node", "id": 1631113197, "lat": 55.7074506, "lon": 12.5538344}, {"type": "node", "id": 1631113233, "lat": 55.7072814, "lon": 12.5532228}, {"type": "node", "id": 1631113245, "lat": 55.7071151, "lon": 12.5534106}, {"type": "node", "id": 1654318708, "lat": 55.708759, "lon": 12.5233541}, {"type": "node", "id": 1654318710, "lat": 55.7088472, "lon": 12.5234203}, {"type": "node", "id": 1654318712, "lat": 55.7086851, "lon": 12.5236641}, {"type": "node", "id": 1654318718, "lat": 55.7087765, "lon": 12.5237348}, {"type": "node", "id": 1655800627, "lat": 55.6665369, "lon": 12.5176996, "tags": {"amenity": "pub", "name": "Giniz"}}, {"type": "node", "id": 1657479282, "lat": 55.6657524, "lon": 12.5134178, "tags": {"amenity": "pub", "fvst:navnelbnr": "116054", "name": "Valby Kro"}}, {"type": "node", "id": 1698507160, "lat": 55.6614198, "lon": 12.4633672, "tags": {"amenity": "pub", "fvst:navnelbnr": "94347", "name": "Reb\u00e6k Bodega", "operator": "reb\u00e6k bodega", "phone": "+45 36754564", "website": "http://www.rebaekbodega.dk", "wheelchair": "no"}}, {"type": "node", "id": 1698620145, "lat": 55.7100251, "lon": 12.5172667, "tags": {"amenity": "pub", "name": "Bar"}}, {"type": "node", "id": 1704926813, "lat": 55.6257024, "lon": 12.6248334, "tags": {"amenity": "pub", "name": "Graceland"}}, {"type": "node", "id": 1704944962, "lat": 55.6322697, "lon": 12.6209147, "tags": {"amenity": "pub", "name": "Skipperstuen"}}, {"type": "node", "id": 1714804136, "lat": 55.6621642, "lon": 12.5221189, "tags": {"amenity": "pub", "fvst:navnelbnr": "117636", "name": "Den Gyldenblonde"}}, {"type": "node", "id": 1714804167, "lat": 55.6652957, "lon": 12.567323, "tags": {"amenity": "nightclub"}}, {"type": "node", "id": 1735202458, "lat": 55.6574013, "lon": 12.6208203, "tags": {"amenity": "pub", "fvst:navnelbnr": "711076", "name": "Caf\u00e9 V\u00e5ren"}}, {"type": "node", "id": 1775543925, "lat": 55.6901037, "lon": 12.5624942, "tags": {"amenity": "bar", "fvst:name": "THE BARKING DOG TRADING COMPANY", "fvst:navnelbnr": "509410", "name": "The Barking Dog", "opening_hours": "Su 16:00-24:00; Tu-Th 16:00-24:00, Fr-Sa 16:00-02:00", "phone": "+45 35361600", "source": "survey", "website": "http://www.thebarkingdog.dk/"}}, {"type": "node", "id": 1778854834, "lat": 55.6891027, "lon": 12.5624146, "tags": {"amenity": "bar", "fvst:navnelbnr": "713399", "name": "Kind of Blue", "opening_hours": "Mo-We 16:00-24:00, Th-Sa 16:00-02:00, Su off", "source": "survey", "website": "http://kindofblue.dk/", "wheelchair": "no"}}, {"type": "node", "id": 1785099187, "lat": 55.6724284, "lon": 12.5036596, "tags": {"amenity": "pub", "fvst:navnelbnr": "553640", "name": "Cafe Lammet"}}, {"type": "node", "id": 1793455790, "lat": 55.6795068, "lon": 12.550866}, {"type": "node", "id": 1793455792, "lat": 55.6795559, "lon": 12.5506512}, {"type": "node", "id": 1793455793, "lat": 55.6798375, "lon": 12.5508959}, {"type": "node", "id": 1793455794, "lat": 55.6798015, "lon": 12.5510535}, {"type": "node", "id": 1793455797, "lat": 55.6796592, "lon": 12.5509755}, {"type": "node", "id": 1822849398, "lat": 55.6583402, "lon": 12.6028151, "tags": {"amenity": "pub", "fvst:navnelbnr": "114811", "name": "Caf\u00e9 Lystig", "website": "https://www.facebook.com/pages/Cafe-Lystig/263383627062137"}}, {"type": "node", "id": 1822850115, "lat": 55.6577925, "lon": 12.6026434, "tags": {"amenity": "pub", "fvst:name": "REST TINGKROEN V/DITLEV WEIH", "fvst:navnelbnr": "112953", "name": "Ting Kroen"}}, {"type": "node", "id": 1828989455, "lat": 55.693679, "lon": 12.5427877, "tags": {"alt_name": "Terroiristen vinbar", "amenity": "bar", "fvst:navnelbnr": "118574", "name": "Terroiristen"}}, {"type": "node", "id": 1830049045, "lat": 55.6900156, "lon": 12.5584101, "tags": {"amenity": "bar", "fvst:navnelbnr": "126482", "name": "Malbeck Vinoteria", "opening_hours": "Mo-Th 11:30-00:00; Fr-Sa 11:30-01:30; Su 11:30-00:00", "website": "http://www.malbeck.dk"}}, {"type": "node", "id": 1841849012, "lat": 55.6784288, "lon": 12.5003303, "tags": {"amenity": "pub", "fvst:navnelbnr": "111205", "name": "Domdal Bodega"}}, {"type": "node", "id": 1862807125, "lat": 55.6537296, "lon": 12.590686, "tags": {"amenity": "bar", "name": "Hatten Bar"}}, {"type": "node", "id": 1890254778, "lat": 55.7069399, "lon": 12.5645691, "tags": {"amenity": "pub", "fvst:navnelbnr": "110438", "name": "Caf\u00e9 Sams\u00f8", "website": "http://www.xn--cafesams-d5a.dk/"}}, {"type": "node", "id": 1905725548, "lat": 55.6966311, "lon": 12.5808134, "tags": {"amenity": "pub", "name": "Femmeren Jazzv\u00e6rtshus", "opening_hours": "16:00-01:00, Sa 15:00-01:00, Su 15:00-24:00", "phone": "+45 35261958", "smoking": "yes", "website": "http://www.femmeren.dk/"}}, {"type": "node", "id": 1923889082, "lat": 55.679664, "lon": 12.5509546}, {"type": "node", "id": 1923889087, "lat": 55.6797002, "lon": 12.5507971}, {"type": "node", "id": 1923889089, "lat": 55.6797085, "lon": 12.5507609}, {"type": "node", "id": 1937898198, "lat": 55.6861357, "lon": 12.551044, "tags": {"amenity": "pub", "name": "Valdemar Atterdag"}}, {"type": "node", "id": 1982704546, "lat": 55.7029749, "lon": 12.5372772}, {"type": "node", "id": 1982704551, "lat": 55.7029776, "lon": 12.5374339}, {"type": "node", "id": 1982704584, "lat": 55.7031012, "lon": 12.5372703}, {"type": "node", "id": 1982704591, "lat": 55.7031952, "lon": 12.5372651}, {"type": "node", "id": 1982704593, "lat": 55.7031979, "lon": 12.5374218}, {"type": "node", "id": 1998390325, "lat": 55.6864045, "lon": 12.5874143, "tags": {"amenity": "pub", "fvst:navnelbnr": "735533", "name": "Caf\u00e9 Borgerly", "wheelchair": "no"}}, {"type": "node", "id": 2008179830, "lat": 55.6859481, "lon": 12.5523945, "tags": {"amenity": "bar", "fvst:navnelbnr": "509492", "name": "Dupong", "outdoor_seating": "no", "smoking": "no"}}, {"type": "node", "id": 2014805166, "lat": 55.6858864, "lon": 12.5523274, "tags": {"amenity": "bar", "name": "\u00d8lsnedkeren", "website": "http://olsnedkeren.dk/"}}, {"type": "node", "id": 2020615652, "lat": 55.668704, "lon": 12.5596747, "tags": {"addr:housenumber": "19", "addr:postcode": "1711", "addr:street": "Fl\u00e6sketorvet", "amenity": "bar", "fvst:navnelbnr": "118305", "name": "Bakken", "opening_hours": "Th 21:00-05:00; Fr-Sa 20:00-05:00", "website": "http://bakkenkbh.dk"}}, {"type": "node", "id": 2036051372, "lat": 55.6818289, "lon": 12.5633186, "tags": {"amenity": "bar", "internet_access": "wlan", "name": "Gorki", "opening_hours": "Tu-Sa 15:00-24:00", "phone": "+45 28 32 52 28"}}, {"type": "node", "id": 2093930247, "lat": 55.6238369, "lon": 12.6096083}, {"type": "node", "id": 2093930248, "lat": 55.6239973, "lon": 12.6101459}, {"type": "node", "id": 2093930249, "lat": 55.6244236, "lon": 12.6102113}, {"type": "node", "id": 2093930250, "lat": 55.624217, "lon": 12.6103926}, {"type": "node", "id": 2093930251, "lat": 55.6244083, "lon": 12.6114183}, {"type": "node", "id": 2093930252, "lat": 55.6241163, "lon": 12.6102051}, {"type": "node", "id": 2093930253, "lat": 55.6244531, "lon": 12.6115644}, {"type": "node", "id": 2093930254, "lat": 55.6240845, "lon": 12.6101458}, {"type": "node", "id": 2093930255, "lat": 55.6239857, "lon": 12.6112227}, {"type": "node", "id": 2093930256, "lat": 55.6240885, "lon": 12.6113945}, {"type": "node", "id": 2093930257, "lat": 55.6242078, "lon": 12.6112185}, {"type": "node", "id": 2093930258, "lat": 55.624104, "lon": 12.6118448}, {"type": "node", "id": 2093930259, "lat": 55.6238478, "lon": 12.6112199}, {"type": "node", "id": 2093930260, "lat": 55.6238081, "lon": 12.6116869}, {"type": "node", "id": 2093930261, "lat": 55.6241034, "lon": 12.6119958}, {"type": "node", "id": 2093930262, "lat": 55.6238, "lon": 12.6119754}, {"type": "node", "id": 2093930263, "lat": 55.6238513, "lon": 12.6109006}, {"type": "node", "id": 2093930265, "lat": 55.6244164, "lon": 12.6112685}, {"type": "node", "id": 2093930266, "lat": 55.6240856, "lon": 12.6115574}, {"type": "node", "id": 2093930267, "lat": 55.6240854, "lon": 12.6100461}, {"type": "node", "id": 2093930268, "lat": 55.6241175, "lon": 12.6101025}, {"type": "node", "id": 2093930269, "lat": 55.6240321, "lon": 12.6100455}, {"type": "node", "id": 2093930270, "lat": 55.6241344, "lon": 12.6097604}, {"type": "node", "id": 2093930271, "lat": 55.6239896, "lon": 12.6109026}, {"type": "node", "id": 2093930272, "lat": 55.6243766, "lon": 12.6103932}, {"type": "node", "id": 2093930273, "lat": 55.6240341, "lon": 12.6099003}, {"type": "node", "id": 2093930274, "lat": 55.6238336, "lon": 12.6098919}, {"type": "node", "id": 2093930275, "lat": 55.6240141, "lon": 12.6115275}, {"type": "node", "id": 2093930277, "lat": 55.6240109, "lon": 12.611696}, {"type": "node", "id": 2093930278, "lat": 55.6245228, "lon": 12.6097805}, {"type": "node", "id": 2093930279, "lat": 55.6240015, "lon": 12.6115276}, {"type": "node", "id": 2093930280, "lat": 55.6241338, "lon": 12.6095722}, {"type": "node", "id": 2093930281, "lat": 55.624519, "lon": 12.6101168}, {"type": "node", "id": 2093930282, "lat": 55.6244478, "lon": 12.6118564}, {"type": "node", "id": 2102142194, "lat": 55.7049052, "lon": 12.5776539, "tags": {"amenity": "bar", "fvst:navnelbnr": "573060", "name": "TAP10", "opening_hours": "Tu-Th 14:00-00:00, Fr-Sa 14:00-02:00; week 30-31 off", "outdoor_seating": "yes", "phone": "+45 61724487", "smoking": "no", "website": "http://bunkerbeer.dk/14/index.php/da/olbaren-tap10", "wheelchair": "no"}}, {"type": "node", "id": 2102146391, "lat": 55.7058735, "lon": 12.5785303, "tags": {"amenity": "bar", "fvst:navnelbnr": "113135", "name": "X-pressen", "opening_hours": "Mo-We 10:00-22:00, Th-Fr 10:00-01:00, Sa 12:00-22:00, Su 12:00-20:00", "smoking": "yes", "wheelchair": "no"}}, {"type": "node", "id": 2120271818, "lat": 55.7063599, "lon": 12.5833171, "tags": {"amenity": "pub", "fvst:fixme": "fvst:no_pos", "fvst:navnelbnr": "529031", "name": "Bassinet", "opening_hours": "Mo-Su,PH 09:30-24:00", "smoking": "yes", "source": "Fugro (2005)", "wheelchair": "no"}}, {"type": "node", "id": 2120271819, "lat": 55.7068296, "lon": 12.5857491, "tags": {"amenity": "pub", "name": "Frihavnskroen", "opening_hours": "Mo-We 12:00-22:00; Th 12:00-24:00; Fr 12:00-02:00; Sa 11:00-02:00; Su 11:00-20:00", "smoking": "yes", "source": "Fugro (2005)", "wheelchair": "no"}}, {"type": "node", "id": 2121839393, "lat": 55.6751567, "lon": 12.5476811, "tags": {"amenity": "pub", "contact:email": "vinstue90@mail.dk", "fvst:navnelbnr": "112834", "name": "Vinstue 90", "opening_hours": "Su-We 11:00-01:00, Th-Sa 11:00-02:00", "phone": "+45 33318490", "smoking": "yes", "source": "Fugro (2005)", "website": "http://www.vinstue90.dk/", "wheelchair": "no"}}, {"type": "node", "id": 2121853897, "lat": 55.6771423, "lon": 12.5712944, "tags": {"amenity": "bar", "botme": "yes", "fvst:navnelbnr": "122422", "name": "Billy Booze", "opening_hours": "20:00-5:00", "smoking": "isolated", "website": "http://www.billybooze.dk/"}}, {"type": "node", "id": 2144156629, "lat": 55.6573694, "lon": 12.6036199, "tags": {"amenity": "pub", "fvst:navnelbnr": "669978", "name": "Cafe Sundbyvester", "website": "http://cafesundbyvester.dk/"}}, {"type": "node", "id": 2156654226, "lat": 55.6744834, "lon": 12.5512432, "tags": {"amenity": "bar", "email": "amigobar@os.dk", "fvst:navnelbnr": "111881", "name": "Amigo Bar", "phone": "+45 3321 4915", "smoking": "yes"}}, {"type": "node", "id": 2163836323, "lat": 55.6883059, "lon": 12.5598417, "tags": {"amenity": "pub", "fvst:navnelbnr": "113804", "name": "Understellet", "opening_hours": "Mo-Su 17:00-05:00", "phone": "+45 35370470", "smoking": "isolated", "website": "http://www.understellet.dk/", "wheelchair": "no"}}, {"type": "node", "id": 2228261470, "lat": 55.6914833, "lon": 12.5599114, "tags": {"amenity": "bar", "email": "info@globalcph.dk", "name": "Global - World Music Venue", "phone": "+45 50 58 08 41", "website": "http://globalcph.dk/", "wheelchair": "yes", "wheelchair:description": "permanent ramp at entrance and dedicated toilet"}}, {"type": "node", "id": 2229062918, "lat": 55.6946671, "lon": 12.5432048, "tags": {"amenity": "bar", "food": "yes", "fvst:navnelbnr": "522017", "name": "Mikkeller & Friends", "opening_hours": "Mo-We 14:00-00:00; Th-Fr 14:00-02:00; Sa 12:00-02:00; Su 14:00-00:00", "website": "https://m.facebook.com/mikkellerandfriends/", "wheelchair": "no"}}, {"type": "node", "id": 2338189050, "lat": 55.6733572, "lon": 12.5517715}, {"type": "node", "id": 2338189058, "lat": 55.6732491, "lon": 12.5516705}, {"type": "node", "id": 2338189065, "lat": 55.6732082, "lon": 12.5517849}, {"type": "node", "id": 2338189077, "lat": 55.6733527, "lon": 12.5516642}, {"type": "node", "id": 2343690852, "lat": 55.6962633, "lon": 12.5750656, "tags": {"amenity": "bar", "fvst:navnelbnr": "658922", "name": "S\u00f8ernes \u00d8lbar", "smoking": "no", "website": "http://soernesoelbar.dk"}}, {"type": "node", "id": 2346118016, "lat": 55.686423, "lon": 12.5839726, "tags": {"amenity": "nightclub", "fax": "+45 3332 5054", "fvst:navnelbnr": "115800", "name": "Cocktail Box", "opening_hours": "Fr-Sa 21:00+", "operator": "Culture Box", "phone": "+45 33325050", "website": "http://culture-box.com/"}}, {"type": "node", "id": 2351952406, "lat": 55.6812099, "lon": 12.5841806, "tags": {"amenity": "bar", "name": "Candeur - Dessert & Cocktail Bar", "start_date": "2013-06-19"}}, {"type": "node", "id": 2468761200, "lat": 55.687776, "lon": 12.5596239, "tags": {"amenity": "bar", "fvst:navnelbnr": "635947", "internet_access": "wlan", "name": "Kimia"}}, {"type": "node", "id": 2504855772, "lat": 55.6801699, "lon": 12.5813181, "tags": {"amenity": "bar", "fvst:navnelbnr": "662067", "name": "Bar O", "operator": "Le Gammeltoft & Peter Visti", "start_date": "2013-10-25"}}, {"type": "node", "id": 2523038593, "lat": 55.6777292, "lon": 12.5784331, "tags": {"amenity": "bar", "cuisine": "chinese", "fvst:navnelbnr": "543600", "name": "Madam Chu's", "opening_hours": "We-Sa 18:00+", "website": "http://madamchu.dk"}}, {"type": "node", "id": 2543973526, "lat": 55.6801316, "lon": 12.5761475, "tags": {"age_limit": "23", "amenity": "bar", "fvst:fixme": "fvst:no_pos", "fvst:navnelbnr": "732139", "name": "The Jane", "note": "15% discount on all cocktails!", "opening_hours": "Th 20:00+; Fr 16:00+; Sa 20:00+", "payment:bitcoin": "yes", "phone": "+45 69 69 60 00", "website": "http://thejane.dk", "yelp": "http://www.yelp.com/biz/the-jane-k%C3%B8benhavn-k"}}, {"type": "node", "id": 2595672481, "lat": 55.6653285, "lon": 12.4737454, "tags": {"amenity": "pub", "fvst:navnelbnr": "97371", "name": "Peer's pub"}}, {"type": "node", "id": 2599935006, "lat": 55.6766934, "lon": 12.5766194, "tags": {"amenity": "bar", "facebook": "https://www.facebook.com/rubykbh", "name": "Ruby", "opening_hours": "Mo-Sa 16:00-02:00, Su 18:00-02:00", "phone": "+45 33931203", "website": "http://rby.dk"}}, {"type": "node", "id": 2601269019, "lat": 55.6779325, "lon": 12.5921381, "tags": {"amenity": "bar", "amenity_1": "restaurant", "email": "contact@thestandardcph.dk", "name": "The Standard", "phone": "+45 72 14 88 08", "toilets:wheelchair": "yes", "website": "http://thestandardcph.dk", "wheelchair": "yes"}}, {"type": "node", "id": 2611535207, "lat": 55.6783219, "lon": 12.5863873, "tags": {"amenity": "bar", "name": "Holmens Kanal Cocktailbar"}}, {"type": "node", "id": 2638246419, "lat": 55.7075999, "lon": 12.5502726}, {"type": "node", "id": 2638246425, "lat": 55.7073679, "lon": 12.5505712}, {"type": "node", "id": 2638246427, "lat": 55.7074419, "lon": 12.5507525}, {"type": "node", "id": 2638246430, "lat": 55.707674, "lon": 12.550454}, {"type": "node", "id": 2773990127, "lat": 55.6576981, "lon": 12.6094634, "tags": {"amenity": "nightclub", "name": "Amager Bio", "smoking": "no", "website": "http://amagerbio.dk/", "wikidata": "Q12301215", "wikipedia": "da:Amager Bio"}}, {"type": "node", "id": 2837243901, "lat": 55.6781561, "lon": 12.5698566, "tags": {"amenity": "bar", "name": "Floss", "wheelchair": "limited"}}, {"type": "node", "id": 2855855758, "lat": 55.676199, "lon": 12.571519, "tags": {"amenity": "pub", "fvst:navnelbnr": "543684", "name": "Taphouse", "opening_hours": "Mo 15:00-24:00, Tu-Th 15:00-02:00, Fr 15:00-03:00, Sa 12:00-03:00, Su 12:00-24:00", "smoking": "no", "website": "http://taphouse.dk"}}, {"type": "node", "id": 2878676361, "lat": 55.6272384, "lon": 12.4793553, "tags": {"amenity": "pub", "name": "Nekudemus Bodega", "source": "local knowledge"}}, {"type": "node", "id": 3076610246, "lat": 55.654656, "lon": 12.4891537, "tags": {"amenity": "pub", "name": "Centerpubben"}}, {"type": "node", "id": 3106600429, "lat": 55.6626284, "lon": 12.6043899, "tags": {"amenity": "pub", "fvst:navnelbnr": "112175", "name": "Amagerhylden", "phone": "+45 32542800", "website": "http://www.amagerhylden.dk/"}}, {"type": "node", "id": 3286415949, "lat": 55.6738535, "lon": 12.5437949, "tags": {"amenity": "pub", "fvst:navnelbnr": "570657", "name": "Frederik VI", "opening_hours": "Su-Th 11:00-01:00, Fr-Sa 11:00-02:00", "smoking": "no", "website": "http://www.frederik-vi.dk/"}}, {"type": "node", "id": 3312007936, "lat": 55.673198, "lon": 12.5516735}, {"type": "node", "id": 3312007937, "lat": 55.673198, "lon": 12.5517833}, {"type": "node", "id": 3372385620, "lat": 55.684032, "lon": 12.5674679, "tags": {"amenity": "pub", "fvst:navnelbnr": "515180", "name": "S\u00f8ren Ged's Garage", "opening_hours": "Mo-We 11:00-02:00,Th-Sa 11:00-05:00, Su 11:00-02:00", "website": "https://www.s\u00f8rengedsgarage.dk/", "wheelchair": "no"}}, {"type": "node", "id": 3372385621, "lat": 55.6846127, "lon": 12.5675815, "tags": {"amenity": "pub", "name": "Barkowski", "opening_hours": "Tu-We 16:00-00:0,Th 14:00-02:00,Fr 14:00-05:00, Sa 13:00-05:00, Su 14:00-02:00", "phone": "+45 30 66 85 34"}}, {"type": "node", "id": 3377857300, "lat": 55.7086915, "lon": 12.5236691}, {"type": "node", "id": 3381640183, "lat": 55.7024728, "lon": 12.5738434, "tags": {"amenity": "bar", "fvst:navnelbnr": "572952", "name": "The Ballroom", "website": "http://www.theballroom.dk/"}}, {"type": "node", "id": 3404320523, "lat": 55.67991, "lon": 12.52178, "tags": {"amenity": "bar", "name": "Caf\u00e96'eren", "smoking": "yes"}}, {"type": "node", "id": 3404321016, "lat": 55.67744, "lon": 12.5699, "tags": {"amenity": "pub", "fvst:navnelbnr": "519972", "name": "Musen & Elefanten", "opening_hours": "Th 16:00-04:00; Fr-Sa 16:00-05:00", "payment:bitcoin": "yes", "website": "http://musen-og-elefanten.dk/"}}, {"type": "node", "id": 3404321198, "lat": 55.70653, "lon": 12.53707, "tags": {"amenity": "pub", "name": "Pub Fluesm\u00e6kkeren"}}, {"type": "node", "id": 3404321298, "lat": 55.67125, "lon": 12.56044, "tags": {"amenity": "pub", "name": "Spunk Bar"}}, {"type": "node", "id": 3404321338, "lat": 55.67592, "lon": 12.56586, "tags": {"amenity": "pub", "fvst:navnelbnr": "735355", "name": "The Shamrock Inn", "website": "http://theshamrockinn.dk/"}}, {"type": "node", "id": 3404342077, "lat": 55.6695297, "lon": 12.5582508, "tags": {"amenity": "pub", "fvst:navnelbnr": "556214", "name": "De Fire \u00c5rstider", "wheelchair": "no"}}, {"type": "node", "id": 3404342223, "lat": 55.6740948, "lon": 12.5499759, "tags": {"amenity": "bar", "fvst:navnelbnr": "119665", "name": "Falernum", "wheelchair": "no"}}, {"type": "node", "id": 3404342229, "lat": 55.67499, "lon": 12.51931, "tags": {"amenity": "pub", "name": "Fasan Bodega (Gravens Rand)", "opening_hours": "11:00-02:00", "smoking": "Everywhere"}}, {"type": "node", "id": 3412207297, "lat": 55.6768096, "lon": 12.5403322, "tags": {"amenity": "bar", "fvst:navnelbnr": "112313", "name": "Hj\u00f8rnet", "smoking": "outside", "wheelchair": "no"}}, {"type": "node", "id": 3418798611, "lat": 55.6497326, "lon": 12.4907666, "tags": {"amenity": "pub", "fvst:navnelbnr": "109634", "name": "Harrestrup Kro"}}, {"type": "node", "id": 3473014569, "lat": 55.6876177, "lon": 12.5469304, "tags": {"amenity": "bar", "name": "K\u00f8lsters Tolv Haner", "name:es": "K\u00f8lsters Tolv Haner", "opening_hours": "Mo-Su 15:00-00:00"}}, {"type": "node", "id": 3495105565, "lat": 55.6666623, "lon": 12.5593038}, {"type": "node", "id": 3495105566, "lat": 55.6665753, "lon": 12.5591134}, {"type": "node", "id": 3495105567, "lat": 55.6664574, "lon": 12.5592824}, {"type": "node", "id": 3495105568, "lat": 55.6665065, "lon": 12.5593923}, {"type": "node", "id": 3495105569, "lat": 55.6665625, "lon": 12.5593079}, {"type": "node", "id": 3495105570, "lat": 55.6666011, "lon": 12.5593937}, {"type": "node", "id": 3513411224, "lat": 55.6721405, "lon": 12.5623557, "tags": {"amenity": "bar", "name": "Urban Bar"}}, {"type": "node", "id": 3529010440, "lat": 55.673198, "lon": 12.5517168}, {"type": "node", "id": 3545260204, "lat": 55.7053238, "lon": 12.4783422, "tags": {"amenity": "pub", "fvst:navnelbnr": "111274", "name": "Caf\u00e9 Kilden", "source": "survey"}}, {"type": "node", "id": 3656367927, "lat": 55.701174, "lon": 12.551194, "tags": {"amenity": "bar", "fvst:fixme": "fvst:no_pos", "fvst:navnelbnr": "715239", "name": "Kl\u00f8r Dame", "outdoor_seating": "yes", "smoking": "yes"}}, {"type": "node", "id": 3686460724, "lat": 55.6822531, "lon": 12.5865721, "tags": {"amenity": "bar", "name": "Det Lille Vinhus"}}, {"type": "node", "id": 3766429781, "lat": 55.6728963, "lon": 12.4739133, "tags": {"amenity": "nightclub", "fvst:navnelbnr": "531626", "name": "Damhuskroen Natklub", "website": "http://www.damhuskroen.dk/natklub.php"}}, {"type": "node", "id": 3772456953, "lat": 55.6793579, "lon": 12.5749273, "tags": {"amenity": "bar", "fvst:navnelbnr": "543663", "name": "B\u00e6st", "opening_hours": "Th 20:00-02:00, Fr-Sa 18:00-05:00", "website": "http://xn--bst-yla.dk/"}}, {"type": "node", "id": 3772610639, "lat": 55.6834105, "lon": 12.5562719, "tags": {"amenity": "bar", "fvst:navnelbnr": "527819", "name": "B9 Vinbar", "opening_hours": "Th-Sa 16:00-24:00; 15:00-21:00", "phone": "+45 35394704", "website": "http://b9vinbar.dk/"}}, {"type": "node", "id": 3773087372, "lat": 55.6798954, "lon": 12.5777113, "tags": {"amenity": "bar", "fvst:navnelbnr": "556537", "name": "Balderdash", "opening_hours": "We 17:00-01:00, Th 17:00-02:00, Fr 17:00-02:00, Sa 17:00-02:00", "phone": "+45 53107885"}}, {"type": "node", "id": 3773088919, "lat": 55.6776418, "lon": 12.5780759, "tags": {"amenity": "bar", "fvst:navnelbnr": "714992", "name": "The Bird and the Churchkey", "opening_hours": "Tu-We 16:00-01:00, Th 16:00-02:00, Fr-Sa 16:00-04:00", "website": "http://www.thebird.dk/"}}, {"type": "node", "id": 3791998558, "lat": 55.6822453, "lon": 12.5726015, "tags": {"amenity": "pub", "fvst:navnelbnr": "743429", "name": "Roseng\u00e5rden Bodega"}}, {"type": "node", "id": 3792241559, "lat": 55.689263, "lon": 12.5626563, "tags": {"amenity": "bar", "fvst:navnelbnr": "554208", "name": "Ravnsborg vinbar"}}, {"type": "node", "id": 3798400056, "lat": 55.7170154, "lon": 12.5775907, "tags": {"amenity": "pub", "fvst:navnelbnr": "114702", "name": "Svane Pub"}}, {"type": "node", "id": 3898784968, "lat": 55.6685278, "lon": 12.5599599, "tags": {"amenity": "pub", "facebook": "https://www.facebook.com/warpigsbrewpub", "fvst:fixme": "fvst:no_pos", "fvst:navnelbnr": "560424", "internet_access": "wlan", "internet_access:fee": "no", "microbrewery": "yes", "name": "Warpigs Brewpub", "outdoor_seating": "yes", "phone": "+45 43484848", "takeaway": "yes", "website": "http://warpigs.dk"}}, {"type": "node", "id": 3929730152, "lat": 55.6794412, "lon": 12.455236, "tags": {"amenity": "bar", "name": "S Bar", "opening_hours": "Mo-Fr 10:00-21:00; Sa 10:00-17:00; Su 10:00-17:00", "phone": "+45 32204782", "website": "http://www.roedovrecentrum.dk/butikker/butik/s-bar/"}}, {"type": "node", "id": 3945079999, "lat": 55.6736143, "lon": 12.5669645, "tags": {"amenity": "bar", "name": "Bodega Tivoli Vinstue"}}, {"type": "node", "id": 3989110702, "lat": 55.714863, "lon": 12.570029, "tags": {"amenity": "bar", "fvst:navnelbnr": "526731", "name": "Bellmans Caf\u00e9"}}, {"type": "node", "id": 3998283996, "lat": 55.6483192, "lon": 12.5268698, "tags": {"amenity": "bar", "fvst:navnelbnr": "127882", "name": "Stubbens Cafe og Bar", "opening_hours": "10:00-01:00"}}, {"type": "node", "id": 3998863476, "lat": 55.708045, "lon": 12.522681, "tags": {"amenity": "pub", "fvst:navnelbnr": "553379", "name": "Pool-pub"}}, {"type": "node", "id": 4004309539, "lat": 55.6660178, "lon": 12.597706, "tags": {"amenity": "bar", "fvst:navnelbnr": "116884", "name": "Boulevard Bodega"}}, {"type": "node", "id": 4005982999, "lat": 55.6910254, "lon": 12.5760406, "tags": {"amenity": "bar", "fvst:navnelbnr": "116682", "name": "Hyggebar"}}, {"type": "node", "id": 4007452347, "lat": 55.6878755, "lon": 12.5702372, "tags": {"amenity": "bar", "name": "Jacques D."}}, {"type": "node", "id": 4007480897, "lat": 55.678419, "lon": 12.554611, "tags": {"amenity": "bar", "fvst:navnelbnr": "761790", "name": "Salon 39"}}, {"type": "node", "id": 4007924197, "lat": 55.6875478, "lon": 12.5470834, "tags": {"amenity": "bar", "fvst:navnelbnr": "721138", "name": "Tolv Haner"}}, {"type": "node", "id": 4011664524, "lat": 55.6721941, "lon": 12.5477451, "tags": {"amenity": "bar", "cuisine": "organic;seasonal", "fvst:navnelbnr": "562873", "name": "MadMad Mad Bodega", "opening_hours": "17:00-22:00; Su off", "phone": "+45 33337090", "website": "http://www.madmadmadbodega.com/"}}, {"type": "node", "id": 4011854861, "lat": 55.6787957, "lon": 12.5722433, "tags": {"amenity": "bar", "fvst:name": "Gringo Bar", "fvst:navnelbnr": "714364", "name": "Gringo Bar"}}, {"type": "node", "id": 4012815277, "lat": 55.675205, "lon": 12.586764, "tags": {"amenity": "bar", "fvst:name": "Kayak Bar Kajen Drift ApS", "fvst:navnelbnr": "734284", "name": "Kayak Bar", "opening_hours": "Jun-Aug", "website": "http://kayakbar.dk/"}}, {"type": "node", "id": 4016613453, "lat": 55.6736038, "lon": 12.5660687, "tags": {"amenity": "bar", "fvst:navnelbnr": "535576", "name": "Nimb Bar"}}, {"type": "node", "id": 4018484845, "lat": 55.6786195, "lon": 12.5924575, "tags": {"amenity": "bar", "fvst:navnelbnr": "530990", "name": "Den Vandrette Vinbar", "opening_hours": "17:00-23:00; Su-Mo off", "website": "http://www.denvandrette.dk/"}}, {"type": "node", "id": 4018777298, "lat": 55.6813451, "lon": 12.5828002, "tags": {"amenity": "pub", "fvst:navnelbnr": "546658", "name": "The Dubliner", "wheelchair": "limited"}}, {"type": "node", "id": 4019854409, "lat": 55.67926, "lon": 12.573863, "tags": {"amenity": "bar", "fvst:navnelbnr": "115867", "name": "Vinomatik"}}, {"type": "node", "id": 4020316172, "lat": 55.6741194, "lon": 12.5697894, "tags": {"amenity": "bar", "fvst:navnelbnr": "122435", "microbrewery": "yes", "name": "F\u00e6rgekroen Bryghus Bryggeri"}}, {"type": "node", "id": 4024120586, "lat": 55.6369773, "lon": 12.641587, "tags": {"amenity": "pub", "fvst:navnelbnr": "112627", "name": "Caf\u00e9 Bredager", "smoking": "yes", "wheelchair": "yes"}}, {"type": "node", "id": 4072649413, "lat": 55.704862, "lon": 12.586697, "tags": {"amenity": "bar", "fvst:navnelbnr": "740617", "name": "Kl\u00f8r Bonde", "smoking": "yes"}}, {"type": "node", "id": 4072657121, "lat": 55.6817975, "lon": 12.5826042, "tags": {"amenity": "bar", "fvst:name": "Hafnia", "fvst:navnelbnr": "673327", "name": "Hafnia bar"}}, {"type": "node", "id": 4072657122, "lat": 55.6811399, "lon": 12.5830687, "tags": {"amenity": "bar", "fvst:navnelbnr": "636689", "name": "Lou Lou"}}, {"type": "node", "id": 4170928389, "lat": 55.6983406, "lon": 12.5503495, "tags": {"amenity": "bar", "fvst:navnelbnr": "558646", "name": "Mimers Bodega", "opening_hours": "Mo-We 12:00-22:00; Th-Fr 12:00-00:00; Sa 11:00-00:00; Su 11:00-22:00"}}, {"type": "node", "id": 4176224497, "lat": 55.6307122, "lon": 12.601182, "tags": {"amenity": "bar", "fvst:navnelbnr": "765451", "name": "Oksen Bodega"}}, {"type": "node", "id": 4176224501, "lat": 55.7052777, "lon": 12.5045981, "tags": {"amenity": "pub", "fvst:navnelbnr": "559958", "name": "Br\u00f8nsh\u00f8j Borger Kro", "phone": "+45 38605849"}}, {"type": "node", "id": 4181943891, "lat": 55.6771302, "lon": 12.5646953}, {"type": "node", "id": 4181943892, "lat": 55.6771401, "lon": 12.564687}, {"type": "node", "id": 4183419301, "lat": 55.7073896, "lon": 12.5505433}, {"type": "node", "id": 4183419302, "lat": 55.7073938, "lon": 12.5506347}, {"type": "node", "id": 4183419304, "lat": 55.7074636, "lon": 12.5507246}, {"type": "node", "id": 4183419305, "lat": 55.707581, "lon": 12.550297}, {"type": "node", "id": 4183419306, "lat": 55.7076258, "lon": 12.5503361}, {"type": "node", "id": 4183419307, "lat": 55.7076551, "lon": 12.5504783}, {"type": "node", "id": 4214835839, "lat": 55.6434567, "lon": 12.5448926, "tags": {"amenity": "bar"}}, {"type": "node", "id": 4261837130, "lat": 55.677578, "lon": 12.581197, "tags": {"amenity": "bar", "fvst:navnelbnr": "647443", "name": "Cava Bar - Playa"}}, {"type": "node", "id": 4313838239, "lat": 55.690627, "lon": 12.5299053, "tags": {"amenity": "bar", "fvst:navnelbnr": "512938", "name": "Cafe Falamanki", "toilets:wheelchair": "no", "wheelchair": "no"}}, {"type": "node", "id": 4314938978, "lat": 55.683419, "lon": 12.5882033, "tags": {"amenity": "bar", "cuisine": "tapas", "fvst:navnelbnr": "533980", "name": "Dahl og Dahl", "website": "http://www.dahl-dahl.dk/"}}, {"type": "node", "id": 4314938983, "lat": 55.6833661, "lon": 12.5778005, "tags": {"amenity": "bar", "cuisine": "tapas", "fvst:name": "Lundgren Vin", "fvst:navnelbnr": "665814", "name": "Lundgren Gothersgade"}}, {"type": "node", "id": 4314938985, "lat": 55.681141, "lon": 12.5892433, "tags": {"amenity": "bar", "fvst:navnelbnr": "561054", "name": "Nebbiolo Winebar", "website": "http://nebbiolo-winebar.com/"}}, {"type": "node", "id": 4318843593, "lat": 55.6773717, "lon": 12.576151, "tags": {"amenity": "bar", "description": "Oldest Jazz venue in Copenhagen; Live Music Fr-Sa 22-02 & Su 21-01", "fvst:navnelbnr": "113195", "name": "La Fontaine", "opening_hours": "Mo-Su 20:00-05:00", "website": "http://www.lafontaine.dk"}}, {"type": "node", "id": 4328324015, "lat": 55.6801783, "lon": 12.5760558, "tags": {"amenity": "bar", "fvst:navnelbnr": "523694", "name": "Str\u00f8m Bar", "opening_hours": "Mo-Th 18:00-01:00; Fr 16:00-03:00; Sa 18:00-03:00"}}, {"type": "node", "id": 4328324017, "lat": 55.6811729, "lon": 12.5763426, "tags": {"access": "students", "amenity": "bar", "fvst:navnelbnr": "110148868", "name": "Studenterhuset", "operator": "FORENINGEN STUDENTERHUSET"}}, {"type": "node", "id": 4328324021, "lat": 55.6814402, "lon": 12.5712957, "tags": {"amenity": "bar", "fvst:navnelbnr": "637609", "name": "Barfly"}}, {"type": "node", "id": 4328330533, "lat": 55.6846453, "lon": 12.56764, "tags": {"amenity": "bar", "fvst:navnelbnr": "521282", "name": "Absurt"}}, {"type": "node", "id": 4328366217, "lat": 55.6783794, "lon": 12.5549873, "tags": {"amenity": "bar", "fvst:navnelbnr": "112934", "name": "Vodroffslund Ny Bodega"}}, {"type": "node", "id": 4328366224, "lat": 55.6885594, "lon": 12.5621783, "tags": {"amenity": "bar", "fvst:navnelbnr": "577195", "name": "LuLu", "opening_hours": "16:00-24:00, Fr-Sa 16:00-02:00", "phone": "+45 31905293", "website": "http://luluravnsborggade.dk/"}}, {"type": "node", "id": 4328446361, "lat": 55.6805372, "lon": 12.5833472, "tags": {"amenity": "bar", "cuisine": "champagne", "fvst:navnelbnr": "514726", "name": "Balthazar Champagne Bar"}}, {"type": "node", "id": 4328446364, "lat": 55.6811473, "lon": 12.581666, "tags": {"amenity": "bar", "cuisine": "wine", "fvst:navnelbnr": "505985", "name": "Kj\u00e6r & Sommerfeldt", "website": "http://www.kogs.dk/"}}, {"type": "node", "id": 4330130939, "lat": 55.677305, "lon": 12.5815953, "tags": {"amenity": "bar", "cuisine": "winebar", "fvst:navnelbnr": "114994", "name": "Ved Stranden 10", "opening_hours": "12:00-22:00; Su off", "phone": "+45 35424040", "website": "http://www.vedstranden10.dk/"}}, {"type": "node", "id": 4330149155, "lat": 55.68682, "lon": 12.5599721, "tags": {"amenity": "bar", "cuisine": "wine", "fvst:navnelbnr": "563943", "name": "Vinskabet"}}, {"type": "node", "id": 4331204551, "lat": 55.6727762, "lon": 12.5668858, "tags": {"amenity": "bar", "fvst:navnelbnr": "531950", "name": "Alpehytten Biergarten I", "operator": "Tivoli"}}, {"type": "node", "id": 4331204556, "lat": 55.6779045, "lon": 12.5700264, "tags": {"amenity": "bar", "fvst:navnelbnr": "653685", "name": "Juize N booze"}}, {"type": "node", "id": 4331213992, "lat": 55.6751958, "lon": 12.5611991, "tags": {"amenity": "bar", "fvst:navnelbnr": "113943", "name": "Imperial Bio Nedre Bar"}}, {"type": "node", "id": 4331285860, "lat": 55.6779936, "lon": 12.5921765, "tags": {"amenity": "bar", "fvst:navnelbnr": "575517", "name": "44 Harbour Street Jazz Club", "toilets:wheelchair": "yes", "wheelchair": "yes"}}, {"type": "node", "id": 4331285862, "lat": 55.67997, "lon": 12.5914609, "tags": {"amenity": "bar", "fvst:navnelbnr": "526027", "name": "Brooklyn Bar"}}, {"type": "node", "id": 4332226099, "lat": 55.6820512, "lon": 12.5735725, "tags": {"amenity": "bar", "fvst:navnelbnr": "576429", "name": "Hvitfeldt"}}, {"type": "node", "id": 4332226100, "lat": 55.6694146, "lon": 12.5451815, "tags": {"amenity": "bar", "fvst:navnelbnr": "569592", "name": "Vinhanen II", "opening_hours": "16:00-24:00, Su off, Fr-Sa 14:00-01:00", "website": "http://www.vinhanen.dk/"}}, {"type": "node", "id": 4332887875, "lat": 55.7018848, "lon": 12.5587662}, {"type": "node", "id": 4332887876, "lat": 55.7018937, "lon": 12.5586717}, {"type": "node", "id": 4332887877, "lat": 55.7019116, "lon": 12.5586923}, {"type": "node", "id": 4332887878, "lat": 55.7019346, "lon": 12.5585591}, {"type": "node", "id": 4333917673, "lat": 55.7033623, "lon": 12.5717639, "tags": {"amenity": "bar", "fvst:navnelbnr": "660853", "name": "Parken Bar 7", "operator": "Levy Restaurants"}}, {"type": "node", "id": 4337859993, "lat": 55.6921663, "lon": 12.5561981, "tags": {"amenity": "bar", "microbrewery": "yes", "name": "Brus", "phone": "+45 75222200", "website": "http://tapperietbrus.dk/", "wheelchair": "yes"}}, {"type": "node", "id": 4340421686, "lat": 55.693807, "lon": 12.560991, "tags": {"amenity": "bar", "fvst:navnelbnr": "635588", "name": "Cafe Stadion", "phone": "+45 35370656"}}, {"type": "node", "id": 4340872469, "lat": 55.7018981, "lon": 12.5585174}, {"type": "node", "id": 4341862608, "lat": 55.6735506, "lon": 12.5661, "tags": {"amenity": "bar", "fvst:navnelbnr": "118085", "name": "Nimb Bar og Banquet 1. sal"}}, {"type": "node", "id": 4385514508, "lat": 55.6849967, "lon": 12.501997, "tags": {"amenity": "bar", "fvst:navnelbnr": "540378", "name": "Caf\u00e9 WISH"}}, {"type": "node", "id": 4387037489, "lat": 55.7009477, "lon": 12.53982, "tags": {"amenity": "bar", "fvst:navnelbnr": "111198", "name": "Hvepsereden"}}, {"type": "node", "id": 4387720611, "lat": 55.6869467, "lon": 12.5594593, "tags": {"amenity": "bar", "fvst:navnelbnr": "523380", "name": "Vinhanen"}}, {"type": "node", "id": 4388201114, "lat": 55.6807121, "lon": 12.589734, "tags": {"amenity": "bar", "fvst:navnelbnr": "654566", "name": "Nyhavns Bodega"}}, {"type": "node", "id": 4389499184, "lat": 55.6765839, "lon": 12.56366, "tags": {"amenity": "bar", "fvst:name": "Palads Caf\u00e9 Olsen Banden", "fvst:navnelbnr": "114558", "name": "Caf\u00e9 Olsen Banden"}}, {"type": "node", "id": 4389544398, "lat": 55.6752253, "lon": 12.5612217, "tags": {"amenity": "bar", "fvst:name": "Imperial Bio \u00d8vre Bar", "fvst:navnelbnr": "114231", "fvst:navnelbnr_1": "114231", "name": "Imperial Bio \u00d8vre Bar"}}, {"type": "node", "id": 4393762259, "lat": 55.6794569, "lon": 12.5798809, "tags": {"amenity": "bar", "fvst:name": "BAR JACOBSEN", "fvst:navnelbnr": "659415", "name": "Bar Jabobsen", "website": "http://barjacobsen.dk/"}}, {"type": "node", "id": 4393789045, "lat": 55.6917576, "lon": 12.5580127, "tags": {"amenity": "bar", "fvst:navnelbnr": "662280", "name": "Los"}}, {"type": "node", "id": 4393824871, "lat": 55.6665002, "lon": 12.5179276, "tags": {"amenity": "bar", "fvst:navnelbnr": "505679", "name": "Caf\u00e9 Casual"}}, {"type": "node", "id": 4401060051, "lat": 55.6666377, "lon": 12.5154482, "tags": {"amenity": "bar", "fvst:navnelbnr": "652431", "name": "TH. Bar", "opening_hours": "Mo 16:00-21:00, Tu-Th 15:00-22:00, Fr 15:00-23:00, Sa 14:00-23:00, Su 14:00-21:00"}}, {"type": "node", "id": 4401060053, "lat": 55.6647323, "lon": 12.5312504, "tags": {"amenity": "bar", "fvst:name": "Carlsberg Visitors Centre Bar Jacobsen", "fvst:navnelbnr": "118533", "name": "Jacobsen", "operator": "Carlsberg Visitors Centre"}}, {"type": "node", "id": 4401060054, "lat": 55.67167, "lon": 12.554793, "tags": {"amenity": "bar", "cuisine": "wine", "fvst:navnelbnr": "116093", "name": "Vinbaren Vesterbro Torv", "phone": "+45 21408527", "website": "http://vinbarenvesterbrotorv.dk/"}}, {"type": "node", "id": 4402401626, "lat": 55.6537587, "lon": 12.616193, "tags": {"amenity": "pub", "fvst:navnelbnr": "501919", "name": "Cafe Smil", "opening_hours": "10:00-02:00"}}, {"type": "node", "id": 4402639618, "lat": 55.687061, "lon": 12.549315, "tags": {"amenity": "bar", "fvst:navnelbnr": "564445", "name": "Kocktails", "website": "http://kocktails.dk/"}}, {"type": "node", "id": 4404437681, "lat": 55.6934534, "lon": 12.6079313, "tags": {"amenity": "pub", "name": "Mikkeller Barrel Room", "opening_date": "2017-06-23", "website": "http://mikkeller.dk/location/mikkeller-barrel-room/"}}, {"type": "node", "id": 4424224041, "lat": 55.671923, "lon": 12.545461, "tags": {"amenity": "bar", "fvst:navnelbnr": "551620", "name": "Portvinsbaren", "website": "http://vinhulen.dk/portvinsbaren.asp"}}, {"type": "node", "id": 4424224042, "lat": 55.671188, "lon": 12.544758, "tags": {"amenity": "bar", "fvst:navnelbnr": "572797", "name": "V120 Restaurent og Lounge", "outdoor_seating": "yes"}}, {"type": "node", "id": 4434074415, "lat": 55.674011, "lon": 12.53701, "tags": {"amenity": "bar", "fvst:navnelbnr": "111602", "name": "Betty Nansen Teaterbar"}}, {"type": "node", "id": 4435367934, "lat": 55.6799824, "lon": 12.5750784, "tags": {"amenity": "bar", "cuisine": "winebar", "fvst:navnelbnr": "661320", "level": "-1", "name": "XOCOVINO", "phone": "+45 28408021", "website": "http://www.xocovino.com/"}}, {"type": "node", "id": 4436256455, "lat": 55.677653, "lon": 12.5977751, "tags": {"amenity": "bar", "description": "Coffee, Wine, Lunch", "fvst:navnelbnr": "733712", "name": "108 - The Corner", "opening_hours": "Mo-Fr 07:00-24:00; Sa,Su 09:00-24:00"}}, {"type": "node", "id": 4436384259, "lat": 55.6808434, "lon": 12.5879591, "tags": {"amenity": "pub", "fvst:navnelbnr": "111783", "name": "Barock"}}, {"type": "node", "id": 4436431103, "lat": 55.6882823, "lon": 12.5618437, "tags": {"amenity": "pub", "fvst:navnelbnr": "564835", "name": "Det ny Scala", "phone": "+45 35370015", "wheelchair": "no"}}, {"type": "node", "id": 4436489213, "lat": 55.6593211, "lon": 12.590689, "tags": {"amenity": "bar", "fvst:name": "IT- Universitetet Studentercaf\u00e9en Scrollbar", "fvst:navnelbnr": "115893", "name": "Scrollbar", "operator": "IT-Universitetet", "toilets:wheelchair": "yes", "wheelchair": "yes"}}, {"type": "node", "id": 4460696843, "lat": 55.69075, "lon": 12.57642, "tags": {"amenity": "bar", "name": "braincorp"}}, {"type": "node", "id": 4460697690, "lat": 55.66732, "lon": 12.56117, "tags": {"amenity": "bar", "name": "Jolene", "opening_hours": "Su-Th 17:00-02:00, Fr-Sa 17:00-03:00", "website": "https://myspace.com/jolenebar"}}, {"type": "node", "id": 4460697811, "lat": 55.66769, "lon": 12.5589, "tags": {"amenity": "bar", "fvst:navnelbnr": "115011", "name": "Mesteren & L\u00e6rlingen"}}, {"type": "node", "id": 4487041295, "lat": 55.6386512, "lon": 12.5778012, "tags": {"amenity": "bar", "fvst:name": "Bella Center The Front", "fvst:navnelbnr": "665277", "operator": "The Front"}}, {"type": "node", "id": 4487060794, "lat": 55.6292226, "lon": 12.6448947, "tags": {"amenity": "bar", "fvst:navnelbnr": "113610", "name": "OLearys"}}, {"type": "node", "id": 4489479205, "lat": 55.680944, "lon": 12.571343, "tags": {"amenity": "bar", "fvst:navnelbnr": "662261", "name": "Boulebar Sankt Petri", "opening_hours": "15:00-23:00; Th 15:00-24:00; Fr 11:00-24:00; Sa 10:00-24:00; Su 10:00-23:00", "phone": "+45 82820800", "pitch": "boules", "website": "https://www.boulebar.dk/"}}, {"type": "node", "id": 4489479208, "lat": 55.686395, "lon": 12.591848, "tags": {"amenity": "bar", "comment": "cocktail bar", "drink:cocktails": "served", "fvst:navnelbnr": "664901", "name": "Helium", "opening_hours": "18:00+; Th-Sa 16:00+; Mo-Tu off", "phone": "+45 31111260", "website": "http://www.heliumcph.dk/"}}, {"type": "node", "id": 4489479214, "lat": 55.6777863, "lon": 12.5746002, "tags": {"amenity": "bar", "comment": "cocktail bar", "drink:cocktails": "served", "name": "Alo\u00eb Cocktailbar", "payment:bitcoin": "yes", "website": "http://aloecocktailbar.com/"}}, {"type": "node", "id": 4489814136, "lat": 55.703247, "lon": 12.5716911, "tags": {"amenity": "bar", "fvst:name": "Air Group Restaurants Parken Bar 6", "fvst:navnelbnr": "660851", "name": "Bar 6"}}, {"type": "node", "id": 4494829892, "lat": 55.6864022, "lon": 12.584065, "tags": {"amenity": "nightclub", "name": "Culture Box"}}, {"type": "node", "id": 4515551975, "lat": 55.6654227, "lon": 12.5488293, "tags": {"amenity": "bar", "name": "Boulevarden"}}, {"type": "node", "id": 4516721448, "lat": 55.6913826, "lon": 12.5446425, "tags": {"amenity": "bar", "fvst:navnelbnr": "123647", "name": "Kronborggade 3", "opening_hours": "Mo-Sa 14:00-01:00"}}, {"type": "node", "id": 4532299574, "lat": 55.6735206, "lon": 12.5660812, "tags": {"amenity": "bar", "fvst:navnelbnr": "119223", "level": "-1", "name": "Nimb Vinotek"}}, {"type": "node", "id": 4532332950, "lat": 55.6765335, "lon": 12.5617943, "tags": {"amenity": "bar", "fvst:navnelbnr": "567575", "name": "Mercur Hotel Bar"}}, {"type": "node", "id": 4532338070, "lat": 55.6795961, "lon": 12.4563494, "tags": {"amenity": "bar", "fvst:navnelbnr": "90538", "name": "Terrasse Bar"}}, {"type": "node", "id": 4535435159, "lat": 55.6723836, "lon": 12.5572888, "tags": {"amenity": "nightclub", "fvst:navnelbnr": "114454", "name": "LessLee Night Club"}}, {"type": "node", "id": 4535451014, "lat": 55.6723723, "lon": 12.5565779, "tags": {"amenity": "bar", "fvst:navnelbnr": "545988", "name": "Hotel Copenhagen Crown Bar"}}, {"type": "node", "id": 4535465057, "lat": 55.6854905, "lon": 12.4625278, "tags": {"amenity": "bar", "fvst:name": "Super Event / Event Center", "fvst:navnelbnr": "91287", "name": "Super Event Bar"}}, {"type": "node", "id": 4536946914, "lat": 55.6832898, "lon": 12.5879807, "tags": {"amenity": "bar", "cocktails": "yes", "fvst:navnelbnr": "653451", "name": "The Barbershop", "phone": "+45 52633777", "website": "https://www.thebarbershop.dk/"}}, {"type": "node", "id": 4537543313, "lat": 55.6851183, "lon": 12.5525657, "tags": {"amenity": "bar", "comment": "italian craft beer", "drink:beer": "served", "fvst:navnelbnr": "666034", "name": "Il Locale - Italian Craft Beer", "opening_hours": "15:00-24:00,Fr Sa 15:00-01:00", "website": "http://www.il-locale.dk/"}}, {"type": "node", "id": 4538341599, "lat": 55.6263719, "lon": 12.4541899, "tags": {"amenity": "bar", "fvst:navnelbnr": "96645", "name": "3B"}}, {"type": "node", "id": 4550008141, "lat": 55.681795, "lon": 12.5709215, "tags": {"amenity": "bar", "fvst:navnelbnr": "113637", "name": "The Globe"}}, {"type": "node", "id": 4554111734, "lat": 55.6989423, "lon": 12.5767903, "tags": {"amenity": "bar", "drink:wine": "served", "fvst:navnelbnr": "706322", "name": "Pasteur", "smoking": "no", "start_date": "2017", "website": "https://pasteur.dk/"}}, {"type": "node", "id": 4557103882, "lat": 55.6674267, "lon": 12.5972606, "tags": {"amenity": "bar", "contact:email": "haabetbodegabar@gmail.com", "contact:phone": "+45 31 24 08 19", "name": "Haabet Bodega Bar", "opening_hours": "Mo-Th 16:00-00:00, Fr-Sa 15:00-00:00", "smoking": "yes", "website": "http://haabetbodegabar.dk/"}}, {"type": "node", "id": 4557357752, "lat": 55.7097046, "lon": 12.5772017, "tags": {"amenity": "bar", "comment": "lots of interesting beers on tap", "drink:beer": "served", "name": "Kompasset \u00d8lbar", "opening_hours": "Tu-Th 14:00-24:00, Fr,Sa 14:00-02:00, Su 14:00-22:00", "outdoor_seating": "no", "phone": "+45 23250069", "phone_1": "+45 50289095", "smoking": "no", "wheelchair": "limited"}}, {"type": "node", "id": 4558623948, "lat": 55.7037321, "lon": 12.5900305, "tags": {"amenity": "bar", "fvst:navnelbnr": "113714", "name": "Chevy's", "smoking": "yes"}}, {"type": "node", "id": 4558623949, "lat": 55.7035356, "lon": 12.5899983, "tags": {"amenity": "bar", "name": "Fyret", "smoking": "yes"}}, {"type": "node", "id": 4564289856, "lat": 55.678721, "lon": 12.580105, "tags": {"amenity": "bar", "fvst:fixme": "fvst position missing, fixed from overpassturbo/osak", "fvst:navnelbnr": "119067", "name": "Kant-bar", "website": "http://kantbar.dk/"}}, {"type": "node", "id": 4565750915, "lat": 55.6849767, "lon": 12.4854659, "tags": {"amenity": "bar", "fvst:navnelbnr": "564640", "name": "Dams\u00f8 cafe", "opening_hours": "Mo-Su 10:00-00:00"}}, {"type": "node", "id": 4565943949, "lat": 55.686311, "lon": 12.4908342, "tags": {"amenity": "bar", "fvst:navnelbnr": "710742", "name": "Jydepotten bodega", "website": "http://www.jydepotten2720.dk/"}}, {"type": "node", "id": 4575935451, "lat": 55.67524, "lon": 12.57242, "tags": {"amenity": "bar", "name": "The Southern Cross Pub, Copenhagen", "website": "http://southerncross.dk"}}, {"type": "node", "id": 4593377197, "lat": 55.7177267, "lon": 12.5566846, "tags": {"amenity": "bar", "fvst:navnelbnr": "672146", "name": "Emdrup Bodega"}}, {"type": "node", "id": 4593377213, "lat": 55.666425, "lon": 12.553013, "tags": {"amenity": "bar", "fvst:navnelbnr": "667204", "name": "Rbabarrab"}}, {"type": "node", "id": 4594110086, "lat": 55.6383107, "lon": 12.6561399, "tags": {"amenity": "bar", "fvst:name": "Meyers Contract Caterin, Den Bl\u00e5 Planet Bar 1", "fvst:navnelbnr": "669529", "name": "Bar 1 Bl\u00e5 Planet"}}, {"type": "node", "id": 4597094626, "lat": 55.6253234, "lon": 12.573264, "tags": {"amenity": "bar", "fvst:navnelbnr": "671525", "name": "The Bar 3.4"}}, {"type": "node", "id": 4597095790, "lat": 55.6254657, "lon": 12.573272, "tags": {"amenity": "bar", "fvst:navnelbnr": "671523", "name": "The Bar 1.6"}}, {"type": "node", "id": 4607024012, "lat": 55.6256755, "lon": 12.5735999, "tags": {"amenity": "bar", "fvst:fixme": "fvst position missing, fixed from overpassturbo/osak", "fvst:navnelbnr": "671521", "name": "The Bar 1.1"}}, {"type": "node", "id": 4612847341, "lat": 55.6257302, "lon": 12.5734422, "tags": {"amenity": "bar", "fvst:fixme": "fvst position missing, fixed from overpassturbo/osak", "fvst:navnelbnr": "671519", "name": "The Bar 0.3"}}, {"type": "node", "id": 4613151856, "lat": 55.6256575, "lon": 12.5734046, "tags": {"amenity": "bar", "fvst:fixme": "fvst position missing, fixed from overpassturbo/osak", "fvst:navnelbnr": "671522", "name": "The Bar 1.3"}}, {"type": "node", "id": 4613174572, "lat": 55.6253169, "lon": 12.5740146, "tags": {"amenity": "bar", "fvst:fixme": "missing position", "fvst:navnelbnr": "672173", "name": "Absolut"}}, {"type": "node", "id": 4613175037, "lat": 55.6254259, "lon": 12.5738939, "tags": {"amenity": "bar", "fvst:fixme": "missing position", "fvst:navnelbnr": "672171", "name": "Nicolas Feuillatte Bar"}}, {"type": "node", "id": 4614994170, "lat": 55.6256545, "lon": 12.5739759, "tags": {"amenity": "bar", "fvst:fixme": "fvst position missing, fixed from overpassturbo/osak", "fvst:navnelbnr": "671524", "name": "The Bar 3.2"}}, {"type": "node", "id": 4622355403, "lat": 55.6758239, "lon": 12.5930274, "tags": {"amenity": "bar", "name": "Kanalens K\u00e6lder"}}, {"type": "node", "id": 4659829620, "lat": 55.6243627, "lon": 12.6112666}, {"type": "node", "id": 4659829622, "lat": 55.6244213, "lon": 12.610352}, {"type": "node", "id": 4659829643, "lat": 55.6243639, "lon": 12.6112253}, {"type": "node", "id": 4659830111, "lat": 55.62438, "lon": 12.610358}, {"type": "node", "id": 4663400601, "lat": 55.6239855, "lon": 12.6096118}, {"type": "node", "id": 4663400603, "lat": 55.6239959, "lon": 12.610321}, {"type": "node", "id": 4663400604, "lat": 55.6239295, "lon": 12.6096094}, {"type": "node", "id": 4663400606, "lat": 55.6239946, "lon": 12.6105503}, {"type": "node", "id": 4663400609, "lat": 55.623985, "lon": 12.6103214}, {"type": "node", "id": 4663400610, "lat": 55.6239484, "lon": 12.6096102}, {"type": "node", "id": 4663400614, "lat": 55.6240217, "lon": 12.6096133}, {"type": "node", "id": 4663400615, "lat": 55.6239653, "lon": 12.6096109}, {"type": "node", "id": 4663400616, "lat": 55.6241401, "lon": 12.6097452}, {"type": "node", "id": 4663400617, "lat": 55.6241346, "lon": 12.6096289}, {"type": "node", "id": 4663400621, "lat": 55.623984, "lon": 12.6113723}, {"type": "node", "id": 4663400623, "lat": 55.62389, "lon": 12.6096078}, {"type": "node", "id": 4663400624, "lat": 55.6240966, "lon": 12.6095717}, {"type": "node", "id": 4663400627, "lat": 55.6241356, "lon": 12.6097461}, {"type": "node", "id": 4663400628, "lat": 55.6241405, "lon": 12.6096305}, {"type": "node", "id": 4663400632, "lat": 55.6240946, "lon": 12.6096163}, {"type": "node", "id": 4663400633, "lat": 55.6240419, "lon": 12.6096141}, {"type": "node", "id": 4663400636, "lat": 55.6239093, "lon": 12.6096086}, {"type": "node", "id": 4663400638, "lat": 55.624004, "lon": 12.6096125}, {"type": "node", "id": 4663400643, "lat": 55.6239835, "lon": 12.6105514}, {"type": "node", "id": 4663400647, "lat": 55.62406, "lon": 12.6096164}, {"type": "node", "id": 4663400648, "lat": 55.6238719, "lon": 12.609607}, {"type": "node", "id": 4663400649, "lat": 55.6240034, "lon": 12.6113743}, {"type": "node", "id": 4673538603, "lat": 55.6558235, "lon": 12.6098903, "tags": {"amenity": "bar", "drink:wine": "served", "fvst:navnelbnr": "667771", "name": "Toto Vin- og Spisebar"}}, {"type": "node", "id": 4673702481, "lat": 55.6977172, "lon": 12.5468341, "tags": {"amenity": "pub", "fvst:navnelbnr": "696953", "microbrewery": "yes", "name": "Brewers Inc.", "opening_hours": "15:00-24:00, Th-Sa 15:00-02:00,Su off", "website": "https://www.brewersinc.dk/"}}, {"type": "node", "id": 4684360847, "lat": 55.692108, "lon": 12.567677, "tags": {"amenity": "bar", "fvst:fixme": "fvst position missing, fixed from overpassturbo/osak", "fvst:navnelbnr": "566800", "name": "Bageriet"}}, {"type": "node", "id": 4715724304, "lat": 55.6780124, "lon": 12.592246, "tags": {"amenity": "bar", "fvst:navnelbnr": "697915", "name": "Haven Bar", "opening_hours": "Mar-Sep", "operator": "Mikkeler", "toilets:wheelchair": "yes", "wheelchair": "yes"}}, {"type": "node", "id": 4715837029, "lat": 55.6816151, "lon": 12.5849723, "tags": {"amenity": "pub", "fvst:name": "T og M Partners . C/O Wall Street Pub", "fvst:navnelbnr": "697806", "name": "Wall Street"}}, {"type": "node", "id": 4717073271, "lat": 55.6742779, "lon": 12.5879149, "tags": {"amenity": "bar", "fvst:navnelbnr": "569418", "level": "-1", "name": "Barvin"}}, {"type": "node", "id": 4723359794, "lat": 55.6902991, "lon": 12.5595621, "tags": {"amenity": "bar", "fvst:navnelbnr": "112070", "name": "Osborne"}}, {"type": "node", "id": 4730948514, "lat": 55.7025084, "lon": 12.5738749, "tags": {"amenity": "bar", "fvst:navnelbnr": "572954", "name": "The Ballroom Nr. 1", "website": "http://www.theballroom.dk/"}}, {"type": "node", "id": 4736814542, "lat": 55.68475, "lon": 12.55307, "tags": {"amenity": "bar", "name": "Himmerriget", "opening_hours": "Mo-Sa 15:00-02:00; Su 15:00-00:00"}}, {"type": "node", "id": 4736814543, "lat": 55.69618, "lon": 12.55662, "tags": {"amenity": "bar", "fvst:navnelbnr": "119746", "name": "Sabot\u00f8ren"}}, {"type": "node", "id": 4741385088, "lat": 55.7024713, "lon": 12.5737636, "tags": {"amenity": "bar", "fvst:name": "The Ballroom ApS Nr. 2", "fvst:navnelbnr": "572955", "name": "The Ballroom Nr. 2", "website": "http://www.theballroom.dk/"}}, {"type": "node", "id": 4779961680, "lat": 55.6760123, "lon": 12.5716171, "tags": {"amenity": "pub", "gay:men": "only", "name": "SLM K\u00f8benhavn", "smoking": "separated"}}, {"type": "node", "id": 4819022400, "lat": 55.7065226, "lon": 12.5339291, "tags": {"amenity": "bar", "fvst:navnelbnr": "715860", "name": "Nordvest \u00d8lbar", "wheelchair": "no"}}, {"type": "node", "id": 4819022717, "lat": 55.7056895, "lon": 12.5346603, "tags": {"amenity": "bar", "craft": "brewery", "website": "http://www.flyingcouch.dk"}}, {"type": "node", "id": 4819045769, "lat": 55.6632019, "lon": 12.5422552, "tags": {"amenity": "bar", "cuisine": "cocktail", "fvst:navnelbnr": "700648", "name": "The Rusty Jigger", "phone": "+45 53376002"}}, {"type": "node", "id": 4853958380, "lat": 55.7012563, "lon": 12.5809356, "tags": {"amenity": "bar", "name": "\u00d8sterbros Perle", "opening_hours": "Mo-We 10:00-24:00, Th-Sa 10:00-01:00, Su 10:00-24:00", "wheelchair": "limited"}}, {"type": "node", "id": 4868621085, "lat": 55.6816, "lon": 12.580252, "tags": {"amenity": "bar", "fvst:navnelbnr": "565572", "name": "Mother Wine", "website": "http://motherwine.dk/"}}, {"type": "node", "id": 4873747936, "lat": 55.6782794, "lon": 12.5716769, "tags": {"amenity": "bar", "name": "Miami"}}, {"type": "node", "id": 4873747937, "lat": 55.6786307, "lon": 12.5730179, "tags": {"amenity": "nightclub", "name": "Hive"}}, {"type": "node", "id": 4873751689, "lat": 55.6783238, "lon": 12.5718204, "tags": {"amenity": "bar", "fvst:navnelbnr": "510135", "name": "The Drunken Flamingo"}}, {"type": "node", "id": 4873752562, "lat": 55.6793474, "lon": 12.57495, "tags": {"amenity": "bar", "name": "Francis Pony"}}, {"type": "node", "id": 4873752563, "lat": 55.6800374, "lon": 12.5748724, "tags": {"amenity": "bar", "name": "Farfar"}}, {"type": "node", "id": 4878813586, "lat": 55.707977, "lon": 12.598651, "tags": {"amenity": "bar", "cuisine": "winebar", "fvst:fixme": "fvst position missing, fixed from overpassturbo/osak", "fvst:navnelbnr": "708132", "name": "Just a winebar", "opening_hours": "06:30-10:00,12:00-22:30; Th-Sa 06:30-10:00,12:00-24:00", "outdoor_seating": "yes", "phone": "+45 50410737", "start_date": "2017-06-01", "website": "http://justawinebar.dk/"}}, {"type": "node", "id": 4878969893, "lat": 55.6820368, "lon": 12.5711571, "tags": {"amenity": "bar", "fvst:navnelbnr": "515809", "name": "Rhino Bar", "source": "Kaart Ground Survey 2017"}}, {"type": "node", "id": 4881595007, "lat": 55.6770916, "lon": 12.5755872, "tags": {"amenity": "bar", "fvst:navnelbnr": "750887", "name": "Comedy Zoo Cafe", "opening_hours": "Mo-We 16:30-23:00; Th-Sa 12:00-01:00", "website": "http://comedyzoocafe.dk/"}}, {"type": "node", "id": 4883742491, "lat": 55.6722464, "lon": 12.5558859, "tags": {"amenity": "bar", "name": "Rock Bar", "source": "Kaart Ground Survey 2017"}}, {"type": "node", "id": 4884364116, "lat": 55.6707018, "lon": 12.4894709, "tags": {"amenity": "bar", "fvst:navnelbnr": "113879", "name": "\u00c5lholm Borgerkro"}}, {"type": "node", "id": 4885853427, "lat": 55.6828585, "lon": 12.4840667, "tags": {"amenity": "bar", "fvst:navnelbnr": "561775", "name": "Kvali Bar"}}, {"type": "node", "id": 4885854560, "lat": 55.6919259, "lon": 12.4837107, "tags": {"amenity": "bar", "fvst:navnelbnr": "740618", "name": "St\u00f8vlen", "source": "Kaart Ground Survey 2017"}}, {"type": "node", "id": 4886121139, "lat": 55.7102686, "lon": 12.4768678, "tags": {"amenity": "bar", "fvst:navnelbnr": "733773", "name": "Husum Bodega", "source": "Kaart Ground Survey 2017"}}, {"type": "node", "id": 4886334451, "lat": 55.6866636, "lon": 12.5321631, "tags": {"amenity": "pub", "fvst:navnelbnr": "634370", "name": "Alhambra Pub", "source": "Kaart Ground Survey 2017"}}, {"type": "node", "id": 4888056705, "lat": 55.6714963, "lon": 12.5722551, "tags": {"amenity": "bar", "fvst:navnelbnr": "114337", "name": "Byens bodega"}}, {"type": "node", "id": 4888404365, "lat": 55.6903189, "lon": 12.5720729, "tags": {"amenity": "bar", "fvst:navnelbnr": "714724", "name": "S\u00f8hesten", "source": "Kaart Ground Survey 2017"}}, {"type": "node", "id": 4922683715, "lat": 55.6536616, "lon": 12.5519385, "tags": {"amenity": "bar", "cuisine": "street food", "music_venue": "yes", "name": "Teglv\u00e6rket", "opening_hours": "12:00-23:45", "restaurant": "yes", "telephone": "+45 40 97 90 35", "wheelchair": "no"}}, {"type": "node", "id": 4949586070, "lat": 55.681413, "lon": 12.571291, "tags": {"amenity": "bar", "fvst:navnelbnr": "709814", "name": "No Stress Bar DK", "website": "http://www.nostressbar.dk/"}}, {"type": "node", "id": 4959567011, "lat": 55.6717677, "lon": 12.552406, "tags": {"amenity": "bar", "cuisine": "champagne;cocktails", "fvst:navnelbnr": "706962", "name": "The reception", "website": "http://www.thereception.dk/"}}, {"type": "node", "id": 4961986412, "lat": 55.712697, "lon": 12.5769243, "tags": {"amenity": "bar", "brewery": "Vestfyen;Carlberg", "fvst:navnelbnr": "772737", "name": "Cafe Strandlyst", "opening_hours": "12:00-24:00; Mo off", "outdoor_seating": "yes", "smoking": "outside"}}, {"type": "node", "id": 5017818069, "lat": 55.7024109, "lon": 12.5836296, "tags": {"amenity": "bar", "cuisine": "italian", "drink:wine": "served", "fvst:navnelbnr": "712399", "name": "Beviamo Winebar", "opening_hours": "15:00-14:00", "phone": "+45 66537677", "smoking": "no"}}, {"type": "node", "id": 5017934280, "lat": 55.684153, "lon": 12.5429642, "tags": {"amenity": "bar", "fvst:navnelbnr": "710474", "name": "Gensyn"}}, {"type": "node", "id": 5041756421, "lat": 55.6655993, "lon": 12.6135641, "tags": {"amenity": "bar", "fvst:navnelbnr": "668932", "name": "Whammy Bar"}}, {"type": "node", "id": 5075469322, "lat": 55.6676668, "lon": 12.5533363, "tags": {"amenity": "bar"}}, {"type": "node", "id": 5075572256, "lat": 55.6721757, "lon": 12.5613852, "tags": {"amenity": "bar", "name": "BYOH Matcha Bar & Matcha Mike"}}, {"type": "node", "id": 5075577872, "lat": 55.6717046, "lon": 12.5617535, "tags": {"amenity": "bar", "name": "Absalon Bar"}}, {"type": "node", "id": 5075945735, "lat": 55.6615866, "lon": 12.6102176, "tags": {"amenity": "pub", "name": "Post Bodega"}}, {"type": "node", "id": 5109659910, "lat": 55.6792622, "lon": 12.5684369, "tags": {"amenity": "bar", "fvst:navnelbnr": "114380", "name": "Men\"s bar"}}, {"type": "node", "id": 5109701871, "lat": 55.678001, "lon": 12.5681405, "tags": {"amenity": "bar", "name": "Kiss Kiss Bear Bar"}}, {"type": "node", "id": 5110956545, "lat": 55.6835862, "lon": 12.5702644, "tags": {"amenity": "bar", "fvst:navnelbnr": "669464", "name": "Bootleggers"}}, {"type": "node", "id": 5124560643, "lat": 55.6704442, "lon": 12.5616796, "tags": {"amenity": "bar", "fvst:navnelbnr": "716546", "name": "Halmtorvet 9", "website": "https://halmtorvet9.dk/"}}, {"type": "node", "id": 5125941664, "lat": 55.6687889, "lon": 12.574102, "tags": {"access": "fee", "amenity": "bar", "fvst:name": "Copenhagen Marriott Exce. Lounge", "fvst:navnelbnr": "716273", "name": "Copenhagen Marriott Excecutive Lounge"}}, {"type": "node", "id": 5139609418, "lat": 55.6754177, "lon": 12.5729105, "tags": {"amenity": "bar", "name": "Honey rider cocktail lounge"}}, {"type": "node", "id": 5139657734, "lat": 55.6759648, "lon": 12.574294, "tags": {"amenity": "bar", "name": "Cph down town"}}, {"type": "node", "id": 5139921309, "lat": 55.6851285, "lon": 12.5660949, "tags": {"amenity": "bar", "name": "Mikropolis", "website": "http://mikeller.dk/location/mikropolis/"}}, {"type": "node", "id": 5148568613, "lat": 55.6778037, "lon": 12.5745925, "tags": {"amenity": "bar", "fvst:navnelbnr": "662256", "name": "The Mirror"}}, {"type": "node", "id": 5174561438, "lat": 55.6495603, "lon": 12.5421382, "tags": {"amenity": "bar", "name": "Slusen", "opening_hours": "Fr 17:00-22:00", "smoking": "outside", "toilets:wheelchair": "yes", "wheelchair": "yes"}}, {"type": "node", "id": 5278008635, "lat": 55.6789888, "lon": 12.5707675, "tags": {"amenity": "bar", "cocktails": "yes", "fvst:navnelbnr": "714366", "name": "Bar7", "outdoor_seating": "no", "phone": "+45 27777787", "website": "http://www.bar7.dk/"}}, {"type": "node", "id": 5299631421, "lat": 55.672061, "lon": 12.554622, "tags": {"amenity": "pub", "brewery": "various", "fvst:navnelbnr": "721815", "name": "Dudes", "website": "https://dudes.bar"}}, {"type": "node", "id": 5299631463, "lat": 55.691993, "lon": 12.513977, "tags": {"amenity": "bar", "fvst:navnelbnr": "722134", "name": "Fischers kro", "phone": "+45 81906798"}}, {"type": "node", "id": 5304900471, "lat": 55.679611, "lon": 12.568007, "tags": {"amenity": "bar", "fvst:navnelbnr": "716736", "name": "KOOL"}}, {"type": "node", "id": 5417511363, "lat": 55.681984, "lon": 12.582499, "tags": {"amenity": "bar", "fvst:navnelbnr": "735886", "name": "Jazzhus Montmartre Bar"}}, {"type": "node", "id": 5419979457, "lat": 55.6675846, "lon": 12.5789412, "tags": {"amenity": "bar", "fvst:navnelbnr": "116842", "name": "Vinothek Marquart", "takeaway": "only", "website": "https://vinothek-marquart.dk/"}}, {"type": "node", "id": 5539726136, "lat": 55.6728406, "lon": 12.5570465, "tags": {"amenity": "bar", "email": "info@curfew.dk", "fvst:navnelbnr": "562073", "name": "Curfew", "opening_hours": "Tu-We 18:00-01:00; Th 18:00-02:00; Fr-Sa 18:00-03:00", "phone": "+4529299276", "website": "http://curfew.dk"}}, {"type": "node", "id": 5664307023, "lat": 55.7062905, "lon": 12.5343114, "tags": {"amenity": "bar", "fixme": "Del af Tribeca?", "name": "The Ugly Duckling Brewery", "name:en": "The Ugly Duckling Brewery", "toilets:wheelchair": "yes", "website": "https://www.uglyduckbrewing.dk/tribeca-copenhagen", "wheelchair": "limited"}}, {"type": "node", "id": 5676160621, "lat": 55.6794574, "lon": 12.5765266, "tags": {"amenity": "bar", "name": "Voodoo Lounge"}}, {"type": "node", "id": 5713943875, "lat": 55.6657426, "lon": 12.5785514, "tags": {"amenity": "bar", "fvst:navnelbnr": "740620", "name": "Beer and the Bean"}}, {"type": "node", "id": 5730583501, "lat": 55.7055585, "lon": 12.5793537, "tags": {"amenity": "bar", "fvst:navnelbnr": "747443", "microbrewery": "yes", "name": "Bicycle Brewing", "opening_hours": "16:00-22:00; Su-We off", "smoking": "no"}}, {"type": "node", "id": 5786700119, "lat": 55.6776889, "lon": 12.5782539, "tags": {"amenity": "bar", "name": "FUGU", "outdoor_seating": "yes", "smoking": "isolated", "website": "http://fugu.dk"}}, {"type": "node", "id": 5786719592, "lat": 55.6877573, "lon": 12.5596058, "tags": {"amenity": "bar", "name": "Escobar K\u00f8benhavn", "outdoor_seating": "yes", "smoking": "outside"}}, {"type": "node", "id": 5873815486, "lat": 55.6796922, "lon": 12.5842138, "tags": {"amenity": "bar", "fvst:navnelbnr": "738132", "name": "Bar Piccolo"}}, {"type": "node", "id": 5894054755, "lat": 55.6771292, "lon": 12.5713133, "tags": {"amenity": "pub", "name": "Billy Booze"}}, {"type": "node", "id": 5901512377, "lat": 55.6904411, "lon": 12.6068178}, {"type": "node", "id": 5901512378, "lat": 55.6904057, "lon": 12.6067968}, {"type": "node", "id": 5901512379, "lat": 55.6903737, "lon": 12.6069718}, {"type": "node", "id": 5901512380, "lat": 55.6904098, "lon": 12.6069916}, {"type": "node", "id": 5909838195, "lat": 55.6679133, "lon": 12.5502065, "tags": {"amenity": "bar", "cuisine": "cocktails", "fvst:fixme": "fvst:no_pos", "fvst:navnelbnr": "732307", "name": "CELSIUS BAR", "opening_hours": "We-Th 17:00-01:00, Fr-Sa 17:00-04:00", "website": "http://celciusbar.dk/"}}, {"type": "node", "id": 5914568859, "lat": 55.7019255, "lon": 12.5584422, "tags": {"entrance": "main"}}, {"type": "node", "id": 5916973685, "lat": 55.6785383, "lon": 12.5930626, "tags": {"amenity": "bar", "fvst:navnelbnr": "749394", "name": "Tipsy Mermaid", "website": "http://www.tipsymermaid.dk/"}}, {"type": "node", "id": 5928394990, "lat": 55.702241, "lon": 12.527665, "tags": {"amenity": "bar", "fvst:navnelbnr": "116423", "name": "M\u00e5gekroen"}}, {"type": "node", "id": 5951744376, "lat": 55.672171, "lon": 12.588714, "tags": {"amenity": "bar", "fvst:navnelbnr": "764166", "name": "Cocktail Bar 1408", "opening_hours": "Tu-We17:00-01:00; Th-Fr 17:00-02:00; Sa 15:00-02:00", "website": "http://cocktailkompagniet.dk/"}}, {"type": "node", "id": 5961450907, "lat": 55.7038598, "lon": 12.5776958, "tags": {"amenity": "pub", "fvst:navnelbnr": "669133", "name": "Park Pub"}}, {"type": "node", "id": 5976423685, "lat": 55.6545487, "lon": 12.6103787, "tags": {"addr:city": "K\u00f8benhavn S", "addr:housenumber": "160", "addr:postcode": "2300", "addr:street": "Amagerbrogade", "amenity": "bar", "name": "Hop House"}}, {"type": "node", "id": 5978840363, "lat": 55.6886272, "lon": 12.5546848, "tags": {"addr:city": "K\u00f8benhavn N", "addr:housenumber": "20", "addr:postcode": "2200", "addr:street": "Griffenfeldsgade", "amenity": "bar", "brewery": "lambic;belgian", "fvst:navnelbnr": "768570", "name": "1420", "opening_hours": "Mo-Su 14:00-00:00"}}, {"type": "node", "id": 6029934580, "lat": 55.690773, "lon": 12.5445454, "tags": {"amenity": "bar", "cuisine": "pub", "email": "skovbaren@gmail.com", "fvst:navnelbnr": "758303", "internet_access": "wlan", "internet_access:fee": "no", "internet_access:ssid": "Skovbar", "name": "Skovbar", "opening_hours": "Tu-Th 16:00-24:00, Fr-Sa 15:00-24:00", "outdoor_seating": "yes", "smoking": "outside"}}, {"type": "node", "id": 6036542117, "lat": 55.7078925, "lon": 12.5778792, "tags": {"amenity": "bar", "fvst:navnelbnr": "115779", "name": "Hermod Bodega", "smoking": "yes"}}, {"type": "node", "id": 6071076502, "lat": 55.671848, "lon": 12.552391, "tags": {"amenity": "bar", "fvst:navnelbnr": "770970", "name": "Duck and Cover", "website": "http://duckandcoverbar.dk/"}}, {"type": "node", "id": 6185877739, "lat": 55.7012874, "lon": 12.5510359, "tags": {"addr:city": "K\u00f8benhavn N", "addr:housenumber": "67", "addr:postcode": "2200", "addr:street": "Tagensvej", "amenity": "bar", "name": "Klint & Bro", "website": "https://www.klintbro.dk/"}}, {"type": "node", "id": 6200292055, "lat": 55.6663641, "lon": 12.5152145, "tags": {"addr:city": "Valby", "addr:housenumber": "61", "addr:postcode": "2500", "addr:street": "Valby Langgade", "amenity": "bar", "name": "Malbeck Vinbar", "operator": "Hans Haahr Larsen"}}, {"type": "way", "id": 25629090, "nodes": [279330501, 1596926625, 1596926620, 1596926627, 1596926707, 1446941374, 1446941356, 1446941362, 1446941360, 1596926652, 1596926642, 1596926732, 1596926684, 279330502, 1596952636, 1596952604, 1596926682, 1596926634, 1596926734, 1596926726, 1596926728, 1596926662, 279330503, 1596926655, 1596926659, 1596926623, 1596926675, 1596926661, 1596926629, 1596926641, 1596926677, 279330504, 1596926718, 1596926702, 1596926654, 1596926658, 1596926694, 1596926690, 279330501], "tags": {"amenity": "nightclub", "architect": "Vilhelm Dahlerup", "building": "yes", "fvst:navnelbnr": "113603", "name": "S\u00f8pavillonen", "start_date": "1894", "wikidata": "Q12004792", "wikipedia": "da:S\u00f8pavillonen"}}, {"type": "way", "id": 36774301, "nodes": [427561448, 5914568859, 4340872469, 4332887878, 4332887876, 4332887877, 4332887875, 427561450, 427561453, 427561448], "tags": {"access": "students", "alt_name": "Caf\u00e9en?", "amenity": "bar", "building": "yes", "fvst:name": "Foreningen til caf\u00e9drift af 1993 caf\u00e9", "fvst:navnelbnr": "118221", "name": "Caf\u00e9en p\u00e5 Naturvidenskab", "operator": "Foreningen til caf\u00e9drift af 1993 caf\u00e9", "outdoor_seating": "yes", "website": "http://www.cafeen.org/"}}, {"type": "way", "id": 36881682, "nodes": [428820273, 428820274, 428820275, 428820276, 428820273], "tags": {"amenity": "nightclub", "building": "yes", "name": "mBAR", "url": "http://www.mbar.dk"}}, {"type": "way", "id": 42123753, "nodes": [523740081, 523740085, 523740088, 523740090, 523740092, 523740097, 893960540, 4181943891, 4181943892, 523740108, 523740112, 523740116, 523740081], "tags": {"amenity": "nightclub", "building": "yes", "building:levels": "2", "name": "Pumpehuset", "website": "http://www.pumpehuset.dk/", "wheelchair": "limited", "wikidata": "Q11996480", "wikipedia": "da:Pumpehuset (K\u00f8benhavn)"}}, {"type": "way", "id": 103169105, "nodes": [1191241486, 1191241470, 1191241471, 1191241468, 1191241486], "tags": {"amenity": "nightclub", "building": "yes", "name": "Spillestedet Stengade", "website": "http://www.stengade.dk/", "wheelchair": "yes", "wikidata": "Q12337109", "wikipedia": "da:Stengade 30"}}, {"type": "way", "id": 131947242, "nodes": [1451717796, 1608081633, 1608081601, 1608081611, 1608081609, 1451717832, 1608081626, 1451717804, 1451717784, 1608081622, 1608081614, 1451717860, 1451717842, 1608081603, 1451717805, 1608081632, 1451717827, 1451717800, 1451717775, 1608081627, 1608081620, 1451717796]}, {"type": "way", "id": 150180004, "nodes": [1631113182, 1631113197, 1631113233, 1631113245, 1631113182], "tags": {"amenity": "bar", "building": "yes", "name": "Mayhem", "website": "http://www.mayhemkbh.dk/"}}, {"type": "way", "id": 152626747, "nodes": [1654318710, 1654318718, 3377857300, 1654318712, 1654318708, 1654318710], "tags": {"amenity": "nightclub", "building": "yes", "name": "D\u00f6dsmaskinen", "source": "Bing"}}, {"type": "way", "id": 162038230, "nodes": [1451717781, 1608081604, 1608081618, 1608081608, 1451717781]}, {"type": "way", "id": 168031842, "nodes": [1793455793, 1793455794, 1923889082, 1793455797, 1793455790, 1793455792, 1923889089, 1923889087, 1793455793], "tags": {"amenity": "public_building", "building": "yes", "name": "Danasvej Bibliotek"}}, {"type": "way", "id": 187638708, "nodes": [1982704591, 1982704584, 1982704546, 1982704551, 1982704593, 1982704591], "tags": {"amenity": "pub", "biergarten": "yes", "building": "yes", "contact:facebook": "https://www.facebook.com/lygtenskro", "contact:website": "http://www.lygtens-kro.dk", "cuisine": "german", "fvst:navnelbnr": "552309", "name": "Lygtens Kro", "opening_hours": "12:00-02:00; Su-Mo off", "outdoor_seating": "yes", "phone": "+45 26369086", "source": "Fugro (Denmark)", "website": "http://lygtens-kro.dk/"}}, {"type": "way", "id": 199391176, "nodes": [2093930247, 4663400648, 4663400623, 4663400636, 4663400604, 4663400610, 4663400615, 4663400601, 4663400638, 4663400614, 4663400633, 4663400647, 4663400632, 4663400624, 2093930280, 4663400617, 4663400628, 4663400616, 4663400627, 2093930270, 2093930278, 2093930281, 2093930268, 2093930252, 2093930249, 4659829622, 4659830111, 2093930272, 2093930250, 2093930257, 4659829643, 4659829620, 2093930265, 2093930251, 2093930256, 2093930266, 2093930253, 2093930282, 2093930258, 2093930261, 2093930262, 2093930260, 2093930277, 2093930275, 2093930279, 4663400649, 4663400621, 2093930255, 2093930259, 2093930263, 2093930271, 4663400606, 4663400643, 4663400609, 4663400603, 2093930248, 2093930254, 2093930267, 2093930269, 2093930273, 2093930274, 2093930247], "tags": {"amenity": "public_building", "building": "yes", "name": "Travbanehuset"}}, {"type": "way", "id": 258477312, "nodes": [2638246419, 4183419306, 2638246430, 4183419307, 4183419304, 2638246427, 4183419302, 2638246425, 4183419301, 4183419305, 2638246419], "tags": {"amenity": "public_building", "building": "yes", "name": "Beboerhuset"}}, {"type": "way", "id": 324488860, "nodes": [3312007936, 3529010440, 3312007937, 2338189065, 2338189050, 2338189077, 2338189058, 3312007936], "tags": {"amenity": "bar", "building": "yes", "fvst:navnelbnr": "516689", "name": "Lidk\u00f8b", "opening_hours": "16:00-02:00; Su 20:00-02:00", "phone": "+45 33112010", "website": "http://lidkoeb.dk/"}}, {"type": "way", "id": 342529378, "nodes": [3495105565, 3495105566, 3495105567, 3495105568, 3495105569, 3495105570, 3495105565], "tags": {"amenity": "bar", "building:part": "yes", "name": "Soho rooftop terrace", "operator": "Soho", "smoking": "outside", "website": "http://www.soho.dk/"}}, {"type": "way", "id": 625035646, "nodes": [5901512377, 5901512378, 5901512379, 5901512380, 5901512377], "tags": {"amenity": "bar", "building": "yes", "name": "Baby Baby"}}, {"type": "relation", "id": 2169552, "members": [{"type": "way", "ref": 131947242, "role": "outer"}, {"type": "way", "ref": 162038230, "role": "inner"}], "tags": {"amenity": "nightclub", "building": "yes", "name": "The Rock", "type": "multipolygon"}}]}